{
"type": "FeatureCollection",
"name": "communes",
"crs": { "type": "name", "properties": { "name": "urn:ogc:def:crs:OGC:1.3:CRS84" } },
"xy_coordinate_resolution": 1e-05,
"features": [
{ "type": "Feature", "properties": { "CommGis": "KH040301", "COMNAME_KH": "ផ្សារឆ្នាំង", "COM_NAME": "Phsar Chhnang" }, "geometry": { "type": "Polygon", "coordinates": [ [ [ 104.66234, 12.32151 ], [ 104.66561, 12.32442 ], [ 104.66639, 12.32076 ], [ 104.66947, 12.31514 ], [ 104.67116, 12.31136 ], [ 104.67238, 12.3091 ], [ 104.67404, 12.30637 ], [ 104.67464, 12.30614 ], [ 104.67621, 12.30109 ], [ 104.67815, 12.29139 ], [ 104.67925, 12.28695 ], [ 104.68108, 12.28055 ], [ 104.68199, 12.27869 ], [ 104.68558, 12.27522 ], [ 104.68805, 12.27315 ], [ 104.69598, 12.26864 ], [ 104.69774, 12.26784 ], [ 104.69712, 12.26694 ], [ 104.69628, 12.2662 ], [ 104.69439, 12.26391 ], [ 104.69355, 12.26253 ], [ 104.69276, 12.26196 ], [ 104.69159, 12.26055 ], [ 104.69079, 12.26076 ], [ 104.6884, 12.26201 ], [ 104.68632, 12.26288 ], [ 104.68476, 12.26392 ], [ 104.68245, 12.26482 ], [ 104.68138, 12.26543 ], [ 104.68081, 12.26464 ], [ 104.68189, 12.26408 ], [ 104.68904, 12.25732 ], [ 104.68988, 12.25604 ], [ 104.6907, 12.25405 ], [ 104.69345, 12.24879 ], [ 104.69332, 12.24797 ], [ 104.69231, 12.24845 ], [ 104.69071, 12.25058 ], [ 104.69004, 12.25196 ], [ 104.68829, 12.25209 ], [ 104.68431, 12.25371 ], [ 104.68264, 12.25401 ], [ 104.67744, 12.25362 ], [ 104.67478, 12.25376 ], [ 104.67346, 12.25368 ], [ 104.67208, 12.25386 ], [ 104.67049, 12.25379 ], [ 104.66712, 12.25405 ], [ 104.66943, 12.25656 ], [ 104.66818, 12.26027 ], [ 104.66834, 12.26195 ], [ 104.66893, 12.26341 ], [ 104.67058, 12.26481 ], [ 104.67251, 12.26563 ], [ 104.67336, 12.26643 ], [ 104.67424, 12.26842 ], [ 104.67437, 12.2692 ], [ 104.67269, 12.27227 ], [ 104.67341, 12.27513 ], [ 104.67286, 12.27587 ], [ 104.67254, 12.27723 ], [ 104.66992, 12.28211 ], [ 104.66945, 12.28433 ], [ 104.66882, 12.2859 ], [ 104.66762, 12.29168 ], [ 104.66696, 12.29399 ], [ 104.66662, 12.29659 ], [ 104.66553, 12.30008 ], [ 104.66427, 12.30631 ], [ 104.66359, 12.30877 ], [ 104.66323, 12.31127 ], [ 104.66298, 12.31773 ], [ 104.66234, 12.32151 ] ] ] } },
{ "type": "Feature", "properties": { "CommGis": "KH040304", "COMNAME_KH": "ខ្សាម", "COM_NAME": "Khsam" }, "geometry": { "type": "Polygon", "coordinates": [ [ [ 104.64699, 12.26535 ], [ 104.64659, 12.26872 ], [ 104.64599, 12.26926 ], [ 104.64583, 12.2699 ], [ 104.64584, 12.2713 ], [ 104.64771, 12.27844 ], [ 104.65019, 12.28886 ], [ 104.65439, 12.30307 ], [ 104.65732, 12.31434 ], [ 104.65808, 12.31649 ], [ 104.65992, 12.31936 ], [ 104.66234, 12.32151 ], [ 104.66298, 12.31773 ], [ 104.66323, 12.31127 ], [ 104.66359, 12.30877 ], [ 104.66427, 12.30631 ], [ 104.66553, 12.30008 ], [ 104.66662, 12.29659 ], [ 104.66696, 12.29399 ], [ 104.66762, 12.29168 ], [ 104.66882, 12.2859 ], [ 104.66945, 12.28433 ], [ 104.66992, 12.28211 ], [ 104.67254, 12.27723 ], [ 104.67286, 12.27587 ], [ 104.67341, 12.27513 ], [ 104.67269, 12.27227 ], [ 104.67437, 12.2692 ], [ 104.67424, 12.26842 ], [ 104.67336, 12.26643 ], [ 104.67251, 12.26563 ], [ 104.67058, 12.26481 ], [ 104.66893, 12.26341 ], [ 104.66834, 12.26195 ], [ 104.66818, 12.26027 ], [ 104.66943, 12.25656 ], [ 104.66712, 12.25405 ], [ 104.66621, 12.25479 ], [ 104.66507, 12.25608 ], [ 104.66332, 12.25752 ], [ 104.66261, 12.25678 ], [ 104.66159, 12.25634 ], [ 104.66039, 12.25622 ], [ 104.65391, 12.25698 ], [ 104.65037, 12.26132 ], [ 104.64741, 12.26411 ], [ 104.64699, 12.26535 ] ] ] } },
{ "type": "Feature", "properties": { "CommGis": "KH040302", "COMNAME_KH": "កំពង់ឆ្នាំង", "COM_NAME": "Kampong Chhnang" }, "geometry": { "type": "Polygon", "coordinates": [ [ [ 104.69774, 12.26784 ], [ 104.69952, 12.26666 ], [ 104.70227, 12.26536 ], [ 104.70492, 12.26364 ], [ 104.70736, 12.26183 ], [ 104.71364, 12.25793 ], [ 104.71455, 12.2571 ], [ 104.71476, 12.25501 ], [ 104.71444, 12.25376 ], [ 104.71421, 12.25196 ], [ 104.71382, 12.24392 ], [ 104.71232, 12.2276 ], [ 104.70456, 12.22464 ], [ 104.69756, 12.22465 ], [ 104.69489, 12.22375 ], [ 104.6929, 12.22226 ], [ 104.69043, 12.2215 ], [ 104.6855, 12.22094 ], [ 104.68277, 12.22081 ], [ 104.67676, 12.22004 ], [ 104.67529, 12.21942 ], [ 104.67347, 12.21806 ], [ 104.67143, 12.21677 ], [ 104.66968, 12.21742 ], [ 104.66796, 12.21848 ], [ 104.66607, 12.21993 ], [ 104.66482, 12.22135 ], [ 104.66356, 12.22318 ], [ 104.66234, 12.22499 ], [ 104.66068, 12.22806 ], [ 104.66007, 12.23164 ], [ 104.66004, 12.23354 ], [ 104.66139, 12.2334 ], [ 104.66267, 12.23394 ], [ 104.66577, 12.23682 ], [ 104.66652, 12.2359 ], [ 104.66767, 12.23486 ], [ 104.66836, 12.24501 ], [ 104.66847, 12.25394 ], [ 104.67744, 12.25362 ], [ 104.68264, 12.25401 ], [ 104.68431, 12.25371 ], [ 104.68829, 12.25209 ], [ 104.69004, 12.25196 ], [ 104.69071, 12.25058 ], [ 104.69231, 12.24845 ], [ 104.69332, 12.24797 ], [ 104.69345, 12.24879 ], [ 104.6907, 12.25405 ], [ 104.68988, 12.25604 ], [ 104.68904, 12.25732 ], [ 104.68189, 12.26408 ], [ 104.68081, 12.26464 ], [ 104.68138, 12.26543 ], [ 104.68245, 12.26482 ], [ 104.68476, 12.26392 ], [ 104.68632, 12.26288 ], [ 104.6884, 12.26201 ], [ 104.69079, 12.26076 ], [ 104.69159, 12.26055 ], [ 104.69276, 12.26196 ], [ 104.69355, 12.26253 ], [ 104.69439, 12.26391 ], [ 104.69628, 12.2662 ], [ 104.69712, 12.26694 ], [ 104.69774, 12.26784 ] ] ] } },
{ "type": "Feature", "properties": { "CommGis": "KH040303", "COMNAME_KH": "ប្អេរ", "COM_NAME": "B'er" }, "geometry": { "type": "Polygon", "coordinates": [ [ [ 104.65391, 12.25698 ], [ 104.66039, 12.25622 ], [ 104.66159, 12.25634 ], [ 104.66261, 12.25678 ], [ 104.66332, 12.25752 ], [ 104.66507, 12.25608 ], [ 104.66621, 12.25479 ], [ 104.66712, 12.25405 ], [ 104.66847, 12.25394 ], [ 104.66836, 12.24501 ], [ 104.66767, 12.23486 ], [ 104.66652, 12.2359 ], [ 104.66577, 12.23682 ], [ 104.66267, 12.23394 ], [ 104.66139, 12.2334 ], [ 104.66004, 12.23354 ], [ 104.66008, 12.24707 ], [ 104.6584, 12.25194 ], [ 104.65391, 12.25698 ] ] ] } }
]
}
