{
"type": "FeatureCollection",
"name": "roads",
"crs": { "type": "name", "properties": { "name": "urn:ogc:def:crs:OGC:1.3:CRS84" } },
"xy_coordinate_resolution": 1e-05,
"features": [
{ "type": "Feature", "properties": { "Type": "Primary road", "ROAD_COND_": "Pave Road", "len_km": 3.27 }, "geometry": { "type": "LineString", "coordinates": [ [ 104.66458, 12.20483 ], [ 104.66594, 12.21016 ], [ 104.66676, 12.2129 ], [ 104.66749, 12.21575 ], [ 104.66813, 12.22086 ], [ 104.66876, 12.22679 ], [ 104.66977, 12.23386 ] ] } },
{ "type": "Feature", "properties": { "Type": "Primary road", "ROAD_COND_": "Pave Road", "len_km": 3.6 }, "geometry": { "type": "LineString", "coordinates": [ [ 104.66095, 12.25793 ], [ 104.65967, 12.25784 ], [ 104.65935, 12.25793 ], [ 104.65737, 12.25928 ], [ 104.6559, 12.26066 ], [ 104.65524, 12.26105 ], [ 104.65046, 12.26358 ], [ 104.64527, 12.26608 ], [ 104.64465, 12.26654 ], [ 104.64225, 12.26953 ], [ 104.64071, 12.27012 ], [ 104.63951, 12.27038 ], [ 104.63204, 12.27104 ] ] } },
{ "type": "Feature", "properties": { "Type": "Primary road", "ROAD_COND_": "Pave Road", "len_km": 0.21 }, "geometry": { "type": "LineString", "coordinates": [ [ 104.66977, 12.23386 ], [ 104.67002, 12.23578 ] ] } },
{ "type": "Feature", "properties": { "Type": "Track", "ROAD_COND_": "Carttrack", "len_km": 0.95 }, "geometry": { "type": "LineString", "coordinates": [ [ 104.67669, 12.23141 ], [ 104.67565, 12.23995 ] ] } },
{ "type": "Feature", "properties": { "Type": "Primary road", "ROAD_COND_": "Pave Road", "len_km": 0.57 }, "geometry": { "type": "LineString", "coordinates": [ [ 104.67002, 12.23578 ], [ 104.67075, 12.2409 ] ] } },
{ "type": "Feature", "properties": { "Type": "Primary road", "ROAD_COND_": "Pave Road", "len_km": 0.2 }, "geometry": { "type": "LineString", "coordinates": [ [ 104.67075, 12.2409 ], [ 104.67103, 12.24266 ] ] } },
{ "type": "Feature", "properties": { "Type": "Primary road", "ROAD_COND_": "Pave Road", "len_km": 0.15 }, "geometry": { "type": "LineString", "coordinates": [ [ 104.67103, 12.24266 ], [ 104.67124, 12.24396 ] ] } },
{ "type": "Feature", "properties": { "Type": "Track", "ROAD_COND_": "Carttrack", "len_km": 0.96 }, "geometry": { "type": "LineString", "coordinates": [ [ 104.67565, 12.23995 ], [ 104.67458, 12.24855 ] ] } },
{ "type": "Feature", "properties": { "Type": "Primary road", "ROAD_COND_": "Pave Road", "len_km": 0.23 }, "geometry": { "type": "LineString", "coordinates": [ [ 104.67124, 12.24396 ], [ 104.67142, 12.24513 ], [ 104.67142, 12.24605 ] ] } },
{ "type": "Feature", "properties": { "Type": "Primary road", "ROAD_COND_": "Pave Road", "len_km": 0.21 }, "geometry": { "type": "LineString", "coordinates": [ [ 104.67142, 12.24605 ], [ 104.67134, 12.24683 ], [ 104.67076, 12.24779 ] ] } },
{ "type": "Feature", "properties": { "Type": "Cycleway, footpath, etc.", "ROAD_COND_": "Footpath", "len_km": 1.37 }, "geometry": { "type": "LineString", "coordinates": [ [ 104.66594, 12.21016 ], [ 104.65996, 12.21158 ], [ 104.65378, 12.21326 ] ] } },
{ "type": "Feature", "properties": { "Type": "Primary road", "ROAD_COND_": "Pave Road", "len_km": 0.34 }, "geometry": { "type": "LineString", "coordinates": [ [ 104.64824, 12.23622 ], [ 104.6477, 12.23536 ], [ 104.64625, 12.2339 ] ] } },
{ "type": "Feature", "properties": { "Type": "Primary road", "ROAD_COND_": "Pave Road", "len_km": 0.14 }, "geometry": { "type": "LineString", "coordinates": [ [ 104.64904, 12.23723 ], [ 104.64824, 12.23622 ] ] } },
{ "type": "Feature", "properties": { "Type": "Track", "ROAD_COND_": "Carttrack", "len_km": 0.57 }, "geometry": { "type": "LineString", "coordinates": [ [ 104.64973, 12.23813 ], [ 104.65071, 12.2373 ], [ 104.6514, 12.23713 ], [ 104.65346, 12.23682 ], [ 104.6543, 12.23691 ], [ 104.65458, 12.23707 ] ] } },
{ "type": "Feature", "properties": { "Type": "Track", "ROAD_COND_": "Carttrack", "len_km": 0.16 }, "geometry": { "type": "LineString", "coordinates": [ [ 104.65458, 12.23707 ], [ 104.65496, 12.23728 ], [ 104.65513, 12.23748 ], [ 104.65505, 12.23819 ] ] } },
{ "type": "Feature", "properties": { "Type": "Primary road", "ROAD_COND_": "Pave Road", "len_km": 0.12 }, "geometry": { "type": "LineString", "coordinates": [ [ 104.64973, 12.23813 ], [ 104.64904, 12.23723 ] ] } },
{ "type": "Feature", "properties": { "Type": "Track", "ROAD_COND_": "Carttrack", "len_km": 0.41 }, "geometry": { "type": "LineString", "coordinates": [ [ 104.6583, 12.23677 ], [ 104.65801, 12.23777 ], [ 104.65778, 12.2404 ] ] } },
{ "type": "Feature", "properties": { "Type": "Track", "ROAD_COND_": "Carttrack", "len_km": 0.23 }, "geometry": { "type": "LineString", "coordinates": [ [ 104.65505, 12.23819 ], [ 104.65478, 12.24021 ] ] } },
{ "type": "Feature", "properties": { "Type": "Primary road", "ROAD_COND_": "Pave Road", "len_km": 0.8 }, "geometry": { "type": "LineString", "coordinates": [ [ 104.65425, 12.24386 ], [ 104.65128, 12.24017 ], [ 104.64973, 12.23813 ] ] } },
{ "type": "Feature", "properties": { "Type": "Track", "ROAD_COND_": "Carttrack", "len_km": 0.41 }, "geometry": { "type": "LineString", "coordinates": [ [ 104.65478, 12.24021 ], [ 104.65425, 12.24386 ] ] } },
{ "type": "Feature", "properties": { "Type": "Tertiary", "ROAD_COND_": "Road", "len_km": 0.64 }, "geometry": { "type": "LineString", "coordinates": [ [ 104.66697, 12.2291 ], [ 104.66688, 12.22819 ], [ 104.66541, 12.22353 ] ] } },
{ "type": "Feature", "properties": { "Type": "Track", "ROAD_COND_": "Carttrack", "len_km": 0.23 }, "geometry": { "type": "LineString", "coordinates": [ [ 104.66908, 12.22894 ], [ 104.66881, 12.229 ], [ 104.66697, 12.2291 ] ] } },
{ "type": "Feature", "properties": { "Type": "Track", "ROAD_COND_": "Carttrack", "len_km": 0.78 }, "geometry": { "type": "LineString", "coordinates": [ [ 104.66697, 12.2291 ], [ 104.66595, 12.23099 ], [ 104.66406, 12.23302 ], [ 104.66187, 12.23318 ] ] } },
{ "type": "Feature", "properties": { "Type": "Tertiary", "ROAD_COND_": "Road", "len_km": 0.58 }, "geometry": { "type": "LineString", "coordinates": [ [ 104.6674, 12.2343 ], [ 104.66729, 12.23199 ], [ 104.6671, 12.23054 ], [ 104.66706, 12.2295 ], [ 104.66697, 12.2291 ] ] } },
{ "type": "Feature", "properties": { "Type": "Track", "ROAD_COND_": "Carttrack", "len_km": 0.24 }, "geometry": { "type": "LineString", "coordinates": [ [ 104.66187, 12.23318 ], [ 104.6597, 12.23331 ] ] } },
{ "type": "Feature", "properties": { "Type": "Track", "ROAD_COND_": "Carttrack", "len_km": 0.48 }, "geometry": { "type": "LineString", "coordinates": [ [ 104.6597, 12.23331 ], [ 104.65887, 12.23338 ], [ 104.65864, 12.2336 ], [ 104.65841, 12.23641 ], [ 104.6583, 12.23677 ] ] } },
{ "type": "Feature", "properties": { "Type": "Tertiary", "ROAD_COND_": "Pave Road", "len_km": 0.19 }, "geometry": { "type": "LineString", "coordinates": [ [ 104.66334, 12.24199 ], [ 104.66508, 12.24225 ] ] } },
{ "type": "Feature", "properties": { "Type": "Track", "ROAD_COND_": "Carttrack", "len_km": 0.8 }, "geometry": { "type": "LineString", "coordinates": [ [ 104.65778, 12.2404 ], [ 104.65764, 12.24216 ], [ 104.65765, 12.24338 ], [ 104.65803, 12.24405 ], [ 104.65943, 12.24552 ], [ 104.65979, 12.24648 ], [ 104.65973, 12.24694 ] ] } },
{ "type": "Feature", "properties": { "Type": "Road, residential, living street, etc.", "ROAD_COND_": "Street", "len_km": 0.15 }, "geometry": { "type": "LineString", "coordinates": [ [ 104.66479, 12.24531 ], [ 104.66619, 12.24538 ] ] } },
{ "type": "Feature", "properties": { "Type": "Tertiary", "ROAD_COND_": "Pave Road", "len_km": 0.09 }, "geometry": { "type": "LineString", "coordinates": [ [ 104.66147, 12.2463 ], [ 104.66082, 12.24588 ] ] } },
{ "type": "Feature", "properties": { "Type": "Track", "ROAD_COND_": "Carttrack", "len_km": 0.02 }, "geometry": { "type": "LineString", "coordinates": [ [ 104.65425, 12.24386 ], [ 104.65416, 12.24397 ] ] } },
{ "type": "Feature", "properties": { "Type": "Primary road", "ROAD_COND_": "Pave Road", "len_km": 0.37 }, "geometry": { "type": "LineString", "coordinates": [ [ 104.65637, 12.24647 ], [ 104.65603, 12.24615 ], [ 104.65425, 12.24386 ] ] } },
{ "type": "Feature", "properties": { "Type": "Primary road", "ROAD_COND_": "Pave Road", "len_km": 0.27 }, "geometry": { "type": "LineString", "coordinates": [ [ 104.65829, 12.24806 ], [ 104.65728, 12.24733 ], [ 104.65637, 12.24647 ] ] } },
{ "type": "Feature", "properties": { "Type": "Track", "ROAD_COND_": "Carttrack", "len_km": 1.22 }, "geometry": { "type": "LineString", "coordinates": [ [ 104.65416, 12.24397 ], [ 104.65363, 12.24463 ], [ 104.65126, 12.25453 ] ] } },
{ "type": "Feature", "properties": { "Type": "Tertiary", "ROAD_COND_": "Pave Road", "len_km": 0.27 }, "geometry": { "type": "LineString", "coordinates": [ [ 104.65852, 12.24821 ], [ 104.65819, 12.25066 ] ] } },
{ "type": "Feature", "properties": { "Type": "Tertiary", "ROAD_COND_": "Pave Road", "len_km": 0.18 }, "geometry": { "type": "LineString", "coordinates": [ [ 104.65819, 12.25066 ], [ 104.65797, 12.25231 ] ] } },
{ "type": "Feature", "properties": { "Type": "Tertiary", "ROAD_COND_": "Pave Road", "len_km": 0.23 }, "geometry": { "type": "LineString", "coordinates": [ [ 104.65797, 12.25231 ], [ 104.6577, 12.25436 ] ] } },
{ "type": "Feature", "properties": { "Type": "Cycleway, footpath, etc.", "ROAD_COND_": "Footpath", "len_km": 0.11 }, "geometry": { "type": "LineString", "coordinates": [ [ 104.63838, 12.25519 ], [ 104.63806, 12.25492 ], [ 104.63752, 12.25467 ] ] } },
{ "type": "Feature", "properties": { "Type": "Tertiary", "ROAD_COND_": "Road", "len_km": 0.7 }, "geometry": { "type": "LineString", "coordinates": [ [ 104.65126, 12.25453 ], [ 104.6577, 12.25436 ] ] } },
{ "type": "Feature", "properties": { "Type": "Tertiary", "ROAD_COND_": "Road", "len_km": 1.27 }, "geometry": { "type": "LineString", "coordinates": [ [ 104.65126, 12.25453 ], [ 104.63963, 12.25501 ] ] } },
{ "type": "Feature", "properties": { "Type": "Tertiary", "ROAD_COND_": "Pave Road", "len_km": 0.38 }, "geometry": { "type": "LineString", "coordinates": [ [ 104.66147, 12.2463 ], [ 104.66247, 12.24663 ], [ 104.66474, 12.24756 ] ] } },
{ "type": "Feature", "properties": { "Type": "Track", "ROAD_COND_": "Carttrack", "len_km": 0.2 }, "geometry": { "type": "LineString", "coordinates": [ [ 104.65973, 12.24694 ], [ 104.65829, 12.24806 ] ] } },
{ "type": "Feature", "properties": { "Type": "Tertiary", "ROAD_COND_": "Pave Road", "len_km": 0.37 }, "geometry": { "type": "LineString", "coordinates": [ [ 104.66024, 12.24945 ], [ 104.66147, 12.2463 ] ] } },
{ "type": "Feature", "properties": { "Type": "Primary road", "ROAD_COND_": "Pave Road", "len_km": 0.03 }, "geometry": { "type": "LineString", "coordinates": [ [ 104.65852, 12.24821 ], [ 104.65829, 12.24806 ] ] } },
{ "type": "Feature", "properties": { "Type": "Primary road", "ROAD_COND_": "Pave Road", "len_km": 0.19 }, "geometry": { "type": "LineString", "coordinates": [ [ 104.65991, 12.24921 ], [ 104.65852, 12.24821 ] ] } },
{ "type": "Feature", "properties": { "Type": "Primary road", "ROAD_COND_": "Pave Road", "len_km": 0.04 }, "geometry": { "type": "LineString", "coordinates": [ [ 104.66024, 12.24945 ], [ 104.65991, 12.24921 ] ] } },
{ "type": "Feature", "properties": { "Type": "Tertiary", "ROAD_COND_": "Pave Road", "len_km": 0.15 }, "geometry": { "type": "LineString", "coordinates": [ [ 104.66158, 12.25039 ], [ 104.66229, 12.24928 ] ] } },
{ "type": "Feature", "properties": { "Type": "Primary road", "ROAD_COND_": "Pave Road", "len_km": 0.18 }, "geometry": { "type": "LineString", "coordinates": [ [ 104.66158, 12.25039 ], [ 104.66024, 12.24945 ] ] } },
{ "type": "Feature", "properties": { "Type": "Primary road", "ROAD_COND_": "Pave Road", "len_km": 0.06 }, "geometry": { "type": "LineString", "coordinates": [ [ 104.66833, 12.25117 ], [ 104.66836, 12.25168 ] ] } },
{ "type": "Feature", "properties": { "Type": "Primary road", "ROAD_COND_": "Pave Road", "len_km": 0.46 }, "geometry": { "type": "LineString", "coordinates": [ [ 104.665, 12.25282 ], [ 104.66158, 12.25039 ] ] } },
{ "type": "Feature", "properties": { "Type": "Primary road", "ROAD_COND_": "Pave Road", "len_km": 0.32 }, "geometry": { "type": "LineString", "coordinates": [ [ 104.67076, 12.24779 ], [ 104.6691, 12.25022 ] ] } },
{ "type": "Feature", "properties": { "Type": "Track", "ROAD_COND_": "Carttrack", "len_km": 0.35 }, "geometry": { "type": "LineString", "coordinates": [ [ 104.67458, 12.24855 ], [ 104.67358, 12.25155 ] ] } },
{ "type": "Feature", "properties": { "Type": "Primary road", "ROAD_COND_": "Pave Road", "len_km": 0.02 }, "geometry": { "type": "LineString", "coordinates": [ [ 104.66836, 12.25168 ], [ 104.66837, 12.25185 ] ] } },
{ "type": "Feature", "properties": { "Type": "Track", "ROAD_COND_": "Carttrack", "len_km": 0.26 }, "geometry": { "type": "LineString", "coordinates": [ [ 104.67358, 12.25155 ], [ 104.67292, 12.25291 ], [ 104.6724, 12.25362 ] ] } },
{ "type": "Feature", "properties": { "Type": "Primary road", "ROAD_COND_": "Pave Road", "len_km": 0.19 }, "geometry": { "type": "LineString", "coordinates": [ [ 104.66837, 12.25185 ], [ 104.66848, 12.25355 ] ] } },
{ "type": "Feature", "properties": { "Type": "Track", "ROAD_COND_": "Carttrack", "len_km": 0.17 }, "geometry": { "type": "LineString", "coordinates": [ [ 104.6724, 12.25362 ], [ 104.67149, 12.25483 ] ] } },
{ "type": "Feature", "properties": { "Type": "Primary road", "ROAD_COND_": "Pave Road", "len_km": 0.02 }, "geometry": { "type": "LineString", "coordinates": [ [ 104.66865, 12.25542 ], [ 104.6685, 12.25527 ] ] } },
{ "type": "Feature", "properties": { "Type": "Primary road", "ROAD_COND_": "Pave Road", "len_km": 0.07 }, "geometry": { "type": "LineString", "coordinates": [ [ 104.66911, 12.25583 ], [ 104.66865, 12.25542 ] ] } },
{ "type": "Feature", "properties": { "Type": "Track", "ROAD_COND_": "Carttrack", "len_km": 0.26 }, "geometry": { "type": "LineString", "coordinates": [ [ 104.67149, 12.25483 ], [ 104.6699, 12.25663 ] ] } },
{ "type": "Feature", "properties": { "Type": "Primary road", "ROAD_COND_": "Pave Road", "len_km": 0.12 }, "geometry": { "type": "LineString", "coordinates": [ [ 104.6699, 12.25663 ], [ 104.66911, 12.25583 ] ] } },
{ "type": "Feature", "properties": { "Type": "Primary road", "ROAD_COND_": "Pave Road", "len_km": 0.13 }, "geometry": { "type": "LineString", "coordinates": [ [ 104.66506, 12.25401 ], [ 104.665, 12.25282 ] ] } },
{ "type": "Feature", "properties": { "Type": "Primary road", "ROAD_COND_": "Pave Road", "len_km": 0.16 }, "geometry": { "type": "LineString", "coordinates": [ [ 104.66848, 12.25355 ], [ 104.66826, 12.25379 ], [ 104.66712, 12.25387 ] ] } },
{ "type": "Feature", "properties": { "Type": "Tertiary", "ROAD_COND_": "Road", "len_km": 0.54 }, "geometry": { "type": "LineString", "coordinates": [ [ 104.66015, 12.25427 ], [ 104.66506, 12.25401 ] ] } },
{ "type": "Feature", "properties": { "Type": "Tertiary", "ROAD_COND_": "Road", "len_km": 0.27 }, "geometry": { "type": "LineString", "coordinates": [ [ 104.6577, 12.25436 ], [ 104.66015, 12.25427 ] ] } },
{ "type": "Feature", "properties": { "Type": "Primary road", "ROAD_COND_": "Pave Road", "len_km": 0.14 }, "geometry": { "type": "LineString", "coordinates": [ [ 104.66804, 12.2548 ], [ 104.66712, 12.25387 ] ] } },
{ "type": "Feature", "properties": { "Type": "Primary road", "ROAD_COND_": "Pave Road", "len_km": 0.31 }, "geometry": { "type": "LineString", "coordinates": [ [ 104.66712, 12.25387 ], [ 104.66527, 12.25597 ] ] } },
{ "type": "Feature", "properties": { "Type": "Primary road", "ROAD_COND_": "Pave Road", "len_km": 0.07 }, "geometry": { "type": "LineString", "coordinates": [ [ 104.6685, 12.25527 ], [ 104.66804, 12.2548 ] ] } },
{ "type": "Feature", "properties": { "Type": "Primary road", "ROAD_COND_": "Pave Road", "len_km": 0.55 }, "geometry": { "type": "LineString", "coordinates": [ [ 104.66527, 12.25597 ], [ 104.6637, 12.2575 ], [ 104.66261, 12.25794 ], [ 104.66095, 12.25793 ] ] } },
{ "type": "Feature", "properties": { "Type": "Cycleway, footpath, etc.", "ROAD_COND_": "Footpath", "len_km": 1.27 }, "geometry": { "type": "LineString", "coordinates": [ [ 104.6637, 12.2575 ], [ 104.6623, 12.26512 ], [ 104.66236, 12.26558 ], [ 104.66336, 12.26669 ], [ 104.66405, 12.26839 ] ] } },
{ "type": "Feature", "properties": { "Type": "Cycleway, footpath, etc.", "ROAD_COND_": "Footpath", "len_km": 1.86 }, "geometry": { "type": "LineString", "coordinates": [ [ 104.65404, 12.27166 ], [ 104.65542, 12.27321 ], [ 104.65625, 12.27375 ], [ 104.65721, 12.27488 ], [ 104.65753, 12.27507 ], [ 104.65781, 12.27511 ], [ 104.65822, 12.27507 ], [ 104.65863, 12.27489 ], [ 104.65882, 12.27493 ], [ 104.65923, 12.27543 ], [ 104.65951, 12.27566 ], [ 104.65983, 12.27579 ], [ 104.6624, 12.27652 ], [ 104.66282, 12.27656 ], [ 104.66374, 12.27693 ], [ 104.66456, 12.27747 ], [ 104.66534, 12.27824 ], [ 104.66741, 12.27883 ], [ 104.66778, 12.2798 ] ] } },
{ "type": "Feature", "properties": { "Type": "Primary road", "ROAD_COND_": "Pave Road", "len_km": 0.14 }, "geometry": { "type": "LineString", "coordinates": [ [ 104.67074, 12.2576 ], [ 104.6699, 12.25663 ] ] } },
{ "type": "Feature", "properties": { "Type": "Primary road", "ROAD_COND_": "Pave Road", "len_km": 0.16 }, "geometry": { "type": "LineString", "coordinates": [ [ 104.67182, 12.25863 ], [ 104.67074, 12.2576 ] ] } },
{ "type": "Feature", "properties": { "Type": "Primary road", "ROAD_COND_": "Pave Road", "len_km": 0.14 }, "geometry": { "type": "LineString", "coordinates": [ [ 104.6727, 12.25954 ], [ 104.67182, 12.25863 ] ] } },
{ "type": "Feature", "properties": { "Type": "Primary road", "ROAD_COND_": "Pave Road", "len_km": 0.79 }, "geometry": { "type": "LineString", "coordinates": [ [ 104.67803, 12.26431 ], [ 104.67746, 12.26415 ], [ 104.67691, 12.26388 ], [ 104.6727, 12.25954 ] ] } },
{ "type": "Feature", "properties": { "Type": "Primary road", "ROAD_COND_": "Pave Road", "len_km": 0.57 }, "geometry": { "type": "LineString", "coordinates": [ [ 104.68157, 12.26811 ], [ 104.67803, 12.26431 ] ] } },
{ "type": "Feature", "properties": { "Type": "Tertiary", "ROAD_COND_": "Pave Road", "len_km": 1.96 }, "geometry": { "type": "LineString", "coordinates": [ [ 104.68157, 12.26811 ], [ 104.67758, 12.27097 ], [ 104.67555, 12.27284 ], [ 104.67416, 12.27431 ], [ 104.67222, 12.27683 ], [ 104.67118, 12.27834 ], [ 104.67035, 12.28015 ], [ 104.66999, 12.28122 ] ] } },
{ "type": "Feature", "properties": { "Type": "Track", "ROAD_COND_": "Carttrack", "len_km": 0.29 }, "geometry": { "type": "LineString", "coordinates": [ [ 104.70963, 12.2739 ], [ 104.71175, 12.27546 ] ] } },
{ "type": "Feature", "properties": { "Type": "Tertiary", "ROAD_COND_": "Pave Road", "len_km": 0.29 }, "geometry": { "type": "LineString", "coordinates": [ [ 104.66778, 12.2798 ], [ 104.66787, 12.28001 ], [ 104.66842, 12.2805 ], [ 104.66999, 12.28122 ] ] } },
{ "type": "Feature", "properties": { "Type": "Secondary", "ROAD_COND_": "New Road", "len_km": 2.43 }, "geometry": { "type": "LineString", "coordinates": [ [ 104.68157, 12.26811 ], [ 104.69745, 12.28351 ] ] } },
{ "type": "Feature", "properties": { "Type": "Cycleway, footpath, etc.", "ROAD_COND_": "Footpath", "len_km": 1.37 }, "geometry": { "type": "LineString", "coordinates": [ [ 104.66999, 12.28122 ], [ 104.66791, 12.28842 ], [ 104.66684, 12.29321 ] ] } },
{ "type": "Feature", "properties": { "Type": "Cycleway, footpath, etc.", "ROAD_COND_": "Footpath", "len_km": 0.14 }, "geometry": { "type": "LineString", "coordinates": [ [ 104.63963, 12.25501 ], [ 104.63838, 12.25519 ] ] } },
{ "type": "Feature", "properties": { "Type": "Track", "ROAD_COND_": "Carttrack", "len_km": 0.94 }, "geometry": { "type": "LineString", "coordinates": [ [ 104.65126, 12.25453 ], [ 104.65084, 12.25661 ], [ 104.65056, 12.25855 ], [ 104.65075, 12.25941 ], [ 104.65205, 12.26198 ], [ 104.65226, 12.26262 ] ] } },
{ "type": "Feature", "properties": { "Type": "Cycleway, footpath, etc.", "ROAD_COND_": "Footpath", "len_km": 1.51 }, "geometry": { "type": "MultiLineString", "coordinates": [ [ [ 104.6333, 12.26364 ], [ 104.63503, 12.26338 ], [ 104.63577, 12.2629 ], [ 104.63791, 12.26238 ], [ 104.63818, 12.26218 ], [ 104.63823, 12.26049 ], [ 104.63814, 12.25996 ], [ 104.63781, 12.25961 ], [ 104.63758, 12.25895 ], [ 104.63722, 12.25854 ], [ 104.6369, 12.25759 ], [ 104.63689, 12.25666 ], [ 104.63696, 12.25609 ], [ 104.63673, 12.25591 ], [ 104.63663, 12.25568 ] ], [ [ 104.63692, 12.2553 ], [ 104.63788, 12.25555 ], [ 104.63838, 12.25519 ] ] ] } },
{ "type": "Feature", "properties": { "Type": "Tertiary", "ROAD_COND_": "Road", "len_km": 1.66 }, "geometry": { "type": "LineString", "coordinates": [ [ 104.63963, 12.25501 ], [ 104.63912, 12.25567 ], [ 104.63889, 12.2561 ], [ 104.64022, 12.25949 ], [ 104.64052, 12.26105 ], [ 104.6419, 12.26223 ], [ 104.64276, 12.26308 ], [ 104.64308, 12.26379 ], [ 104.64308, 12.26448 ], [ 104.64243, 12.26708 ], [ 104.64258, 12.2673 ], [ 104.64344, 12.268 ] ] } },
{ "type": "Feature", "properties": { "Type": "Cycleway, footpath, etc.", "ROAD_COND_": "Footpath", "len_km": 0.94 }, "geometry": { "type": "LineString", "coordinates": [ [ 104.65226, 12.26262 ], [ 104.65261, 12.26719 ], [ 104.65362, 12.27097 ] ] } },
{ "type": "Feature", "properties": { "Type": "Cycleway, footpath, etc.", "ROAD_COND_": "Footpath", "len_km": 0.09 }, "geometry": { "type": "LineString", "coordinates": [ [ 104.65362, 12.27097 ], [ 104.65404, 12.27166 ] ] } },
{ "type": "Feature", "properties": { "Type": "Cycleway, footpath, etc.", "ROAD_COND_": "Footpath", "len_km": 2.44 }, "geometry": { "type": "LineString", "coordinates": [ [ 104.65404, 12.27166 ], [ 104.65215, 12.27293 ], [ 104.65059, 12.27361 ], [ 104.64939, 12.27383 ], [ 104.64806, 12.27397 ], [ 104.64664, 12.27401 ], [ 104.64581, 12.27424 ], [ 104.64388, 12.2746 ], [ 104.64323, 12.27487 ], [ 104.64282, 12.27514 ], [ 104.64171, 12.27604 ], [ 104.64001, 12.27726 ], [ 104.63914, 12.27807 ], [ 104.63785, 12.27879 ], [ 104.63762, 12.27902 ], [ 104.63628, 12.27942 ], [ 104.63379, 12.27972 ] ] } },
{ "type": "Feature", "properties": { "Type": "Secondary", "ROAD_COND_": "Laterite Road", "len_km": 2.66 }, "geometry": { "type": "LineString", "coordinates": [ [ 104.6348, 12.28387 ], [ 104.63601, 12.28507 ], [ 104.63624, 12.2856 ], [ 104.63722, 12.28713 ], [ 104.64843, 12.30378 ] ] } },
{ "type": "Feature", "properties": { "Type": "Cycleway, footpath, etc.", "ROAD_COND_": "Footpath", "len_km": 3.59 }, "geometry": { "type": "LineString", "coordinates": [ [ 104.66778, 12.2798 ], [ 104.66727, 12.2801 ], [ 104.66686, 12.28019 ], [ 104.66649, 12.2805 ], [ 104.66589, 12.28118 ], [ 104.66515, 12.28254 ], [ 104.66446, 12.28407 ], [ 104.66391, 12.28606 ], [ 104.66322, 12.28818 ], [ 104.66299, 12.28868 ], [ 104.66257, 12.2904 ], [ 104.66155, 12.29279 ], [ 104.66017, 12.29528 ], [ 104.65943, 12.29614 ], [ 104.65893, 12.29654 ], [ 104.65732, 12.29736 ], [ 104.65198, 12.29938 ], [ 104.65042, 12.30047 ], [ 104.64977, 12.30096 ], [ 104.6494, 12.30151 ], [ 104.64848, 12.30363 ] ] } },
{ "type": "Feature", "properties": { "Type": "Track", "ROAD_COND_": "Carttrack", "len_km": 2.13 }, "geometry": { "type": "LineString", "coordinates": [ [ 104.64848, 12.30363 ], [ 104.64816, 12.30453 ], [ 104.64746, 12.30738 ], [ 104.64714, 12.30928 ], [ 104.64714, 12.31064 ], [ 104.64723, 12.31235 ], [ 104.6475, 12.31344 ], [ 104.64824, 12.31525 ], [ 104.64888, 12.31647 ], [ 104.64897, 12.31729 ], [ 104.64869, 12.31778 ], [ 104.64819, 12.31819 ], [ 104.64662, 12.3185 ], [ 104.64422, 12.31858 ] ] } }
]
}
