{
"type": "FeatureCollection",
"name": "villages",
"crs": { "type": "name", "properties": { "name": "urn:ogc:def:crs:OGC:1.3:CRS84" } },
"xy_coordinate_resolution": 1e-05,
"features": [
{ "type": "Feature", "properties": { "VILL_CODE": "04030101", "VILL_NAME": "Phsar Leu", "TOTPOP": 3127, "HH_TOT": 562 }, "geometry": { "type": "Point", "coordinates": [ 104.67439, 12.26153 ] } },
{ "type": "Feature", "properties": { "VILL_CODE": "04030102", "VILL_NAME": "Phsar Chhnang", "TOTPOP": 2500, "HH_TOT": 478 }, "geometry": { "type": "Point", "coordinates": [ 104.67903, 12.26577 ] } },
{ "type": "Feature", "properties": { "VILL_CODE": "04030103", "VILL_NAME": "Chong Kaoh", "TOTPOP": 3655, "HH_TOT": 645 }, "geometry": { "type": "Point", "coordinates": [ 104.67497, 12.2712 ] } },
{ "type": "Feature", "properties": { "VILL_CODE": "04030104", "VILL_NAME": "Samraong", "TOTPOP": 2394, "HH_TOT": 433 }, "geometry": { "type": "Point", "coordinates": [ 104.67761, 12.25682 ] } },
{ "type": "Feature", "properties": { "VILL_CODE": "04030105", "VILL_NAME": "Kaoh Krabei", "TOTPOP": 797, "HH_TOT": 157 }, "geometry": { "type": "Point", "coordinates": [ 104.66965, 12.25887 ] } },
{ "type": "Feature", "properties": { "VILL_CODE": "04030106", "VILL_NAME": "Trapeang Bei", "TOTPOP": 3531, "HH_TOT": 705 }, "geometry": { "type": "Point", "coordinates": [ 104.67283, 12.2564 ] } },
{ "type": "Feature", "properties": { "VILL_CODE": "04030107", "VILL_NAME": "Kampong Os", "TOTPOP": 1123, "HH_TOT": 208 }, "geometry": { "type": "Point", "coordinates": [ 104.66845, 12.25438 ] } },
{ "type": "Feature", "properties": { "VILL_CODE": "04030108", "VILL_NAME": "Kandal", "TOTPOP": 3099, "HH_TOT": 570 }, "geometry": { "type": "Point", "coordinates": [ 104.68202, 12.26695 ] } },
{ "type": "Feature", "properties": { "VILL_CODE": "04030201", "VILL_NAME": "Srae Pring", "TOTPOP": 2336, "HH_TOT": 490 }, "geometry": { "type": "Point", "coordinates": [ 104.6727, 12.23666 ] } },
{ "type": "Feature", "properties": { "VILL_CODE": "04030202", "VILL_NAME": "Damnak Popul", "TOTPOP": 1330, "HH_TOT": 257 }, "geometry": { "type": "Point", "coordinates": [ 104.67207, 12.24155 ] } },
{ "type": "Feature", "properties": { "VILL_CODE": "04030203", "VILL_NAME": "La Tuek Trei", "TOTPOP": 1548, "HH_TOT": 304 }, "geometry": { "type": "Point", "coordinates": [ 104.66936, 12.24314 ] } },
{ "type": "Feature", "properties": { "VILL_CODE": "04030204", "VILL_NAME": "Kandal", "TOTPOP": 2019, "HH_TOT": 396 }, "geometry": { "type": "Point", "coordinates": [ 104.67148, 12.24872 ] } },
{ "type": "Feature", "properties": { "VILL_CODE": "04030205", "VILL_NAME": "Trapeang Choek Sa", "TOTPOP": 1582, "HH_TOT": 364 }, "geometry": { "type": "Point", "coordinates": [ 104.67555, 12.2264 ] } },
{ "type": "Feature", "properties": { "VILL_CODE": "04030206", "VILL_NAME": "Tuol Kralanh", "TOTPOP": 1421, "HH_TOT": 316 }, "geometry": { "type": "Point", "coordinates": [ 104.66837, 12.22342 ] } },
{ "type": "Feature", "properties": { "VILL_CODE": "04030301", "VILL_NAME": "B'er", "TOTPOP": 1002, "HH_TOT": 201 }, "geometry": { "type": "Point", "coordinates": [ 104.65939, 12.25347 ] } },
{ "type": "Feature", "properties": { "VILL_CODE": "04030302", "VILL_NAME": "Thommeak Yutt", "TOTPOP": 1863, "HH_TOT": 269 }, "geometry": { "type": "Point", "coordinates": [ 104.66522, 12.23877 ] } },
{ "type": "Feature", "properties": { "VILL_CODE": "04030303", "VILL_NAME": "Mong Barang", "TOTPOP": 2356, "HH_TOT": 504 }, "geometry": { "type": "Point", "coordinates": [ 104.66592, 12.24524 ] } },
{ "type": "Feature", "properties": { "VILL_CODE": "04030304", "VILL_NAME": "Khleang Prak", "TOTPOP": 1322, "HH_TOT": 247 }, "geometry": { "type": "Point", "coordinates": [ 104.66177, 12.25069 ] } },
{ "type": "Feature", "properties": { "VILL_CODE": "04030401", "VILL_NAME": "Ti Muoy", "TOTPOP": 1653, "HH_TOT": 341 }, "geometry": { "type": "Point", "coordinates": [ 104.66825, 12.25671 ] } },
{ "type": "Feature", "properties": { "VILL_CODE": "04030402", "VILL_NAME": "Ti Pir", "TOTPOP": 597, "HH_TOT": 114 }, "geometry": { "type": "Point", "coordinates": [ 104.65735, 12.2587 ] } },
{ "type": "Feature", "properties": { "VILL_CODE": "04030403", "VILL_NAME": "Ti Bei", "TOTPOP": 454, "HH_TOT": 113 }, "geometry": { "type": "Point", "coordinates": [ 104.65906, 12.25917 ] } },
{ "type": "Feature", "properties": { "VILL_CODE": "04030404", "VILL_NAME": "Ti Buon", "TOTPOP": 470, "HH_TOT": 108 }, "geometry": { "type": "Point", "coordinates": [ 104.65147, 12.26564 ] } },
{ "type": "Feature", "properties": { "VILL_CODE": "04030405", "VILL_NAME": "Ti Pram", "TOTPOP": 497, "HH_TOT": 109 }, "geometry": { "type": "Point", "coordinates": [ 104.65634, 12.26387 ] } },
{ "type": "Feature", "properties": { "VILL_CODE": "04030406", "VILL_NAME": "Ti Prammuoy", "TOTPOP": 678, "HH_TOT": 147 }, "geometry": { "type": "Point", "coordinates": [ 104.66059, 12.26232 ] } },
{ "type": "Feature", "properties": { "VILL_CODE": "04030407", "VILL_NAME": "Ti Prampir", "TOTPOP": 795, "HH_TOT": 165 }, "geometry": { "type": "Point", "coordinates": [ 104.66246, 12.26191 ] } },
{ "type": "Feature", "properties": { "VILL_CODE": "04030408", "VILL_NAME": "Ti Prambei", "TOTPOP": 981, "HH_TOT": 208 }, "geometry": { "type": "Point", "coordinates": [ 104.65188, 12.2618 ] } }
]
}
