{
"type": "FeatureCollection",
"name": "water",
"crs": { "type": "name", "properties": { "name": "urn:ogc:def:crs:OGC:1.3:CRS84" } },
"xy_coordinate_resolution": 1e-05,
"features": [
{ "type": "Feature", "properties": { "NAME": null, "area_km2": 9.38 }, "geometry": { "type": "Polygon", "coordinates": [ [ [ 104.68448, 12.27802 ], [ 104.68446, 12.27861 ], [ 104.68329, 12.28263 ], [ 104.68185, 12.28574 ], [ 104.6819, 12.28869 ], [ 104.68213, 12.29117 ], [ 104.6819, 12.29374 ], [ 104.68164, 12.29495 ], [ 104.68107, 12.29661 ], [ 104.67983, 12.29934 ], [ 104.68506, 12.29829 ], [ 104.68659, 12.29524 ], [ 104.68736, 12.29468 ], [ 104.68974, 12.29192 ], [ 104.693, 12.2891 ], [ 104.6937, 12.28636 ], [ 104.69598, 12.28433 ], [ 104.70325, 12.28028 ], [ 104.70402, 12.27955 ], [ 104.7057, 12.27837 ], [ 104.70835, 12.27531 ], [ 104.70895, 12.27439 ], [ 104.70942, 12.27344 ], [ 104.71011, 12.27128 ], [ 104.71168, 12.26877 ], [ 104.71241, 12.26795 ], [ 104.71358, 12.2658 ], [ 104.71415, 12.26496 ], [ 104.71627, 12.2628 ], [ 104.71865, 12.26125 ], [ 104.71953, 12.26047 ], [ 104.72317, 12.25884 ], [ 104.72734, 12.25826 ], [ 104.72827, 12.25847 ], [ 104.72855, 12.25519 ], [ 104.72838, 12.25282 ], [ 104.72809, 12.2515 ], [ 104.72354, 12.25237 ], [ 104.7225, 12.25284 ], [ 104.72147, 12.25299 ], [ 104.71827, 12.25408 ], [ 104.71549, 12.25547 ], [ 104.714, 12.25591 ], [ 104.71261, 12.25664 ], [ 104.70273, 12.26307 ], [ 104.7016, 12.26397 ], [ 104.69819, 12.26579 ], [ 104.69663, 12.26691 ], [ 104.69514, 12.26742 ], [ 104.69353, 12.26855 ], [ 104.69214, 12.26905 ], [ 104.69076, 12.26976 ], [ 104.69021, 12.26994 ], [ 104.68943, 12.26994 ], [ 104.68858, 12.26927 ], [ 104.68817, 12.26882 ], [ 104.68802, 12.26837 ], [ 104.68827, 12.268 ], [ 104.68921, 12.26763 ], [ 104.69031, 12.26696 ], [ 104.69149, 12.26602 ], [ 104.6965, 12.2628 ], [ 104.69986, 12.26082 ], [ 104.70103, 12.25972 ], [ 104.70663, 12.25548 ], [ 104.71114, 12.25133 ], [ 104.71406, 12.24671 ], [ 104.71736, 12.23992 ], [ 104.72277, 12.22981 ], [ 104.72592, 12.22544 ], [ 104.72553, 12.2237 ], [ 104.72482, 12.2219 ], [ 104.71966, 12.22941 ], [ 104.71655, 12.23482 ], [ 104.71495, 12.23838 ], [ 104.71331, 12.24115 ], [ 104.71225, 12.24358 ], [ 104.70979, 12.24799 ], [ 104.70712, 12.25165 ], [ 104.705, 12.25329 ], [ 104.70044, 12.25754 ], [ 104.69845, 12.25856 ], [ 104.69391, 12.26142 ], [ 104.69097, 12.26309 ], [ 104.68881, 12.26464 ], [ 104.68444, 12.26665 ], [ 104.68062, 12.26943 ], [ 104.67835, 12.27071 ], [ 104.67741, 12.27156 ], [ 104.67626, 12.27223 ], [ 104.67394, 12.27446 ], [ 104.67368, 12.27498 ], [ 104.67333, 12.27529 ], [ 104.67056, 12.2802 ], [ 104.66939, 12.283 ], [ 104.66926, 12.28447 ], [ 104.66771, 12.28971 ], [ 104.66756, 12.29128 ], [ 104.66661, 12.29515 ], [ 104.66513, 12.3023 ], [ 104.66927, 12.30147 ], [ 104.67096, 12.29091 ], [ 104.67187, 12.28823 ], [ 104.67282, 12.28358 ], [ 104.6743, 12.27999 ], [ 104.67615, 12.27614 ], [ 104.67701, 12.27499 ], [ 104.67824, 12.27412 ], [ 104.67926, 12.27298 ], [ 104.68129, 12.27159 ], [ 104.68286, 12.2708 ], [ 104.68514, 12.26937 ], [ 104.68646, 12.26889 ], [ 104.6874, 12.26836 ], [ 104.68776, 12.26846 ], [ 104.68807, 12.26908 ], [ 104.68882, 12.26959 ], [ 104.68908, 12.26993 ], [ 104.68908, 12.27042 ], [ 104.68813, 12.27111 ], [ 104.68582, 12.27237 ], [ 104.68349, 12.2741 ], [ 104.68164, 12.2761 ], [ 104.67982, 12.27854 ], [ 104.67853, 12.28103 ], [ 104.67686, 12.28834 ], [ 104.67557, 12.29249 ], [ 104.6754, 12.2965 ], [ 104.67476, 12.30036 ], [ 104.67804, 12.2997 ], [ 104.6781, 12.29767 ], [ 104.67857, 12.29339 ], [ 104.67943, 12.29029 ], [ 104.68032, 12.28484 ], [ 104.68106, 12.28269 ], [ 104.68239, 12.28021 ], [ 104.68422, 12.27791 ], [ 104.68448, 12.27802 ] ], [ [ 104.70512, 12.27474 ], [ 104.70595, 12.27216 ], [ 104.70758, 12.26919 ], [ 104.70875, 12.26833 ], [ 104.70904, 12.26827 ], [ 104.70906, 12.26886 ], [ 104.70887, 12.26933 ], [ 104.70804, 12.27061 ], [ 104.70684, 12.27313 ], [ 104.70594, 12.27445 ], [ 104.70549, 12.27484 ], [ 104.70512, 12.27474 ] ], [ [ 104.70344, 12.26597 ], [ 104.70522, 12.26508 ], [ 104.70695, 12.26367 ], [ 104.70919, 12.26234 ], [ 104.71176, 12.26123 ], [ 104.71313, 12.26042 ], [ 104.71419, 12.26005 ], [ 104.7144, 12.26009 ], [ 104.71406, 12.26071 ], [ 104.71346, 12.26131 ], [ 104.71108, 12.26341 ], [ 104.70708, 12.26537 ], [ 104.70501, 12.26595 ], [ 104.704, 12.26609 ], [ 104.70344, 12.26597 ] ], [ [ 104.68265, 12.29437 ], [ 104.68297, 12.29155 ], [ 104.68275, 12.28682 ], [ 104.68408, 12.28309 ], [ 104.68514, 12.27862 ], [ 104.68632, 12.27694 ], [ 104.68814, 12.2751 ], [ 104.68917, 12.27428 ], [ 104.69034, 12.27348 ], [ 104.69167, 12.27302 ], [ 104.69286, 12.27228 ], [ 104.69332, 12.27223 ], [ 104.69243, 12.27389 ], [ 104.69214, 12.27524 ], [ 104.69202, 12.27699 ], [ 104.69104, 12.27843 ], [ 104.69068, 12.27875 ], [ 104.69024, 12.2788 ], [ 104.68854, 12.28182 ], [ 104.68702, 12.28584 ], [ 104.68645, 12.28875 ], [ 104.6862, 12.28947 ], [ 104.6833, 12.29377 ], [ 104.68265, 12.29437 ] ], [ [ 104.68649, 12.28965 ], [ 104.68685, 12.28883 ], [ 104.68722, 12.28701 ], [ 104.68817, 12.28399 ], [ 104.68898, 12.28229 ], [ 104.69007, 12.2805 ], [ 104.69174, 12.2785 ], [ 104.69217, 12.27758 ], [ 104.6925, 12.27574 ], [ 104.69357, 12.27257 ], [ 104.6942, 12.27171 ], [ 104.69873, 12.26968 ], [ 104.70367, 12.26699 ], [ 104.70904, 12.26507 ], [ 104.71102, 12.26411 ], [ 104.71117, 12.26426 ], [ 104.71039, 12.26543 ], [ 104.70891, 12.26683 ], [ 104.70748, 12.26793 ], [ 104.70688, 12.26857 ], [ 104.70682, 12.26884 ], [ 104.70568, 12.2699 ], [ 104.70537, 12.27045 ], [ 104.70486, 12.27254 ], [ 104.70445, 12.2736 ], [ 104.70334, 12.27554 ], [ 104.70187, 12.27743 ], [ 104.69782, 12.28106 ], [ 104.69565, 12.28258 ], [ 104.69456, 12.28357 ], [ 104.69116, 12.28586 ], [ 104.68957, 12.28744 ], [ 104.68835, 12.28838 ], [ 104.68696, 12.29003 ], [ 104.68654, 12.29016 ], [ 104.68649, 12.28965 ] ] ] } },
{ "type": "Feature", "properties": { "NAME": null, "area_km2": 7.32 }, "geometry": { "type": "MultiPolygon", "coordinates": [ [ [ [ 104.69694, 12.24601 ], [ 104.69751, 12.24578 ], [ 104.69843, 12.24427 ], [ 104.69822, 12.24415 ], [ 104.69783, 12.24449 ], [ 104.69669, 12.2459 ], [ 104.69694, 12.24601 ] ] ], [ [ [ 104.69643, 12.24599 ], [ 104.69615, 12.24597 ], [ 104.69584, 12.24618 ], [ 104.69534, 12.2469 ], [ 104.69544, 12.24699 ], [ 104.69623, 12.24643 ], [ 104.69643, 12.24599 ] ] ], [ [ [ 104.6988, 12.24287 ], [ 104.69857, 12.24267 ], [ 104.69765, 12.24339 ], [ 104.69651, 12.2446 ], [ 104.69537, 12.24525 ], [ 104.69435, 12.24616 ], [ 104.69355, 12.24718 ], [ 104.69355, 12.24751 ], [ 104.69403, 12.24731 ], [ 104.69436, 12.24689 ], [ 104.69557, 12.24608 ], [ 104.69704, 12.24481 ], [ 104.69747, 12.2442 ], [ 104.69839, 12.24354 ], [ 104.6988, 12.24287 ] ] ], [ [ [ 104.6998, 12.24325 ], [ 104.70022, 12.24249 ], [ 104.70008, 12.2422 ], [ 104.69939, 12.24233 ], [ 104.69955, 12.24275 ], [ 104.69927, 12.24314 ], [ 104.6998, 12.24325 ] ] ], [ [ [ 104.7049, 12.2336 ], [ 104.70452, 12.23439 ], [ 104.70419, 12.23466 ], [ 104.70427, 12.23513 ], [ 104.70397, 12.2357 ], [ 104.70444, 12.23557 ], [ 104.70458, 12.23515 ], [ 104.70492, 12.23494 ], [ 104.70515, 12.23443 ], [ 104.70532, 12.23339 ], [ 104.7049, 12.2336 ] ] ], [ [ [ 104.7084, 12.23088 ], [ 104.70927, 12.23044 ], [ 104.70933, 12.23025 ], [ 104.70915, 12.22996 ], [ 104.70851, 12.23019 ], [ 104.70803, 12.23086 ], [ 104.70792, 12.23128 ], [ 104.70825, 12.23127 ], [ 104.7084, 12.23088 ] ] ], [ [ [ 104.71216, 12.22107 ], [ 104.71272, 12.21965 ], [ 104.7131, 12.21921 ], [ 104.7133, 12.21872 ], [ 104.7132, 12.21867 ], [ 104.71213, 12.21887 ], [ 104.71184, 12.21912 ], [ 104.71167, 12.21969 ], [ 104.71178, 12.22096 ], [ 104.71216, 12.22107 ] ] ], [ [ [ 104.71517, 12.22045 ], [ 104.71516, 12.21972 ], [ 104.71445, 12.21892 ], [ 104.71378, 12.21883 ], [ 104.71351, 12.22022 ], [ 104.71312, 12.22069 ], [ 104.71327, 12.22141 ], [ 104.71302, 12.22183 ], [ 104.7131, 12.22226 ], [ 104.71266, 12.22231 ], [ 104.71243, 12.22253 ], [ 104.71227, 12.22168 ], [ 104.71182, 12.22144 ], [ 104.71127, 12.22195 ], [ 104.71133, 12.22336 ], [ 104.71178, 12.22377 ], [ 104.71099, 12.2253 ], [ 104.71108, 12.22592 ], [ 104.71039, 12.2258 ], [ 104.70989, 12.22612 ], [ 104.70966, 12.22668 ], [ 104.70972, 12.22845 ], [ 104.71033, 12.22855 ], [ 104.71244, 12.22616 ], [ 104.71275, 12.22447 ], [ 104.71316, 12.22317 ], [ 104.71359, 12.22269 ], [ 104.71359, 12.22223 ], [ 104.71468, 12.22161 ], [ 104.71511, 12.22177 ], [ 104.71541, 12.22105 ], [ 104.71517, 12.22045 ] ] ], [ [ [ 104.71598, 12.21938 ], [ 104.71542, 12.21884 ], [ 104.71542, 12.21829 ], [ 104.71512, 12.21806 ], [ 104.71524, 12.21753 ], [ 104.71467, 12.21766 ], [ 104.71428, 12.21735 ], [ 104.71394, 12.21786 ], [ 104.71435, 12.21814 ], [ 104.71494, 12.21906 ], [ 104.71598, 12.21938 ] ] ], [ [ [ 104.70245, 12.24484 ], [ 104.70209, 12.24424 ], [ 104.70195, 12.24419 ], [ 104.70181, 12.24512 ], [ 104.70216, 12.24517 ], [ 104.70245, 12.24484 ] ] ], [ [ [ 104.67963, 12.26331 ], [ 104.67986, 12.26438 ], [ 104.67947, 12.2647 ], [ 104.67905, 12.26454 ], [ 104.67854, 12.26463 ], [ 104.67951, 12.26558 ], [ 104.67975, 12.26613 ], [ 104.68004, 12.26629 ], [ 104.68012, 12.26679 ], [ 104.68053, 12.26633 ], [ 104.68043, 12.2657 ], [ 104.68166, 12.26492 ], [ 104.68298, 12.26378 ], [ 104.68421, 12.2638 ], [ 104.68451, 12.26324 ], [ 104.68684, 12.26311 ], [ 104.68732, 12.26286 ], [ 104.68766, 12.26237 ], [ 104.68862, 12.26244 ], [ 104.68914, 12.26232 ], [ 104.68966, 12.2619 ], [ 104.68969, 12.26153 ], [ 104.68925, 12.2612 ], [ 104.69105, 12.2604 ], [ 104.69334, 12.25891 ], [ 104.69424, 12.25851 ], [ 104.69518, 12.25779 ], [ 104.69474, 12.2576 ], [ 104.69391, 12.25802 ], [ 104.69223, 12.25819 ], [ 104.69172, 12.25859 ], [ 104.69085, 12.25852 ], [ 104.69011, 12.25828 ], [ 104.68888, 12.25887 ], [ 104.68715, 12.26014 ], [ 104.68702, 12.25963 ], [ 104.68741, 12.25943 ], [ 104.68777, 12.25884 ], [ 104.68995, 12.25728 ], [ 104.69036, 12.25635 ], [ 104.69032, 12.25548 ], [ 104.69044, 12.25514 ], [ 104.69155, 12.25339 ], [ 104.69191, 12.25329 ], [ 104.69226, 12.25337 ], [ 104.69219, 12.25196 ], [ 104.69263, 12.25106 ], [ 104.69246, 12.25046 ], [ 104.69288, 12.24959 ], [ 104.69359, 12.24898 ], [ 104.69458, 12.24746 ], [ 104.69499, 12.24706 ], [ 104.69503, 12.2474 ], [ 104.69466, 12.24784 ], [ 104.69435, 12.24922 ], [ 104.69381, 12.2498 ], [ 104.69408, 12.25038 ], [ 104.69394, 12.2511 ], [ 104.6949, 12.25163 ], [ 104.69533, 12.25134 ], [ 104.6958, 12.25152 ], [ 104.69639, 12.25122 ], [ 104.69677, 12.25166 ], [ 104.69696, 12.25253 ], [ 104.6972, 12.25275 ], [ 104.698, 12.25187 ], [ 104.69871, 12.25199 ], [ 104.69887, 12.25187 ], [ 104.69929, 12.25104 ], [ 104.69927, 12.25023 ], [ 104.69985, 12.24854 ], [ 104.70066, 12.24764 ], [ 104.70234, 12.24651 ], [ 104.70214, 12.246 ], [ 104.7017, 12.24564 ], [ 104.70225, 12.24556 ], [ 104.70245, 12.24535 ], [ 104.70356, 12.24563 ], [ 104.70372, 12.24498 ], [ 104.70269, 12.24438 ], [ 104.70216, 12.24387 ], [ 104.70169, 12.24389 ], [ 104.7025, 12.24256 ], [ 104.70339, 12.2416 ], [ 104.70461, 12.2411 ], [ 104.70497, 12.24029 ], [ 104.70558, 12.23994 ], [ 104.70615, 12.23926 ], [ 104.70699, 12.23876 ], [ 104.70727, 12.23775 ], [ 104.7078, 12.23681 ], [ 104.71253, 12.23084 ], [ 104.71446, 12.22752 ], [ 104.71505, 12.22539 ], [ 104.71516, 12.2241 ], [ 104.71548, 12.22348 ], [ 104.71558, 12.22188 ], [ 104.71599, 12.22089 ], [ 104.7163, 12.2194 ], [ 104.71644, 12.21754 ], [ 104.71615, 12.21499 ], [ 104.71628, 12.21456 ], [ 104.70807, 12.21153 ], [ 104.70778, 12.21217 ], [ 104.70712, 12.21285 ], [ 104.70673, 12.21367 ], [ 104.70644, 12.2154 ], [ 104.70613, 12.21598 ], [ 104.70651, 12.21639 ], [ 104.70638, 12.2168 ], [ 104.70597, 12.21668 ], [ 104.70551, 12.217 ], [ 104.70491, 12.21708 ], [ 104.70433, 12.21682 ], [ 104.70467, 12.21847 ], [ 104.7055, 12.21956 ], [ 104.70545, 12.21985 ], [ 104.70489, 12.21991 ], [ 104.70479, 12.22041 ], [ 104.7052, 12.22092 ], [ 104.70484, 12.22142 ], [ 104.70506, 12.2222 ], [ 104.70575, 12.22237 ], [ 104.70578, 12.22348 ], [ 104.70606, 12.22417 ], [ 104.70783, 12.22577 ], [ 104.70787, 12.22648 ], [ 104.70812, 12.22717 ], [ 104.70769, 12.22751 ], [ 104.70625, 12.22779 ], [ 104.70546, 12.22815 ], [ 104.70456, 12.2281 ], [ 104.70376, 12.22968 ], [ 104.70319, 12.23033 ], [ 104.7032, 12.23083 ], [ 104.70277, 12.23133 ], [ 104.70207, 12.23391 ], [ 104.70102, 12.23543 ], [ 104.70017, 12.23614 ], [ 104.69909, 12.23751 ], [ 104.69845, 12.23803 ], [ 104.69734, 12.23866 ], [ 104.69602, 12.23857 ], [ 104.69539, 12.2378 ], [ 104.69435, 12.23792 ], [ 104.69411, 12.23832 ], [ 104.69313, 12.23737 ], [ 104.69034, 12.23769 ], [ 104.68848, 12.23757 ], [ 104.68748, 12.2379 ], [ 104.68634, 12.23876 ], [ 104.68473, 12.24059 ], [ 104.68414, 12.24182 ], [ 104.68432, 12.24243 ], [ 104.68437, 12.24379 ], [ 104.68515, 12.24482 ], [ 104.6853, 12.24548 ], [ 104.68218, 12.24715 ], [ 104.68089, 12.24823 ], [ 104.68039, 12.25086 ], [ 104.67976, 12.25153 ], [ 104.67912, 12.25183 ], [ 104.67859, 12.25233 ], [ 104.67878, 12.25492 ], [ 104.67934, 12.25573 ], [ 104.67912, 12.25627 ], [ 104.67874, 12.25674 ], [ 104.67865, 12.25721 ], [ 104.67897, 12.25791 ], [ 104.67866, 12.25829 ], [ 104.67862, 12.25868 ], [ 104.67929, 12.26 ], [ 104.679, 12.26153 ], [ 104.67938, 12.26191 ], [ 104.67921, 12.26228 ], [ 104.67963, 12.26331 ] ], [ [ 104.69275, 12.24913 ], [ 104.69175, 12.25063 ], [ 104.69183, 12.25187 ], [ 104.69161, 12.25214 ], [ 104.69167, 12.25232 ], [ 104.69089, 12.25325 ], [ 104.68988, 12.25505 ], [ 104.68958, 12.25649 ], [ 104.68767, 12.25841 ], [ 104.68485, 12.26001 ], [ 104.68337, 12.26137 ], [ 104.6829, 12.26137 ], [ 104.68119, 12.26297 ], [ 104.68062, 12.26373 ], [ 104.68036, 12.26332 ], [ 104.67973, 12.263 ], [ 104.67948, 12.26203 ], [ 104.67957, 12.26131 ], [ 104.67989, 12.26069 ], [ 104.6803, 12.26019 ], [ 104.68088, 12.26037 ], [ 104.6813, 12.26014 ], [ 104.68082, 12.26001 ], [ 104.68052, 12.25965 ], [ 104.68042, 12.25912 ], [ 104.67997, 12.25898 ], [ 104.67962, 12.25906 ], [ 104.67968, 12.25861 ], [ 104.67941, 12.25814 ], [ 104.67932, 12.25765 ], [ 104.67969, 12.25729 ], [ 104.68041, 12.25809 ], [ 104.68084, 12.25833 ], [ 104.6817, 12.25993 ], [ 104.68206, 12.26011 ], [ 104.68173, 12.2596 ], [ 104.68135, 12.2582 ], [ 104.68046, 12.25672 ], [ 104.68031, 12.25625 ], [ 104.68045, 12.25576 ], [ 104.68092, 12.25631 ], [ 104.6813, 12.25651 ], [ 104.68153, 12.25606 ], [ 104.68172, 12.25621 ], [ 104.68296, 12.2562 ], [ 104.68395, 12.25703 ], [ 104.6848, 12.25683 ], [ 104.68494, 12.25558 ], [ 104.68521, 12.25596 ], [ 104.6857, 12.25593 ], [ 104.68511, 12.25467 ], [ 104.68515, 12.25386 ], [ 104.68547, 12.25427 ], [ 104.68573, 12.25391 ], [ 104.68713, 12.25471 ], [ 104.68767, 12.25463 ], [ 104.68819, 12.25339 ], [ 104.68869, 12.25326 ], [ 104.68942, 12.2537 ], [ 104.69029, 12.2524 ], [ 104.69036, 12.25202 ], [ 104.69129, 12.25121 ], [ 104.6916, 12.24985 ], [ 104.69254, 12.24878 ], [ 104.69275, 12.24913 ] ] ] ] } },
{ "type": "Feature", "properties": { "NAME": null, "area_km2": 0.63 }, "geometry": { "type": "Polygon", "coordinates": [ [ [ 104.72681, 12.23464 ], [ 104.72551, 12.23625 ], [ 104.72389, 12.23999 ], [ 104.72308, 12.24161 ], [ 104.7221, 12.24303 ], [ 104.72136, 12.24502 ], [ 104.72097, 12.24624 ], [ 104.7211, 12.2471 ], [ 104.7215, 12.24761 ], [ 104.72221, 12.24813 ], [ 104.72372, 12.24795 ], [ 104.7268, 12.24696 ], [ 104.72776, 12.2468 ], [ 104.72755, 12.24271 ], [ 104.72681, 12.23464 ] ] ] } },
{ "type": "Feature", "properties": { "NAME": null, "area_km2": 0.01 }, "geometry": { "type": "Polygon", "coordinates": [ [ [ 104.69102, 12.29509 ], [ 104.69101, 12.29695 ], [ 104.69066, 12.29706 ], [ 104.69031, 12.29697 ], [ 104.69017, 12.29726 ], [ 104.69106, 12.29708 ], [ 104.69161, 12.29439 ], [ 104.69102, 12.29509 ] ] ] } },
{ "type": "Feature", "properties": { "NAME": null, "area_km2": 0.09 }, "geometry": { "type": "MultiPolygon", "coordinates": [ [ [ [ 104.69017, 12.29726 ], [ 104.69011, 12.29943 ], [ 104.69044, 12.29989 ], [ 104.69106, 12.29708 ], [ 104.69017, 12.29726 ] ] ], [ [ [ 104.68721, 12.31169 ], [ 104.68587, 12.30795 ], [ 104.68498, 12.30587 ], [ 104.68481, 12.30414 ], [ 104.68447, 12.30241 ], [ 104.68386, 12.30123 ], [ 104.68321, 12.30134 ], [ 104.68294, 12.3021 ], [ 104.6833, 12.30263 ], [ 104.68386, 12.30211 ], [ 104.68418, 12.30315 ], [ 104.68434, 12.30535 ], [ 104.68491, 12.30718 ], [ 104.68564, 12.30854 ], [ 104.68648, 12.31064 ], [ 104.68689, 12.31234 ], [ 104.68721, 12.31169 ] ] ] ] } },
{ "type": "Feature", "properties": { "NAME": null, "area_km2": 5.73 }, "geometry": { "type": "Polygon", "coordinates": [ [ [ 104.68045, 12.32368 ], [ 104.68023, 12.32129 ], [ 104.68039, 12.31578 ], [ 104.68079, 12.31459 ], [ 104.68133, 12.30991 ], [ 104.68218, 12.30614 ], [ 104.68405, 12.30058 ], [ 104.68464, 12.29964 ], [ 104.6852, 12.29972 ], [ 104.68519, 12.29941 ], [ 104.68492, 12.2992 ], [ 104.68492, 12.29857 ], [ 104.68506, 12.29829 ], [ 104.67983, 12.29934 ], [ 104.67854, 12.30212 ], [ 104.67774, 12.30318 ], [ 104.67759, 12.30294 ], [ 104.67804, 12.2997 ], [ 104.67476, 12.30036 ], [ 104.67441, 12.30279 ], [ 104.67264, 12.30791 ], [ 104.67078, 12.31137 ], [ 104.66973, 12.31426 ], [ 104.66925, 12.31491 ], [ 104.66814, 12.31751 ], [ 104.66729, 12.31871 ], [ 104.66714, 12.31868 ], [ 104.66708, 12.31808 ], [ 104.66723, 12.31494 ], [ 104.66777, 12.31225 ], [ 104.66927, 12.30147 ], [ 104.66513, 12.3023 ], [ 104.66442, 12.30457 ], [ 104.66401, 12.30688 ], [ 104.66373, 12.30738 ], [ 104.6617, 12.30842 ], [ 104.66001, 12.31004 ], [ 104.6597, 12.31065 ], [ 104.6599, 12.31181 ], [ 104.65977, 12.31265 ], [ 104.65949, 12.31326 ], [ 104.65807, 12.31511 ], [ 104.65642, 12.31658 ], [ 104.6532, 12.32043 ], [ 104.65097, 12.32399 ], [ 104.64994, 12.32668 ], [ 104.64928, 12.32798 ], [ 104.64955, 12.3283 ], [ 104.65133, 12.32421 ], [ 104.65283, 12.32163 ], [ 104.65632, 12.31738 ], [ 104.65923, 12.31435 ], [ 104.66028, 12.31275 ], [ 104.66051, 12.3119 ], [ 104.66011, 12.31087 ], [ 104.66047, 12.31019 ], [ 104.66131, 12.3097 ], [ 104.66219, 12.3085 ], [ 104.66303, 12.3082 ], [ 104.66334, 12.30786 ], [ 104.66382, 12.30777 ], [ 104.6632, 12.31177 ], [ 104.66289, 12.31726 ], [ 104.66258, 12.31984 ], [ 104.66184, 12.32321 ], [ 104.66172, 12.32537 ], [ 104.66138, 12.32684 ], [ 104.66094, 12.33044 ], [ 104.66024, 12.33309 ], [ 104.65971, 12.3341 ], [ 104.65993, 12.33576 ], [ 104.65963, 12.33663 ], [ 104.66108, 12.33723 ], [ 104.66346, 12.3378 ], [ 104.66399, 12.33722 ], [ 104.66435, 12.33623 ], [ 104.66427, 12.33518 ], [ 104.66533, 12.33324 ], [ 104.66544, 12.33272 ], [ 104.66549, 12.33225 ], [ 104.66517, 12.33239 ], [ 104.66464, 12.33341 ], [ 104.6645, 12.33298 ], [ 104.66533, 12.33144 ], [ 104.66588, 12.32967 ], [ 104.66617, 12.32681 ], [ 104.66666, 12.32514 ], [ 104.6667, 12.32417 ], [ 104.66696, 12.32309 ], [ 104.66702, 12.32121 ], [ 104.66961, 12.31644 ], [ 104.67032, 12.31432 ], [ 104.67227, 12.31025 ], [ 104.67274, 12.30892 ], [ 104.674, 12.30673 ], [ 104.67398, 12.30921 ], [ 104.67339, 12.31213 ], [ 104.67308, 12.3157 ], [ 104.67236, 12.3201 ], [ 104.67223, 12.32256 ], [ 104.67141, 12.32705 ], [ 104.67027, 12.33014 ], [ 104.66955, 12.33276 ], [ 104.66883, 12.33354 ], [ 104.66845, 12.33419 ], [ 104.66684, 12.33792 ], [ 104.66922, 12.33751 ], [ 104.67179, 12.33654 ], [ 104.67412, 12.3351 ], [ 104.67611, 12.33322 ], [ 104.67695, 12.33215 ], [ 104.67828, 12.32978 ], [ 104.67876, 12.32851 ], [ 104.67948, 12.3255 ], [ 104.68045, 12.32368 ] ] ] } }
]
}
