{
"type": "FeatureCollection",
"name": "communes",
"crs": { "type": "name", "properties": { "name": "urn:ogc:def:crs:OGC:1.3:CRS84" } },
"xy_coordinate_resolution": 0.0001,
"features": [
{ "type": "Feature", "properties": { "COMNAME_KH": "តាទៃលើ", "COM_NAME": "Ta Tey Leu", "DISNAME_KH": "ថ្មបាំង", "loss_ha": 4536, "pct": 2.5 }, "geometry": { "type": "Polygon", "coordinates": [ [ [ 103.1987, 11.9635 ], [ 103.2061, 11.9632 ], [ 103.2091, 11.9618 ], [ 103.2192, 11.9602 ], [ 103.2235, 11.9568 ], [ 103.2262, 11.9584 ], [ 103.2294, 11.9631 ], [ 103.2284, 11.9689 ], [ 103.2302, 11.9752 ], [ 103.2345, 11.9766 ], [ 103.2413, 11.9755 ], [ 103.2446, 11.9765 ], [ 103.2464, 11.9745 ], [ 103.2514, 11.9744 ], [ 103.2533, 11.9732 ], [ 103.2571, 11.9781 ], [ 103.2566, 11.982 ], [ 103.2583, 11.9834 ], [ 103.2632, 11.9841 ], [ 103.2681, 11.9884 ], [ 103.2716, 11.9892 ], [ 103.2863, 11.9827 ], [ 103.2884, 11.9804 ], [ 103.2905, 11.9797 ], [ 103.2947, 11.9815 ], [ 103.296, 11.9853 ], [ 103.3074, 11.985 ], [ 103.3115, 11.9857 ], [ 103.3163, 11.9935 ], [ 103.3171, 12.0004 ], [ 103.319, 12.0038 ], [ 103.3196, 12.0089 ], [ 103.3248, 12.0119 ], [ 103.3279, 12.0148 ], [ 103.3304, 12.0192 ], [ 103.3324, 12.0196 ], [ 103.3343, 12.0181 ], [ 103.3381, 12.0201 ], [ 103.3444, 12.0246 ], [ 103.3462, 12.0278 ], [ 103.3494, 12.027 ], [ 103.3541, 12.0291 ], [ 103.3589, 12.0284 ], [ 103.3636, 12.0312 ], [ 103.3613, 12.0396 ], [ 103.3609, 12.0456 ], [ 103.3613, 12.0515 ], [ 103.364, 12.056 ], [ 103.3643, 12.0613 ], [ 103.367, 12.0618 ], [ 103.3706, 12.0651 ], [ 103.3725, 12.0689 ], [ 103.3766, 12.0712 ], [ 103.3805, 12.0713 ], [ 103.3832, 12.0699 ], [ 103.3868, 12.0719 ], [ 103.386, 12.074 ], [ 103.3825, 12.0759 ], [ 103.3848, 12.0814 ], [ 103.3823, 12.0841 ], [ 103.3809, 12.0891 ], [ 103.3838, 12.0924 ], [ 103.3818, 12.0945 ], [ 103.3821, 12.097 ], [ 103.3896, 12.1035 ], [ 103.3918, 12.108 ], [ 103.3959, 12.109 ], [ 103.4001, 12.1088 ], [ 103.4016, 12.1076 ], [ 103.4031, 12.1035 ], [ 103.4046, 12.1041 ], [ 103.4132, 12.1019 ], [ 103.4146, 12.0965 ], [ 103.4198, 12.0957 ], [ 103.4207, 12.0929 ], [ 103.423, 12.0914 ], [ 103.4268, 12.0913 ], [ 103.4334, 12.0867 ], [ 103.4356, 12.088 ], [ 103.4369, 12.0912 ], [ 103.4472, 12.0936 ], [ 103.4538, 12.0974 ], [ 103.4543, 12.0998 ], [ 103.4584, 12.1008 ], [ 103.46, 12.1043 ], [ 103.4641, 12.1074 ], [ 103.4652, 12.1103 ], [ 103.4679, 12.1116 ], [ 103.4689, 12.1153 ], [ 103.47, 12.1161 ], [ 103.4744, 12.1161 ], [ 103.4757, 12.1159 ], [ 103.4811, 12.1109 ], [ 103.4815, 12.1075 ], [ 103.4842, 12.1087 ], [ 103.4863, 12.1067 ], [ 103.4875, 12.1028 ], [ 103.4903, 12.099 ], [ 103.4918, 12.0985 ], [ 103.4941, 12.101 ], [ 103.4963, 12.101 ], [ 103.5074, 12.1057 ], [ 103.5137, 12.1045 ], [ 103.5201, 12.1011 ], [ 103.523, 12.0973 ], [ 103.5298, 12.0988 ], [ 103.5375, 12.095 ], [ 103.541, 12.0904 ], [ 103.5375, 12.0883 ], [ 103.5365, 12.0849 ], [ 103.5473, 12.0786 ], [ 103.5493, 12.0754 ], [ 103.5596, 12.0711 ], [ 103.561, 12.0678 ], [ 103.5638, 12.0655 ], [ 103.5683, 12.0669 ], [ 103.5703, 12.0595 ], [ 103.5719, 12.0566 ], [ 103.5752, 12.0564 ], [ 103.58, 12.054 ], [ 103.5837, 12.0532 ], [ 103.5907, 12.0408 ], [ 103.5946, 12.0397 ], [ 103.5965, 12.0361 ], [ 103.6004, 12.0336 ], [ 103.6016, 12.0296 ], [ 103.6046, 12.0262 ], [ 103.6046, 12.0242 ], [ 103.6114, 12.0198 ], [ 103.6153, 12.0186 ], [ 103.6185, 12.019 ], [ 103.6241, 12.0164 ], [ 103.63, 12.0155 ], [ 103.6336, 12.0136 ], [ 103.6372, 12.0065 ], [ 103.636, 12.002 ], [ 103.6339, 12.0006 ], [ 103.6325, 11.998 ], [ 103.6289, 11.9961 ], [ 103.6278, 11.9946 ], [ 103.6285, 11.9934 ], [ 103.6337, 11.9917 ], [ 103.6369, 11.9857 ], [ 103.6392, 11.9849 ], [ 103.644, 11.9865 ], [ 103.6457, 11.9847 ], [ 103.6497, 11.9837 ], [ 103.6498, 11.9796 ], [ 103.6532, 11.9787 ], [ 103.6554, 11.9748 ], [ 103.6618, 11.9742 ], [ 103.6667, 11.9721 ], [ 103.6681, 11.9705 ], [ 103.6709, 11.9695 ], [ 103.6744, 11.9657 ], [ 103.6886, 11.9644 ], [ 103.6932, 11.9651 ], [ 103.6958, 11.9643 ], [ 103.6974, 11.9626 ], [ 103.6992, 11.9573 ], [ 103.7002, 11.9466 ], [ 103.6986, 11.9446 ], [ 103.6944, 11.9424 ], [ 103.6945, 11.9415 ], [ 103.6997, 11.9387 ], [ 103.7078, 11.9371 ], [ 103.7112, 11.9309 ], [ 103.7134, 11.9294 ], [ 103.719, 11.9276 ], [ 103.7131, 11.9191 ], [ 103.7006, 11.9134 ], [ 103.6968, 11.9098 ], [ 103.6889, 11.8972 ], [ 103.6705, 11.8797 ], [ 103.6661, 11.8744 ], [ 103.6642, 11.8704 ], [ 103.6602, 11.8677 ], [ 103.6533, 11.8596 ], [ 103.6514, 11.8566 ], [ 103.6505, 11.8508 ], [ 103.6363, 11.8377 ], [ 103.6315, 11.8279 ], [ 103.6164, 11.809 ], [ 103.6056, 11.7897 ], [ 103.6022, 11.7818 ], [ 103.5951, 11.7691 ], [ 103.5923, 11.7619 ], [ 103.5903, 11.7593 ], [ 103.5894, 11.7553 ], [ 103.5868, 11.7503 ], [ 103.5812, 11.7352 ], [ 103.5775, 11.7221 ], [ 103.5722, 11.7121 ], [ 103.5717, 11.7025 ], [ 103.5705, 11.6974 ], [ 103.5668, 11.6921 ], [ 103.5632, 11.6924 ], [ 103.5516, 11.6805 ], [ 103.5374, 11.6851 ], [ 103.5178, 11.714 ], [ 103.4912, 11.7167 ], [ 103.4255, 11.7282 ], [ 103.3632, 11.7271 ], [ 103.3325, 11.7326 ], [ 103.306, 11.7499 ], [ 103.2708, 11.7414 ], [ 103.2489, 11.7403 ], [ 103.2472, 11.7389 ], [ 103.2473, 11.7369 ], [ 103.2445, 11.7371 ], [ 103.2422, 11.735 ], [ 103.2389, 11.7345 ], [ 103.2363, 11.7369 ], [ 103.235, 11.734 ], [ 103.2326, 11.7364 ], [ 103.2312, 11.7362 ], [ 103.2293, 11.7347 ], [ 103.2266, 11.7342 ], [ 103.2271, 11.7312 ], [ 103.221, 11.7277 ], [ 103.2219, 11.7266 ], [ 103.2203, 11.7215 ], [ 103.2175, 11.722 ], [ 103.2141, 11.7212 ], [ 103.2128, 11.7189 ], [ 103.2137, 11.7168 ], [ 103.2106, 11.7162 ], [ 103.2083, 11.7123 ], [ 103.2054, 11.7115 ], [ 103.2052, 11.7094 ], [ 103.2038, 11.7077 ], [ 103.2004, 11.7089 ], [ 103.1988, 11.7082 ], [ 103.1975, 11.7033 ], [ 103.1954, 11.7029 ], [ 103.1922, 11.6996 ], [ 103.188, 11.6983 ], [ 103.1796, 11.6978 ], [ 103.1719, 11.6945 ], [ 103.168, 11.691 ], [ 103.1665, 11.6915 ], [ 103.1582, 11.6897 ], [ 103.1571, 11.6903 ], [ 103.1874, 11.844 ], [ 103.1987, 11.9635 ] ] ] } },
{ "type": "Feature", "properties": { "COMNAME_KH": "ប៉ាក់ខ្លង", "COM_NAME": "Pak Khlang", "DISNAME_KH": "មណ្ឌលសីមា", "loss_ha": 14829, "pct": 10.9 }, "geometry": { "type": "Polygon", "coordinates": [ [ [ 102.7794, 12.0219 ], [ 102.7976, 12.0136 ], [ 102.9726, 12.0023 ], [ 102.9963, 11.997 ], [ 103.0185, 11.9886 ], [ 103.0782, 11.9624 ], [ 103.0856, 11.96 ], [ 103.1087, 11.949 ], [ 103.1209, 11.9453 ], [ 103.139, 11.9441 ], [ 103.1533, 11.9479 ], [ 103.1572, 11.9462 ], [ 103.16, 11.9436 ], [ 103.1625, 11.9454 ], [ 103.1664, 11.9458 ], [ 103.1713, 11.9497 ], [ 103.1743, 11.9486 ], [ 103.1768, 11.9497 ], [ 103.1785, 11.9495 ], [ 103.185, 11.9525 ], [ 103.1944, 11.962 ], [ 103.1987, 11.9635 ], [ 103.1874, 11.844 ], [ 103.1571, 11.6903 ], [ 103.1534, 11.6891 ], [ 103.1513, 11.6843 ], [ 103.148, 11.6841 ], [ 103.1475, 11.6824 ], [ 103.1451, 11.6805 ], [ 103.1452, 11.6787 ], [ 103.144, 11.6764 ], [ 103.1404, 11.6714 ], [ 103.1388, 11.6705 ], [ 103.1393, 11.6654 ], [ 103.1379, 11.659 ], [ 103.1337, 11.6509 ], [ 103.1296, 11.6484 ], [ 103.129, 11.6364 ], [ 103.1243, 11.6276 ], [ 103.1199, 11.6244 ], [ 103.1212, 11.6203 ], [ 103.1193, 11.6167 ], [ 103.1193, 11.6149 ], [ 103.1207, 11.6123 ], [ 103.1184, 11.6083 ], [ 103.1196, 11.6035 ], [ 103.1184, 11.6009 ], [ 103.1195, 11.5995 ], [ 103.1186, 11.5945 ], [ 103.1163, 11.5918 ], [ 103.1127, 11.5895 ], [ 103.1102, 11.5905 ], [ 103.096, 11.5915 ], [ 103.0979, 11.5851 ], [ 103.0978, 11.581 ], [ 103.0992, 11.5758 ], [ 103.0955, 11.5782 ], [ 103.0945, 11.5797 ], [ 103.0929, 11.5906 ], [ 103.0919, 11.5924 ], [ 103.0924, 11.5939 ], [ 103.096, 11.5977 ], [ 103.0919, 11.604 ], [ 103.0907, 11.6109 ], [ 103.0918, 11.6108 ], [ 103.0899, 11.6135 ], [ 103.0911, 11.616 ], [ 103.0904, 11.6381 ], [ 103.0821, 11.6494 ], [ 103.0799, 11.6508 ], [ 103.0782, 11.6502 ], [ 103.0748, 11.6458 ], [ 103.072, 11.6441 ], [ 103.0715, 11.642 ], [ 103.0699, 11.6407 ], [ 103.0665, 11.6415 ], [ 103.064, 11.6404 ], [ 103.0614, 11.6371 ], [ 103.0567, 11.6358 ], [ 103.0507, 11.6363 ], [ 103.0432, 11.6352 ], [ 103.0404, 11.6326 ], [ 103.0359, 11.6304 ], [ 103.0318, 11.6249 ], [ 103.0227, 11.6231 ], [ 103.0183, 11.6255 ], [ 103.0169, 11.6253 ], [ 103.0128, 11.6216 ], [ 103.0113, 11.6212 ], [ 103.0085, 11.6227 ], [ 103.0071, 11.6252 ], [ 103.0065, 11.6294 ], [ 103.0073, 11.634 ], [ 103.0062, 11.6373 ], [ 103.0031, 11.6391 ], [ 102.9962, 11.639 ], [ 102.9923, 11.641 ], [ 102.9884, 11.6411 ], [ 102.9835, 11.6403 ], [ 102.9801, 11.6387 ], [ 102.9765, 11.6298 ], [ 102.9734, 11.6259 ], [ 102.9705, 11.5803 ], [ 102.9681, 11.5748 ], [ 102.9635, 11.5681 ], [ 102.9643, 11.5649 ], [ 102.9598, 11.5546 ], [ 102.9565, 11.554 ], [ 102.9551, 11.5526 ], [ 102.9524, 11.5549 ], [ 102.9562, 11.5586 ], [ 102.9544, 11.5649 ], [ 102.9514, 11.5662 ], [ 102.9485, 11.5698 ], [ 102.9407, 11.5869 ], [ 102.937, 11.5885 ], [ 102.9359, 11.5861 ], [ 102.9338, 11.5856 ], [ 102.9322, 11.588 ], [ 102.9306, 11.5945 ], [ 102.9312, 11.5977 ], [ 102.933, 11.6007 ], [ 102.9341, 11.601 ], [ 102.9378, 11.5987 ], [ 102.9386, 11.6021 ], [ 102.9364, 11.6117 ], [ 102.9289, 11.6257 ], [ 102.9255, 11.6304 ], [ 102.9224, 11.6324 ], [ 102.9217, 11.63 ], [ 102.9194, 11.6293 ], [ 102.9181, 11.6352 ], [ 102.9102, 11.6486 ], [ 102.9141, 11.6507 ], [ 102.9151, 11.6529 ], [ 102.9128, 11.6604 ], [ 102.9136, 11.6678 ], [ 102.9126, 11.6719 ], [ 102.9132, 11.6761 ], [ 102.9112, 11.6804 ], [ 102.9123, 11.697 ], [ 102.9106, 11.7162 ], [ 102.9112, 11.7294 ], [ 102.9105, 11.7407 ], [ 102.9112, 11.7458 ], [ 102.9087, 11.7506 ], [ 102.9043, 11.7688 ], [ 102.9021, 11.7727 ], [ 102.8943, 11.7822 ], [ 102.8925, 11.787 ], [ 102.8898, 11.7885 ], [ 102.8816, 11.7903 ], [ 102.8821, 11.7937 ], [ 102.8859, 11.7996 ], [ 102.8816, 11.8002 ], [ 102.8775, 11.8028 ], [ 102.8739, 11.8031 ], [ 102.8666, 11.8063 ], [ 102.8627, 11.8133 ], [ 102.864, 11.8151 ], [ 102.862, 11.8197 ], [ 102.8631, 11.8222 ], [ 102.8624, 11.824 ], [ 102.8603, 11.8263 ], [ 102.8546, 11.8257 ], [ 102.8531, 11.8264 ], [ 102.8488, 11.8328 ], [ 102.8454, 11.8446 ], [ 102.8367, 11.8513 ], [ 102.8339, 11.8558 ], [ 102.828, 11.8699 ], [ 102.8256, 11.8734 ], [ 102.8198, 11.8924 ], [ 102.8212, 11.8975 ], [ 102.8209, 11.9029 ], [ 102.8224, 11.908 ], [ 102.8186, 11.9128 ], [ 102.8199, 11.9164 ], [ 102.8159, 11.9197 ], [ 102.8134, 11.9231 ], [ 102.8134, 11.9261 ], [ 102.8162, 11.9316 ], [ 102.8161, 11.9332 ], [ 102.8094, 11.945 ], [ 102.8006, 11.9493 ], [ 102.7964, 11.957 ], [ 102.7961, 11.9594 ], [ 102.7972, 11.9614 ], [ 102.7907, 11.9772 ], [ 102.7849, 11.9769 ], [ 102.7844, 11.9774 ], [ 102.78, 11.9909 ], [ 102.7801, 11.9947 ], [ 102.7765, 12.0069 ], [ 102.7761, 12.0138 ], [ 102.7794, 12.0219 ] ] ] } },
{ "type": "Feature", "properties": { "COMNAME_KH": "ប្រឡាយ", "COM_NAME": "Pralay", "DISNAME_KH": "ថ្មបាំង", "loss_ha": 3066, "pct": 4.0 }, "geometry": { "type": "Polygon", "coordinates": [ [ [ 103.719, 11.9276 ], [ 103.7218, 11.9277 ], [ 103.731, 11.9349 ], [ 103.7412, 11.9401 ], [ 103.7438, 11.9379 ], [ 103.7482, 11.9318 ], [ 103.7527, 11.9297 ], [ 103.7571, 11.9261 ], [ 103.7621, 11.9252 ], [ 103.7642, 11.9258 ], [ 103.7708, 11.934 ], [ 103.7759, 11.9315 ], [ 103.7825, 11.9319 ], [ 103.784, 11.9328 ], [ 103.789, 11.9314 ], [ 103.7954, 11.9242 ], [ 103.7971, 11.9235 ], [ 103.7982, 11.9203 ], [ 103.7978, 11.9161 ], [ 103.8013, 11.9108 ], [ 103.8033, 11.9096 ], [ 103.8049, 11.9072 ], [ 103.8089, 11.909 ], [ 103.8141, 11.901 ], [ 103.8149, 11.8953 ], [ 103.8159, 11.8942 ], [ 103.8185, 11.8937 ], [ 103.8212, 11.8886 ], [ 103.8232, 11.8878 ], [ 103.8307, 11.8802 ], [ 103.8356, 11.8727 ], [ 103.8361, 11.8691 ], [ 103.8383, 11.8666 ], [ 103.8381, 11.8615 ], [ 103.8422, 11.8546 ], [ 103.844, 11.8537 ], [ 103.8483, 11.8535 ], [ 103.8541, 11.8479 ], [ 103.8577, 11.8433 ], [ 103.8486, 11.8416 ], [ 103.842, 11.8385 ], [ 103.8397, 11.8365 ], [ 103.8283, 11.8358 ], [ 103.8223, 11.8386 ], [ 103.8065, 11.8403 ], [ 103.801, 11.8444 ], [ 103.7928, 11.847 ], [ 103.7878, 11.8509 ], [ 103.7842, 11.8494 ], [ 103.7849, 11.8436 ], [ 103.7818, 11.8393 ], [ 103.7807, 11.8326 ], [ 103.7824, 11.8293 ], [ 103.7838, 11.8102 ], [ 103.7859, 11.8063 ], [ 103.7929, 11.8032 ], [ 103.7928, 11.7914 ], [ 103.7915, 11.7861 ], [ 103.7785, 11.7787 ], [ 103.7735, 11.7741 ], [ 103.7732, 11.7688 ], [ 103.7757, 11.765 ], [ 103.7771, 11.7599 ], [ 103.7809, 11.7559 ], [ 103.783, 11.7508 ], [ 103.7808, 11.7445 ], [ 103.7755, 11.7387 ], [ 103.7738, 11.72 ], [ 103.7753, 11.7128 ], [ 103.7775, 11.7086 ], [ 103.782, 11.7022 ], [ 103.7903, 11.6967 ], [ 103.7979, 11.6882 ], [ 103.8005, 11.6842 ], [ 103.802, 11.6784 ], [ 103.8029, 11.6707 ], [ 103.8019, 11.6685 ], [ 103.803, 11.6674 ], [ 103.8029, 11.6661 ], [ 103.801, 11.6606 ], [ 103.7968, 11.6538 ], [ 103.7951, 11.6397 ], [ 103.7961, 11.6326 ], [ 103.795, 11.6229 ], [ 103.7987, 11.622 ], [ 103.8067, 11.6223 ], [ 103.8142, 11.6192 ], [ 103.8178, 11.6193 ], [ 103.8189, 11.6184 ], [ 103.8154, 11.616 ], [ 103.8131, 11.6125 ], [ 103.8097, 11.5999 ], [ 103.8075, 11.5958 ], [ 103.8074, 11.5929 ], [ 103.8055, 11.591 ], [ 103.803, 11.5845 ], [ 103.7984, 11.5778 ], [ 103.7963, 11.5765 ], [ 103.7947, 11.5769 ], [ 103.7936, 11.5752 ], [ 103.7912, 11.5745 ], [ 103.7903, 11.571 ], [ 103.7878, 11.5708 ], [ 103.7882, 11.5696 ], [ 103.787, 11.5677 ], [ 103.785, 11.5678 ], [ 103.7826, 11.5658 ], [ 103.7789, 11.5645 ], [ 103.7769, 11.5608 ], [ 103.7756, 11.5605 ], [ 103.7731, 11.5636 ], [ 103.7707, 11.5645 ], [ 103.767, 11.5698 ], [ 103.7601, 11.5696 ], [ 103.7465, 11.5757 ], [ 103.7411, 11.5759 ], [ 103.7366, 11.5751 ], [ 103.7326, 11.5734 ], [ 103.7295, 11.5709 ], [ 103.728, 11.5678 ], [ 103.7228, 11.5648 ], [ 103.7198, 11.5643 ], [ 103.7169, 11.5613 ], [ 103.7152, 11.5579 ], [ 103.7106, 11.5543 ], [ 103.7057, 11.5522 ], [ 103.7041, 11.5508 ], [ 103.705, 11.5479 ], [ 103.7041, 11.5463 ], [ 103.7024, 11.5455 ], [ 103.689, 11.5537 ], [ 103.6811, 11.5541 ], [ 103.6806, 11.5569 ], [ 103.6774, 11.5591 ], [ 103.6509, 11.5891 ], [ 103.638, 11.6067 ], [ 103.6242, 11.6494 ], [ 103.6029, 11.6587 ], [ 103.597, 11.6648 ], [ 103.5944, 11.6659 ], [ 103.5921, 11.6686 ], [ 103.5905, 11.6694 ], [ 103.582, 11.6708 ], [ 103.5516, 11.6805 ], [ 103.5632, 11.6924 ], [ 103.5668, 11.6921 ], [ 103.5705, 11.6974 ], [ 103.5717, 11.7025 ], [ 103.5722, 11.7121 ], [ 103.5775, 11.7221 ], [ 103.5812, 11.7352 ], [ 103.5868, 11.7503 ], [ 103.5894, 11.7553 ], [ 103.5903, 11.7593 ], [ 103.5923, 11.7619 ], [ 103.5951, 11.7691 ], [ 103.6022, 11.7818 ], [ 103.6056, 11.7897 ], [ 103.6164, 11.809 ], [ 103.6315, 11.8279 ], [ 103.6363, 11.8377 ], [ 103.6505, 11.8508 ], [ 103.6514, 11.8566 ], [ 103.6533, 11.8596 ], [ 103.6602, 11.8677 ], [ 103.6642, 11.8704 ], [ 103.6661, 11.8744 ], [ 103.6705, 11.8797 ], [ 103.6889, 11.8972 ], [ 103.6968, 11.9098 ], [ 103.7006, 11.9134 ], [ 103.7131, 11.9191 ], [ 103.719, 11.9276 ] ] ] } },
{ "type": "Feature", "properties": { "COMNAME_KH": "ឫស្សីជ្រុំ", "COM_NAME": "Ruessei Chrum", "DISNAME_KH": "ថ្មបាំង", "loss_ha": 4537, "pct": 7.8 }, "geometry": { "type": "Polygon", "coordinates": [ [ [ 103.1571, 11.6903 ], [ 103.1582, 11.6897 ], [ 103.1665, 11.6915 ], [ 103.168, 11.691 ], [ 103.1719, 11.6945 ], [ 103.1796, 11.6978 ], [ 103.188, 11.6983 ], [ 103.1922, 11.6996 ], [ 103.1954, 11.7029 ], [ 103.1975, 11.7033 ], [ 103.1988, 11.7082 ], [ 103.2004, 11.7089 ], [ 103.2038, 11.7077 ], [ 103.2052, 11.7094 ], [ 103.2054, 11.7115 ], [ 103.2083, 11.7123 ], [ 103.2106, 11.7162 ], [ 103.2137, 11.7168 ], [ 103.2128, 11.7189 ], [ 103.2141, 11.7212 ], [ 103.2175, 11.722 ], [ 103.2203, 11.7215 ], [ 103.2219, 11.7266 ], [ 103.221, 11.7277 ], [ 103.2271, 11.7312 ], [ 103.2266, 11.7342 ], [ 103.2293, 11.7347 ], [ 103.2312, 11.7362 ], [ 103.2326, 11.7364 ], [ 103.235, 11.734 ], [ 103.2363, 11.7369 ], [ 103.2389, 11.7345 ], [ 103.2422, 11.735 ], [ 103.2445, 11.7371 ], [ 103.2473, 11.7369 ], [ 103.2472, 11.7389 ], [ 103.2489, 11.7403 ], [ 103.2708, 11.7414 ], [ 103.306, 11.7499 ], [ 103.3325, 11.7326 ], [ 103.3632, 11.7271 ], [ 103.4255, 11.7282 ], [ 103.4912, 11.7167 ], [ 103.5178, 11.714 ], [ 103.5374, 11.6851 ], [ 103.5516, 11.6805 ], [ 103.5313, 11.6652 ], [ 103.5286, 11.6627 ], [ 103.5258, 11.6566 ], [ 103.5137, 11.6468 ], [ 103.5076, 11.6345 ], [ 103.5044, 11.623 ], [ 103.4962, 11.6155 ], [ 103.4903, 11.6067 ], [ 103.4877, 11.606 ], [ 103.4823, 11.5988 ], [ 103.4792, 11.5981 ], [ 103.4765, 11.5946 ], [ 103.4718, 11.5925 ], [ 103.471, 11.5857 ], [ 103.465, 11.5777 ], [ 103.453, 11.5787 ], [ 103.4511, 11.5705 ], [ 103.4521, 11.5635 ], [ 103.4509, 11.5601 ], [ 103.4438, 11.5572 ], [ 103.4366, 11.556 ], [ 103.4348, 11.5549 ], [ 103.4342, 11.5532 ], [ 103.4274, 11.5484 ], [ 103.4258, 11.5445 ], [ 103.4208, 11.5454 ], [ 103.4199, 11.5432 ], [ 103.4157, 11.5412 ], [ 103.3719, 11.578 ], [ 103.3181, 11.6312 ], [ 103.2508, 11.6402 ], [ 103.2494, 11.6373 ], [ 103.2349, 11.6312 ], [ 103.2288, 11.6326 ], [ 103.2276, 11.6335 ], [ 103.2276, 11.6371 ], [ 103.2262, 11.6407 ], [ 103.2183, 11.6442 ], [ 103.2119, 11.643 ], [ 103.21, 11.64 ], [ 103.2088, 11.634 ], [ 103.2068, 11.6306 ], [ 103.2072, 11.6282 ], [ 103.2129, 11.6212 ], [ 103.2114, 11.6163 ], [ 103.2092, 11.6149 ], [ 103.2045, 11.6144 ], [ 103.1994, 11.6165 ], [ 103.1972, 11.6161 ], [ 103.195, 11.6131 ], [ 103.1945, 11.6087 ], [ 103.1951, 11.6057 ], [ 103.1924, 11.6007 ], [ 103.1901, 11.5985 ], [ 103.1833, 11.5975 ], [ 103.1806, 11.5957 ], [ 103.1778, 11.5915 ], [ 103.1735, 11.5917 ], [ 103.1676, 11.5957 ], [ 103.1604, 11.591 ], [ 103.1582, 11.5915 ], [ 103.1567, 11.5944 ], [ 103.1576, 11.6053 ], [ 103.1567, 11.6079 ], [ 103.1547, 11.6082 ], [ 103.15, 11.6065 ], [ 103.1461, 11.6032 ], [ 103.1397, 11.5919 ], [ 103.1296, 11.5868 ], [ 103.1287, 11.5848 ], [ 103.1294, 11.5797 ], [ 103.1265, 11.5691 ], [ 103.1178, 11.5721 ], [ 103.107, 11.5793 ], [ 103.1039, 11.5799 ], [ 103.0984, 11.5785 ], [ 103.0979, 11.5851 ], [ 103.096, 11.5915 ], [ 103.1102, 11.5905 ], [ 103.1127, 11.5895 ], [ 103.1163, 11.5918 ], [ 103.1192, 11.5956 ], [ 103.1195, 11.5995 ], [ 103.1184, 11.6009 ], [ 103.1196, 11.6035 ], [ 103.1184, 11.6083 ], [ 103.1207, 11.6123 ], [ 103.1193, 11.6149 ], [ 103.1193, 11.6167 ], [ 103.1212, 11.6203 ], [ 103.1199, 11.6244 ], [ 103.1243, 11.6276 ], [ 103.129, 11.6364 ], [ 103.1296, 11.6484 ], [ 103.1337, 11.6509 ], [ 103.1379, 11.659 ], [ 103.1393, 11.6654 ], [ 103.1388, 11.6705 ], [ 103.1404, 11.6714 ], [ 103.144, 11.6764 ], [ 103.1452, 11.6787 ], [ 103.1451, 11.6805 ], [ 103.1475, 11.6824 ], [ 103.148, 11.6841 ], [ 103.1513, 11.6843 ], [ 103.1534, 11.6891 ], [ 103.1571, 11.6903 ] ] ] } },
{ "type": "Feature", "properties": { "COMNAME_KH": "ជំនាប់", "COM_NAME": "Chumnoab", "DISNAME_KH": "ថ្មបាំង", "loss_ha": 1064, "pct": 16.2 }, "geometry": { "type": "Polygon", "coordinates": [ [ [ 103.5516, 11.6805 ], [ 103.582, 11.6708 ], [ 103.5905, 11.6694 ], [ 103.5921, 11.6686 ], [ 103.5944, 11.6659 ], [ 103.597, 11.6648 ], [ 103.6029, 11.6587 ], [ 103.6242, 11.6494 ], [ 103.632, 11.6248 ], [ 103.6316, 11.6239 ], [ 103.6293, 11.6218 ], [ 103.6261, 11.6212 ], [ 103.6185, 11.6223 ], [ 103.6166, 11.6233 ], [ 103.6149, 11.6223 ], [ 103.6129, 11.6224 ], [ 103.609, 11.6198 ], [ 103.6063, 11.6208 ], [ 103.6049, 11.6204 ], [ 103.604, 11.6189 ], [ 103.6011, 11.6189 ], [ 103.5983, 11.6178 ], [ 103.5953, 11.6204 ], [ 103.5903, 11.6179 ], [ 103.5815, 11.6204 ], [ 103.5782, 11.6189 ], [ 103.5735, 11.6189 ], [ 103.573, 11.6185 ], [ 103.5745, 11.6173 ], [ 103.5743, 11.6151 ], [ 103.57, 11.6136 ], [ 103.5648, 11.6179 ], [ 103.5631, 11.6165 ], [ 103.5557, 11.615 ], [ 103.5494, 11.6151 ], [ 103.5483, 11.6171 ], [ 103.5504, 11.6194 ], [ 103.5507, 11.6225 ], [ 103.5488, 11.6246 ], [ 103.544, 11.625 ], [ 103.5379, 11.6323 ], [ 103.5353, 11.6324 ], [ 103.5316, 11.6294 ], [ 103.5289, 11.6309 ], [ 103.5253, 11.631 ], [ 103.5231, 11.6302 ], [ 103.5217, 11.6251 ], [ 103.516, 11.6247 ], [ 103.5155, 11.6217 ], [ 103.5126, 11.62 ], [ 103.5104, 11.6122 ], [ 103.5067, 11.6106 ], [ 103.5054, 11.6089 ], [ 103.5045, 11.6064 ], [ 103.5052, 11.6025 ], [ 103.5005, 11.6006 ], [ 103.4939, 11.6018 ], [ 103.4903, 11.6067 ], [ 103.4962, 11.6155 ], [ 103.5044, 11.623 ], [ 103.5076, 11.6345 ], [ 103.5137, 11.6468 ], [ 103.5258, 11.6566 ], [ 103.5286, 11.6627 ], [ 103.5313, 11.6652 ], [ 103.5516, 11.6805 ] ] ] } },
{ "type": "Feature", "properties": { "COMNAME_KH": "ស្មាច់មានជ័យ", "COM_NAME": "Smach Mean Chey", "DISNAME_KH": "ខេមរភូមិន្ទ", "loss_ha": 2269, "pct": 39.6 }, "geometry": { "type": "Polygon", "coordinates": [ [ [ 102.9922, 11.6024 ], [ 102.9854, 11.6084 ], [ 102.9727, 11.6096 ], [ 102.973, 11.6248 ], [ 102.9765, 11.6298 ], [ 102.9793, 11.6378 ], [ 102.9808, 11.6393 ], [ 102.9905, 11.6414 ], [ 102.9962, 11.639 ], [ 103.0046, 11.6385 ], [ 103.0062, 11.6373 ], [ 103.0073, 11.634 ], [ 103.0065, 11.6294 ], [ 103.0071, 11.6252 ], [ 103.0085, 11.6227 ], [ 103.0113, 11.6212 ], [ 103.0128, 11.6216 ], [ 103.0169, 11.6253 ], [ 103.0183, 11.6255 ], [ 103.0227, 11.6231 ], [ 103.0318, 11.6249 ], [ 103.0359, 11.6304 ], [ 103.0404, 11.6326 ], [ 103.0432, 11.6352 ], [ 103.0507, 11.6363 ], [ 103.0567, 11.6358 ], [ 103.0614, 11.6371 ], [ 103.064, 11.6404 ], [ 103.0665, 11.6415 ], [ 103.0699, 11.6407 ], [ 103.0715, 11.642 ], [ 103.072, 11.6441 ], [ 103.0748, 11.6458 ], [ 103.0793, 11.651 ], [ 103.0821, 11.6494 ], [ 103.0904, 11.6381 ], [ 103.0911, 11.616 ], [ 103.0899, 11.6135 ], [ 103.0918, 11.6108 ], [ 103.0907, 11.6109 ], [ 103.0919, 11.604 ], [ 103.096, 11.5977 ], [ 103.0924, 11.5939 ], [ 103.0919, 11.5924 ], [ 103.09, 11.5919 ], [ 103.071, 11.5909 ], [ 103.067, 11.5932 ], [ 103.0622, 11.5921 ], [ 103.0599, 11.5926 ], [ 103.0597, 11.5942 ], [ 103.0565, 11.5943 ], [ 103.0564, 11.5936 ], [ 103.0583, 11.5929 ], [ 103.0564, 11.5912 ], [ 103.0568, 11.5866 ], [ 103.0594, 11.585 ], [ 103.0597, 11.5838 ], [ 103.0591, 11.5814 ], [ 103.0565, 11.5799 ], [ 103.0544, 11.5809 ], [ 103.0465, 11.5881 ], [ 103.0424, 11.5878 ], [ 103.0408, 11.586 ], [ 103.0424, 11.5798 ], [ 103.0427, 11.5745 ], [ 103.0389, 11.5703 ], [ 103.0365, 11.5721 ], [ 103.036, 11.5738 ], [ 103.0349, 11.5899 ], [ 103.0319, 11.5926 ], [ 103.0248, 11.6021 ], [ 103.0065, 11.6031 ], [ 103.0013, 11.5979 ], [ 102.9949, 11.6032 ], [ 102.9922, 11.6024 ] ] ] } },
{ "type": "Feature", "properties": { "COMNAME_KH": "តាតៃក្រោម", "COM_NAME": "Ta Tai Kraom", "DISNAME_KH": "កោះកុង", "loss_ha": 2246, "pct": 11.1 }, "geometry": { "type": "Polygon", "coordinates": [ [ [ 103.1051, 11.5591 ], [ 103.0984, 11.5785 ], [ 103.1054, 11.5798 ], [ 103.1178, 11.5721 ], [ 103.1265, 11.5691 ], [ 103.1294, 11.5797 ], [ 103.1287, 11.5848 ], [ 103.1296, 11.5868 ], [ 103.1397, 11.5919 ], [ 103.1461, 11.6032 ], [ 103.15, 11.6065 ], [ 103.1547, 11.6082 ], [ 103.1567, 11.6079 ], [ 103.1576, 11.6053 ], [ 103.1567, 11.5944 ], [ 103.1582, 11.5915 ], [ 103.1604, 11.591 ], [ 103.1676, 11.5957 ], [ 103.1735, 11.5917 ], [ 103.1778, 11.5915 ], [ 103.1806, 11.5957 ], [ 103.1833, 11.5975 ], [ 103.1901, 11.5985 ], [ 103.1947, 11.6043 ], [ 103.1947, 11.6121 ], [ 103.1972, 11.6161 ], [ 103.1994, 11.6165 ], [ 103.2045, 11.6144 ], [ 103.2092, 11.6149 ], [ 103.2114, 11.6163 ], [ 103.2129, 11.6212 ], [ 103.2067, 11.6295 ], [ 103.2088, 11.634 ], [ 103.21, 11.64 ], [ 103.213, 11.6435 ], [ 103.2183, 11.6442 ], [ 103.2262, 11.6407 ], [ 103.2276, 11.6371 ], [ 103.2276, 11.6335 ], [ 103.2349, 11.6312 ], [ 103.2494, 11.6373 ], [ 103.2508, 11.6402 ], [ 103.2741, 11.6371 ], [ 103.2521, 11.6057 ], [ 103.2389, 11.5944 ], [ 103.2281, 11.5615 ], [ 103.2256, 11.5574 ], [ 103.2267, 11.5507 ], [ 103.224, 11.5446 ], [ 103.2246, 11.5393 ], [ 103.2236, 11.5372 ], [ 103.2219, 11.536 ], [ 103.2223, 11.5319 ], [ 103.2191, 11.5306 ], [ 103.2165, 11.5234 ], [ 103.2118, 11.5202 ], [ 103.2119, 11.5166 ], [ 103.21, 11.515 ], [ 103.2093, 11.5113 ], [ 103.2028, 11.5097 ], [ 103.1991, 11.5098 ], [ 103.197, 11.508 ], [ 103.1952, 11.51 ], [ 103.1918, 11.5096 ], [ 103.191, 11.5066 ], [ 103.189, 11.504 ], [ 103.1881, 11.5038 ], [ 103.1861, 11.5054 ], [ 103.1783, 11.5043 ], [ 103.1741, 11.4999 ], [ 103.1718, 11.5002 ], [ 103.1713, 11.4975 ], [ 103.1722, 11.4943 ], [ 103.1711, 11.4925 ], [ 103.175, 11.4893 ], [ 103.1748, 11.4878 ], [ 103.1732, 11.487 ], [ 103.1743, 11.4843 ], [ 103.1761, 11.4834 ], [ 103.176, 11.4824 ], [ 103.1745, 11.4819 ], [ 103.1743, 11.4803 ], [ 103.1757, 11.475 ], [ 103.1739, 11.4682 ], [ 103.1753, 11.462 ], [ 103.1717, 11.4607 ], [ 103.1713, 11.4589 ], [ 103.174, 11.4557 ], [ 103.1741, 11.4544 ], [ 103.1719, 11.4503 ], [ 103.1737, 11.4475 ], [ 103.1719, 11.444 ], [ 103.1696, 11.4434 ], [ 103.1684, 11.4441 ], [ 103.1664, 11.4483 ], [ 103.1646, 11.4487 ], [ 103.1663, 11.4427 ], [ 103.1648, 11.4382 ], [ 103.1612, 11.435 ], [ 103.1561, 11.4348 ], [ 103.1545, 11.4362 ], [ 103.1547, 11.4403 ], [ 103.1534, 11.4426 ], [ 103.1498, 11.4451 ], [ 103.1356, 11.4597 ], [ 103.1301, 11.4635 ], [ 103.1209, 11.4656 ], [ 103.1142, 11.4651 ], [ 103.1125, 11.464 ], [ 103.113, 11.4698 ], [ 103.1068, 11.4703 ], [ 103.0962, 11.4772 ], [ 103.0942, 11.4774 ], [ 103.0919, 11.4759 ], [ 103.0878, 11.4749 ], [ 103.0806, 11.4766 ], [ 103.0793, 11.4784 ], [ 103.0788, 11.4827 ], [ 103.0805, 11.4866 ], [ 103.091, 11.4862 ], [ 103.0935, 11.4887 ], [ 103.0951, 11.4924 ], [ 103.096, 11.4903 ], [ 103.0968, 11.4904 ], [ 103.0962, 11.4927 ], [ 103.0973, 11.492 ], [ 103.1058, 11.499 ], [ 103.1073, 11.5021 ], [ 103.103, 11.5052 ], [ 103.1006, 11.509 ], [ 103.1022, 11.5144 ], [ 103.1018, 11.5212 ], [ 103.1048, 11.5274 ], [ 103.1051, 11.5591 ] ] ] } },
{ "type": "Feature", "properties": { "COMNAME_KH": "ត្រពាំងរូង", "COM_NAME": "Trapeang Rung", "DISNAME_KH": "កោះកុង", "loss_ha": 8029, "pct": 8.9 }, "geometry": { "type": "Polygon", "coordinates": [ [ [ 103.2741, 11.6371 ], [ 103.3181, 11.6312 ], [ 103.3719, 11.578 ], [ 103.437, 11.5233 ], [ 103.4449, 11.5183 ], [ 103.4469, 11.5159 ], [ 103.45, 11.5112 ], [ 103.4557, 11.4902 ], [ 103.4559, 11.482 ], [ 103.4532, 11.4695 ], [ 103.4524, 11.4597 ], [ 103.4512, 11.4425 ], [ 103.4517, 11.4342 ], [ 103.4558, 11.4228 ], [ 103.46, 11.4169 ], [ 103.4679, 11.4098 ], [ 103.4695, 11.4051 ], [ 103.47, 11.3956 ], [ 103.4781, 11.3888 ], [ 103.475, 11.3815 ], [ 103.4736, 11.3805 ], [ 103.4714, 11.3762 ], [ 103.4723, 11.3715 ], [ 103.4613, 11.366 ], [ 103.4603, 11.3648 ], [ 103.4599, 11.3616 ], [ 103.4545, 11.355 ], [ 103.4515, 11.3487 ], [ 103.4477, 11.3471 ], [ 103.4473, 11.344 ], [ 103.4444, 11.3448 ], [ 103.4453, 11.3455 ], [ 103.4445, 11.3475 ], [ 103.4412, 11.3473 ], [ 103.4408, 11.3468 ], [ 103.4423, 11.3457 ], [ 103.4402, 11.3436 ], [ 103.442, 11.3431 ], [ 103.4425, 11.3417 ], [ 103.4397, 11.3371 ], [ 103.4369, 11.3391 ], [ 103.4283, 11.3352 ], [ 103.4293, 11.3333 ], [ 103.427, 11.3332 ], [ 103.4267, 11.3317 ], [ 103.4236, 11.3293 ], [ 103.4175, 11.3205 ], [ 103.4169, 11.3153 ], [ 103.413, 11.3114 ], [ 103.4123, 11.3088 ], [ 103.4068, 11.3011 ], [ 103.4064, 11.2955 ], [ 103.4056, 11.2944 ], [ 103.3988, 11.2915 ], [ 103.3967, 11.2885 ], [ 103.393, 11.2876 ], [ 103.391, 11.2797 ], [ 103.3891, 11.2764 ], [ 103.3846, 11.2745 ], [ 103.3736, 11.2736 ], [ 103.3663, 11.2677 ], [ 103.3652, 11.2654 ], [ 103.3661, 11.2613 ], [ 103.3729, 11.2521 ], [ 103.3618, 11.2471 ], [ 103.3585, 11.2439 ], [ 103.3588, 11.2409 ], [ 103.3631, 11.2352 ], [ 103.3635, 11.2306 ], [ 103.3624, 11.2286 ], [ 103.3606, 11.2285 ], [ 103.3587, 11.2296 ], [ 103.3483, 11.2401 ], [ 103.3446, 11.2413 ], [ 103.3375, 11.2408 ], [ 103.3346, 11.2387 ], [ 103.3326, 11.2352 ], [ 103.3331, 11.2329 ], [ 103.3354, 11.2297 ], [ 103.3189, 11.2249 ], [ 103.3119, 11.2315 ], [ 103.308, 11.2328 ], [ 103.307, 11.2354 ], [ 103.3052, 11.2356 ], [ 103.3045, 11.2384 ], [ 103.3025, 11.2401 ], [ 103.3024, 11.2417 ], [ 103.3013, 11.2427 ], [ 103.3024, 11.245 ], [ 103.3022, 11.2463 ], [ 103.3002, 11.247 ], [ 103.2984, 11.2502 ], [ 103.2966, 11.2505 ], [ 103.2964, 11.2518 ], [ 103.2937, 11.252 ], [ 103.2917, 11.2558 ], [ 103.29, 11.2559 ], [ 103.2888, 11.2577 ], [ 103.2888, 11.2612 ], [ 103.2861, 11.2633 ], [ 103.2889, 11.2697 ], [ 103.2889, 11.2751 ], [ 103.2907, 11.2784 ], [ 103.2897, 11.2859 ], [ 103.2815, 11.2878 ], [ 103.2801, 11.2892 ], [ 103.2789, 11.288 ], [ 103.2778, 11.2886 ], [ 103.2786, 11.2929 ], [ 103.2759, 11.2958 ], [ 103.2767, 11.2977 ], [ 103.2753, 11.2988 ], [ 103.2803, 11.3074 ], [ 103.2782, 11.3095 ], [ 103.2801, 11.3178 ], [ 103.276, 11.321 ], [ 103.2722, 11.3255 ], [ 103.2709, 11.3285 ], [ 103.2672, 11.3289 ], [ 103.2675, 11.3308 ], [ 103.2701, 11.3327 ], [ 103.2695, 11.3363 ], [ 103.2701, 11.3389 ], [ 103.2697, 11.3413 ], [ 103.2676, 11.3433 ], [ 103.2678, 11.3461 ], [ 103.2662, 11.3548 ], [ 103.2653, 11.3558 ], [ 103.2588, 11.3573 ], [ 103.2534, 11.3557 ], [ 103.2503, 11.357 ], [ 103.2464, 11.3622 ], [ 103.1498, 11.4269 ], [ 103.1301, 11.4474 ], [ 103.1288, 11.451 ], [ 103.1306, 11.4599 ], [ 103.1301, 11.4635 ], [ 103.1356, 11.4597 ], [ 103.1498, 11.4451 ], [ 103.1534, 11.4426 ], [ 103.1547, 11.4403 ], [ 103.1545, 11.4362 ], [ 103.1561, 11.4348 ], [ 103.1612, 11.435 ], [ 103.1648, 11.4382 ], [ 103.1663, 11.4427 ], [ 103.1646, 11.4487 ], [ 103.1664, 11.4483 ], [ 103.1684, 11.4441 ], [ 103.1696, 11.4434 ], [ 103.1719, 11.444 ], [ 103.1731, 11.4452 ], [ 103.1737, 11.4475 ], [ 103.1719, 11.4503 ], [ 103.1741, 11.4544 ], [ 103.174, 11.4557 ], [ 103.1713, 11.4589 ], [ 103.1717, 11.4607 ], [ 103.1753, 11.462 ], [ 103.1739, 11.4682 ], [ 103.1757, 11.475 ], [ 103.1743, 11.4803 ], [ 103.1745, 11.4819 ], [ 103.176, 11.4824 ], [ 103.1761, 11.4834 ], [ 103.1743, 11.4843 ], [ 103.1732, 11.487 ], [ 103.1748, 11.4878 ], [ 103.175, 11.4893 ], [ 103.1711, 11.4925 ], [ 103.1722, 11.4943 ], [ 103.1713, 11.4975 ], [ 103.1718, 11.5002 ], [ 103.1741, 11.4999 ], [ 103.1783, 11.5043 ], [ 103.1861, 11.5054 ], [ 103.1881, 11.5038 ], [ 103.189, 11.504 ], [ 103.191, 11.5066 ], [ 103.1918, 11.5096 ], [ 103.1952, 11.51 ], [ 103.197, 11.508 ], [ 103.1991, 11.5098 ], [ 103.2028, 11.5097 ], [ 103.2093, 11.5113 ], [ 103.21, 11.515 ], [ 103.2119, 11.5166 ], [ 103.2118, 11.5202 ], [ 103.2165, 11.5234 ], [ 103.2191, 11.5306 ], [ 103.2223, 11.5319 ], [ 103.2219, 11.536 ], [ 103.2236, 11.5372 ], [ 103.2246, 11.5393 ], [ 103.224, 11.5446 ], [ 103.2267, 11.5507 ], [ 103.2256, 11.5574 ], [ 103.2281, 11.5615 ], [ 103.2389, 11.5944 ], [ 103.2521, 11.6057 ], [ 103.2741, 11.6371 ] ] ] } },
{ "type": "Feature", "properties": { "COMNAME_KH": "ថ្មដូនពៅ", "COM_NAME": "Thma Doun Pov", "DISNAME_KH": "ថ្មបាំង", "loss_ha": 3027, "pct": 6.0 }, "geometry": { "type": "Polygon", "coordinates": [ [ [ 103.4903, 11.6067 ], [ 103.4945, 11.6016 ], [ 103.5005, 11.6006 ], [ 103.5042, 11.6019 ], [ 103.5054, 11.6032 ], [ 103.5045, 11.6064 ], [ 103.5054, 11.6089 ], [ 103.5067, 11.6106 ], [ 103.5104, 11.6122 ], [ 103.5121, 11.6193 ], [ 103.5155, 11.6217 ], [ 103.516, 11.6247 ], [ 103.5217, 11.6251 ], [ 103.5226, 11.6291 ], [ 103.524, 11.6306 ], [ 103.5276, 11.6311 ], [ 103.5316, 11.6294 ], [ 103.5359, 11.6326 ], [ 103.5384, 11.6319 ], [ 103.544, 11.625 ], [ 103.5488, 11.6246 ], [ 103.5507, 11.6225 ], [ 103.5504, 11.6194 ], [ 103.5483, 11.6171 ], [ 103.5494, 11.6151 ], [ 103.5557, 11.615 ], [ 103.5631, 11.6165 ], [ 103.5648, 11.6179 ], [ 103.5688, 11.6143 ], [ 103.5708, 11.6135 ], [ 103.5743, 11.6151 ], [ 103.5745, 11.6173 ], [ 103.573, 11.6185 ], [ 103.5735, 11.6189 ], [ 103.5782, 11.6189 ], [ 103.5815, 11.6204 ], [ 103.5903, 11.6179 ], [ 103.5953, 11.6204 ], [ 103.5983, 11.6178 ], [ 103.6011, 11.6189 ], [ 103.604, 11.6189 ], [ 103.6049, 11.6204 ], [ 103.6063, 11.6208 ], [ 103.609, 11.6198 ], [ 103.6129, 11.6224 ], [ 103.6149, 11.6223 ], [ 103.6166, 11.6233 ], [ 103.6185, 11.6223 ], [ 103.6278, 11.6214 ], [ 103.6304, 11.6226 ], [ 103.632, 11.6248 ], [ 103.6386, 11.6058 ], [ 103.653, 11.5865 ], [ 103.6809, 11.5558 ], [ 103.6811, 11.5541 ], [ 103.6774, 11.5515 ], [ 103.6734, 11.5533 ], [ 103.6685, 11.5511 ], [ 103.662, 11.5517 ], [ 103.6597, 11.5506 ], [ 103.6576, 11.551 ], [ 103.6517, 11.5497 ], [ 103.6471, 11.5467 ], [ 103.6471, 11.5443 ], [ 103.6455, 11.5422 ], [ 103.646, 11.5359 ], [ 103.6454, 11.5337 ], [ 103.6421, 11.5315 ], [ 103.6387, 11.5261 ], [ 103.6382, 11.5232 ], [ 103.6346, 11.5241 ], [ 103.6349, 11.5221 ], [ 103.6334, 11.521 ], [ 103.6332, 11.5194 ], [ 103.6298, 11.5142 ], [ 103.6292, 11.5019 ], [ 103.6313, 11.4989 ], [ 103.6308, 11.4908 ], [ 103.6347, 11.4812 ], [ 103.6336, 11.48 ], [ 103.634, 11.4781 ], [ 103.6319, 11.4759 ], [ 103.6321, 11.4742 ], [ 103.6296, 11.4718 ], [ 103.6301, 11.4689 ], [ 103.6294, 11.4654 ], [ 103.63, 11.4638 ], [ 103.6334, 11.4627 ], [ 103.6375, 11.4596 ], [ 103.6406, 11.4559 ], [ 103.6427, 11.4505 ], [ 103.6405, 11.4468 ], [ 103.6356, 11.4445 ], [ 103.6345, 11.4361 ], [ 103.6306, 11.4327 ], [ 103.6282, 11.4352 ], [ 103.627, 11.4348 ], [ 103.6255, 11.4315 ], [ 103.6221, 11.4295 ], [ 103.6204, 11.4316 ], [ 103.6185, 11.432 ], [ 103.6159, 11.4278 ], [ 103.612, 11.4267 ], [ 103.6109, 11.4245 ], [ 103.6085, 11.4246 ], [ 103.6068, 11.4264 ], [ 103.6046, 11.4216 ], [ 103.6032, 11.4212 ], [ 103.6012, 11.4185 ], [ 103.5968, 11.4207 ], [ 103.5954, 11.4223 ], [ 103.5937, 11.4221 ], [ 103.591, 11.42 ], [ 103.5878, 11.4216 ], [ 103.5861, 11.4213 ], [ 103.5826, 11.4181 ], [ 103.5829, 11.4168 ], [ 103.5817, 11.4156 ], [ 103.5784, 11.4165 ], [ 103.5749, 11.4162 ], [ 103.5736, 11.4135 ], [ 103.5767, 11.4093 ], [ 103.5757, 11.4078 ], [ 103.5752, 11.4037 ], [ 103.572, 11.4041 ], [ 103.5668, 11.3969 ], [ 103.5561, 11.3911 ], [ 103.5504, 11.3849 ], [ 103.5487, 11.3845 ], [ 103.5435, 11.3779 ], [ 103.5379, 11.3763 ], [ 103.5387, 11.3729 ], [ 103.5367, 11.3686 ], [ 103.538, 11.3517 ], [ 103.5357, 11.3508 ], [ 103.5168, 11.3586 ], [ 103.5112, 11.3629 ], [ 103.5029, 11.3635 ], [ 103.501, 11.3664 ], [ 103.498, 11.3748 ], [ 103.4925, 11.3785 ], [ 103.4878, 11.3784 ], [ 103.4855, 11.3822 ], [ 103.47, 11.3956 ], [ 103.4695, 11.4051 ], [ 103.4679, 11.4098 ], [ 103.46, 11.4169 ], [ 103.4558, 11.4228 ], [ 103.4517, 11.4342 ], [ 103.4512, 11.4425 ], [ 103.4524, 11.4597 ], [ 103.4532, 11.4695 ], [ 103.4559, 11.482 ], [ 103.4557, 11.4902 ], [ 103.45, 11.5112 ], [ 103.4449, 11.5183 ], [ 103.437, 11.5233 ], [ 103.4157, 11.5412 ], [ 103.4199, 11.5432 ], [ 103.4208, 11.5454 ], [ 103.4258, 11.5445 ], [ 103.4274, 11.5484 ], [ 103.4342, 11.5532 ], [ 103.4348, 11.5549 ], [ 103.4366, 11.556 ], [ 103.4438, 11.5572 ], [ 103.4509, 11.5601 ], [ 103.4521, 11.5635 ], [ 103.4511, 11.5705 ], [ 103.453, 11.5787 ], [ 103.465, 11.5777 ], [ 103.471, 11.5857 ], [ 103.4718, 11.5925 ], [ 103.4765, 11.5946 ], [ 103.4792, 11.5981 ], [ 103.4823, 11.5988 ], [ 103.4877, 11.606 ], [ 103.4903, 11.6067 ] ] ] } },
{ "type": "Feature", "properties": { "COMNAME_KH": "ដងពែង", "COM_NAME": "Dang Peaeng", "DISNAME_KH": "ស្រែ អំបិល", "loss_ha": 24857, "pct": 19.4 }, "geometry": { "type": "Polygon", "coordinates": [ [ [ 103.7247, 11.5659 ], [ 103.728, 11.5678 ], [ 103.7295, 11.5709 ], [ 103.7326, 11.5734 ], [ 103.7411, 11.5759 ], [ 103.7465, 11.5757 ], [ 103.7601, 11.5696 ], [ 103.767, 11.5698 ], [ 103.7707, 11.5645 ], [ 103.7731, 11.5636 ], [ 103.7756, 11.5605 ], [ 103.7769, 11.5608 ], [ 103.7789, 11.5645 ], [ 103.7826, 11.5658 ], [ 103.785, 11.5678 ], [ 103.787, 11.5677 ], [ 103.7882, 11.5696 ], [ 103.7878, 11.5708 ], [ 103.7903, 11.571 ], [ 103.7912, 11.5745 ], [ 103.7936, 11.5752 ], [ 103.7947, 11.5769 ], [ 103.7963, 11.5765 ], [ 103.7991, 11.5785 ], [ 103.8008, 11.5822 ], [ 103.803, 11.5845 ], [ 103.8055, 11.591 ], [ 103.8074, 11.5929 ], [ 103.8075, 11.5958 ], [ 103.8097, 11.5999 ], [ 103.8131, 11.6125 ], [ 103.8154, 11.616 ], [ 103.8189, 11.6184 ], [ 103.8268, 11.6095 ], [ 103.8301, 11.6089 ], [ 103.8333, 11.6071 ], [ 103.8336, 11.6038 ], [ 103.8387, 11.5953 ], [ 103.8425, 11.5946 ], [ 103.845, 11.5906 ], [ 103.8512, 11.5896 ], [ 103.8634, 11.5794 ], [ 103.8637, 11.5781 ], [ 103.8606, 11.5732 ], [ 103.8634, 11.5744 ], [ 103.8662, 11.5715 ], [ 103.8767, 11.5666 ], [ 103.8823, 11.5671 ], [ 103.8881, 11.5581 ], [ 103.9054, 11.5558 ], [ 103.9114, 11.5531 ], [ 103.9142, 11.5508 ], [ 103.9165, 11.5455 ], [ 103.9166, 11.5371 ], [ 103.9226, 11.535 ], [ 103.9268, 11.5359 ], [ 103.9302, 11.5293 ], [ 103.9326, 11.5216 ], [ 103.938, 11.5163 ], [ 103.9483, 11.5171 ], [ 103.9502, 11.5189 ], [ 103.9529, 11.5198 ], [ 103.9543, 11.5173 ], [ 103.9579, 11.5166 ], [ 103.9692, 11.5247 ], [ 103.9736, 11.5253 ], [ 103.9779, 11.5274 ], [ 103.9789, 11.5273 ], [ 103.981, 11.5234 ], [ 103.9827, 11.5234 ], [ 103.9964, 11.5302 ], [ 104.0023, 11.5298 ], [ 104.0164, 11.5175 ], [ 104.0199, 11.513 ], [ 104.0251, 11.5013 ], [ 104.0304, 11.5003 ], [ 104.0386, 11.4947 ], [ 104.0415, 11.4949 ], [ 104.0456, 11.4978 ], [ 104.0532, 11.4954 ], [ 104.0581, 11.4864 ], [ 104.063, 11.4704 ], [ 104.0646, 11.4587 ], [ 104.0633, 11.4556 ], [ 104.0612, 11.454 ], [ 104.0529, 11.4515 ], [ 104.0489, 11.449 ], [ 104.0479, 11.448 ], [ 104.0469, 11.4409 ], [ 104.0418, 11.4359 ], [ 103.9962, 11.4039 ], [ 103.987, 11.3993 ], [ 103.9723, 11.3849 ], [ 103.949, 11.354 ], [ 103.9029, 11.3017 ], [ 103.9006, 11.2966 ], [ 103.9024, 11.2896 ], [ 103.9009, 11.2832 ], [ 103.898, 11.2816 ], [ 103.8976, 11.2797 ], [ 103.8945, 11.2776 ], [ 103.8872, 11.2756 ], [ 103.8843, 11.2733 ], [ 103.8865, 11.2704 ], [ 103.8848, 11.2688 ], [ 103.8866, 11.2666 ], [ 103.888, 11.2661 ], [ 103.8806, 11.2596 ], [ 103.8785, 11.2602 ], [ 103.877, 11.2596 ], [ 103.8748, 11.2543 ], [ 103.8729, 11.2538 ], [ 103.8718, 11.2524 ], [ 103.8736, 11.2462 ], [ 103.8722, 11.24 ], [ 103.8688, 11.2391 ], [ 103.8666, 11.2342 ], [ 103.8601, 11.2254 ], [ 103.8542, 11.2238 ], [ 103.8531, 11.2241 ], [ 103.8536, 11.2251 ], [ 103.8529, 11.2253 ], [ 103.8516, 11.2239 ], [ 103.8517, 11.2213 ], [ 103.8573, 11.218 ], [ 103.8608, 11.2137 ], [ 103.8628, 11.2132 ], [ 103.8636, 11.2123 ], [ 103.8635, 11.2099 ], [ 103.8684, 11.2062 ], [ 103.8687, 11.2006 ], [ 103.8693, 11.2007 ], [ 103.8724, 11.1943 ], [ 103.8748, 11.1848 ], [ 103.8739, 11.1814 ], [ 103.8747, 11.18 ], [ 103.8772, 11.1788 ], [ 103.8776, 11.1746 ], [ 103.8819, 11.1721 ], [ 103.881, 11.1679 ], [ 103.8824, 11.1632 ], [ 103.8835, 11.1638 ], [ 103.8837, 11.1656 ], [ 103.8846, 11.1664 ], [ 103.8853, 11.1658 ], [ 103.8851, 11.1615 ], [ 103.8871, 11.1572 ], [ 103.8817, 11.1526 ], [ 103.8799, 11.155 ], [ 103.879, 11.155 ], [ 103.8744, 11.1495 ], [ 103.871, 11.1488 ], [ 103.8707, 11.1453 ], [ 103.8687, 11.143 ], [ 103.8719, 11.1439 ], [ 103.8725, 11.1427 ], [ 103.8705, 11.1403 ], [ 103.8721, 11.139 ], [ 103.8726, 11.1364 ], [ 103.8668, 11.131 ], [ 103.8635, 11.132 ], [ 103.8638, 11.1291 ], [ 103.863, 11.1284 ], [ 103.8643, 11.1263 ], [ 103.8642, 11.1229 ], [ 103.8636, 11.1214 ], [ 103.8612, 11.1212 ], [ 103.8602, 11.1198 ], [ 103.8591, 11.1175 ], [ 103.8591, 11.1132 ], [ 103.8569, 11.1096 ], [ 103.8515, 11.1037 ], [ 103.8408, 11.0982 ], [ 103.8396, 11.096 ], [ 103.8403, 11.0861 ], [ 103.8417, 11.0845 ], [ 103.8436, 11.0856 ], [ 103.8439, 11.0874 ], [ 103.8423, 11.0891 ], [ 103.8428, 11.0904 ], [ 103.8456, 11.0892 ], [ 103.8465, 11.0838 ], [ 103.8456, 11.082 ], [ 103.8425, 11.0807 ], [ 103.8488, 11.0785 ], [ 103.8466, 11.0758 ], [ 103.8468, 11.0732 ], [ 103.8458, 11.0718 ], [ 103.8398, 11.073 ], [ 103.8339, 11.072 ], [ 103.8271, 11.0644 ], [ 103.8224, 11.0571 ], [ 103.8171, 11.0553 ], [ 103.814, 11.0614 ], [ 103.8141, 11.0693 ], [ 103.8124, 11.0724 ], [ 103.8114, 11.0766 ], [ 103.8127, 11.0792 ], [ 103.8126, 11.0939 ], [ 103.8063, 11.103 ], [ 103.807, 11.1066 ], [ 103.8107, 11.109 ], [ 103.8106, 11.1109 ], [ 103.8041, 11.1142 ], [ 103.7983, 11.1158 ], [ 103.798, 11.1173 ], [ 103.8008, 11.1204 ], [ 103.8013, 11.1232 ], [ 103.7981, 11.1274 ], [ 103.7933, 11.1289 ], [ 103.7859, 11.1268 ], [ 103.7831, 11.1352 ], [ 103.7815, 11.1379 ], [ 103.7792, 11.1395 ], [ 103.7748, 11.1388 ], [ 103.7704, 11.1365 ], [ 103.7655, 11.1328 ], [ 103.7613, 11.1273 ], [ 103.747, 11.1291 ], [ 103.7418, 11.1251 ], [ 103.7348, 11.1226 ], [ 103.7334, 11.1234 ], [ 103.7338, 11.1258 ], [ 103.7312, 11.1239 ], [ 103.7259, 11.1227 ], [ 103.7075, 11.1225 ], [ 103.6961, 11.1195 ], [ 103.6868, 11.1135 ], [ 103.6842, 11.1104 ], [ 103.6831, 11.1073 ], [ 103.6815, 11.0987 ], [ 103.6719, 11.0863 ], [ 103.6691, 11.0616 ], [ 103.6606, 11.0614 ], [ 103.6619, 11.0673 ], [ 103.6597, 11.0685 ], [ 103.6583, 11.0718 ], [ 103.6604, 11.0808 ], [ 103.6606, 11.0862 ], [ 103.6523, 11.0944 ], [ 103.6506, 11.0947 ], [ 103.6505, 11.0958 ], [ 103.6487, 11.0953 ], [ 103.6484, 11.097 ], [ 103.6437, 11.0979 ], [ 103.6454, 11.1001 ], [ 103.6447, 11.1015 ], [ 103.643, 11.1022 ], [ 103.6444, 11.1086 ], [ 103.643, 11.1103 ], [ 103.6422, 11.1102 ], [ 103.6421, 11.1122 ], [ 103.6414, 11.1122 ], [ 103.6401, 11.1144 ], [ 103.6425, 11.1221 ], [ 103.6441, 11.1216 ], [ 103.6448, 11.1237 ], [ 103.6458, 11.1239 ], [ 103.6459, 11.1255 ], [ 103.6441, 11.1262 ], [ 103.6488, 11.1312 ], [ 103.6481, 11.135 ], [ 103.649, 11.1363 ], [ 103.6513, 11.1368 ], [ 103.6516, 11.1404 ], [ 103.6541, 11.1438 ], [ 103.6609, 11.1452 ], [ 103.6616, 11.1471 ], [ 103.6632, 11.1477 ], [ 103.665, 11.146 ], [ 103.6658, 11.148 ], [ 103.6674, 11.149 ], [ 103.6713, 11.1476 ], [ 103.6747, 11.1488 ], [ 103.6798, 11.1479 ], [ 103.6816, 11.15 ], [ 103.6853, 11.1489 ], [ 103.6883, 11.1459 ], [ 103.6921, 11.1448 ], [ 103.6945, 11.1462 ], [ 103.695, 11.1457 ], [ 103.6955, 11.1468 ], [ 103.698, 11.1472 ], [ 103.7007, 11.1463 ], [ 103.7015, 11.1473 ], [ 103.7054, 11.1481 ], [ 103.7078, 11.152 ], [ 103.711, 11.1514 ], [ 103.7169, 11.1522 ], [ 103.7178, 11.1532 ], [ 103.7207, 11.1823 ], [ 103.7246, 11.1974 ], [ 103.7289, 11.2216 ], [ 103.7364, 11.2509 ], [ 103.7355, 11.2518 ], [ 103.7357, 11.2572 ], [ 103.7388, 11.2988 ], [ 103.7408, 11.3093 ], [ 103.7452, 11.3196 ], [ 103.7455, 11.3224 ], [ 103.7431, 11.3246 ], [ 103.7368, 11.3252 ], [ 103.7261, 11.3242 ], [ 103.7194, 11.3268 ], [ 103.7168, 11.3317 ], [ 103.711, 11.3388 ], [ 103.7102, 11.3421 ], [ 103.7104, 11.3502 ], [ 103.7153, 11.3673 ], [ 103.7138, 11.374 ], [ 103.7103, 11.3806 ], [ 103.7068, 11.3835 ], [ 103.7045, 11.383 ], [ 103.7019, 11.3858 ], [ 103.6954, 11.3897 ], [ 103.6941, 11.3923 ], [ 103.685, 11.3981 ], [ 103.674, 11.4088 ], [ 103.6727, 11.4117 ], [ 103.6734, 11.419 ], [ 103.6782, 11.4287 ], [ 103.6912, 11.4459 ], [ 103.6919, 11.448 ], [ 103.7034, 11.4611 ], [ 103.7057, 11.466 ], [ 103.7107, 11.4718 ], [ 103.7156, 11.483 ], [ 103.7209, 11.502 ], [ 103.7235, 11.5186 ], [ 103.723, 11.5486 ], [ 103.7247, 11.5659 ] ] ] } },
{ "type": "Feature", "properties": { "COMNAME_KH": "ដងទង់", "COM_NAME": "Dang Tong", "DISNAME_KH": "ខេមរភូមិន្ទ", "loss_ha": 0, "pct": 0.0 }, "geometry": { "type": "Polygon", "coordinates": [ [ [ 102.9727, 11.6096 ], [ 102.9854, 11.6084 ], [ 102.9887, 11.6055 ], [ 102.9888, 11.6025 ], [ 102.9718, 11.5945 ], [ 102.9727, 11.6096 ] ] ] } },
{ "type": "Feature", "properties": { "COMNAME_KH": "ស្ទឹងវែង", "COM_NAME": "Stueng Veaeng", "DISNAME_KH": "ខេមរភូមិន្ទ", "loss_ha": 929, "pct": 22.6 }, "geometry": { "type": "Polygon", "coordinates": [ [ [ 102.9718, 11.5945 ], [ 102.9888, 11.6025 ], [ 102.9887, 11.6055 ], [ 102.9922, 11.6024 ], [ 102.9949, 11.6032 ], [ 103.0013, 11.5979 ], [ 103.0065, 11.6031 ], [ 103.0248, 11.6021 ], [ 103.0319, 11.5926 ], [ 103.0349, 11.5899 ], [ 103.036, 11.5738 ], [ 103.0365, 11.5721 ], [ 103.0389, 11.5703 ], [ 103.0377, 11.5658 ], [ 103.0388, 11.5511 ], [ 103.0371, 11.5436 ], [ 103.0351, 11.5419 ], [ 103.0314, 11.5417 ], [ 103.0166, 11.545 ], [ 103.0078, 11.5395 ], [ 103.0047, 11.5389 ], [ 103.0004, 11.5397 ], [ 102.9977, 11.5413 ], [ 102.996, 11.5439 ], [ 102.9945, 11.5529 ], [ 102.9902, 11.5586 ], [ 102.989, 11.5593 ], [ 102.9787, 11.5601 ], [ 102.971, 11.5671 ], [ 102.9673, 11.5717 ], [ 102.9675, 11.574 ], [ 102.9705, 11.5803 ], [ 102.9718, 11.5945 ] ] ] } },
{ "type": "Feature", "properties": { "COMNAME_KH": "ទួលគគីរ", "COM_NAME": "Tuol Kokir", "DISNAME_KH": "មណ្ឌលសីមា", "loss_ha": 2017, "pct": 28.4 }, "geometry": { "type": "Polygon", "coordinates": [ [ [ 103.0919, 11.5924 ], [ 103.0929, 11.5906 ], [ 103.0945, 11.5797 ], [ 103.0955, 11.5782 ], [ 103.0992, 11.5758 ], [ 103.1051, 11.5591 ], [ 103.1048, 11.5274 ], [ 103.1018, 11.5212 ], [ 103.1022, 11.5144 ], [ 103.1005, 11.5101 ], [ 103.1021, 11.5063 ], [ 103.1073, 11.5021 ], [ 103.1058, 11.499 ], [ 103.0973, 11.492 ], [ 103.0962, 11.4927 ], [ 103.0968, 11.4904 ], [ 103.096, 11.4903 ], [ 103.0951, 11.4924 ], [ 103.0919, 11.4869 ], [ 103.086, 11.4859 ], [ 103.0805, 11.4866 ], [ 103.0792, 11.4905 ], [ 103.0777, 11.4914 ], [ 103.0713, 11.4926 ], [ 103.0659, 11.4957 ], [ 103.0576, 11.4973 ], [ 103.0533, 11.4998 ], [ 103.0501, 11.5004 ], [ 103.049, 11.5087 ], [ 103.0393, 11.517 ], [ 103.0373, 11.5199 ], [ 103.0371, 11.5259 ], [ 103.0401, 11.5348 ], [ 103.0389, 11.5402 ], [ 103.0371, 11.5436 ], [ 103.0388, 11.5511 ], [ 103.0378, 11.5678 ], [ 103.0382, 11.5695 ], [ 103.0427, 11.5745 ], [ 103.0424, 11.5798 ], [ 103.0408, 11.586 ], [ 103.0424, 11.5878 ], [ 103.0448, 11.5884 ], [ 103.0478, 11.5873 ], [ 103.0554, 11.5801 ], [ 103.0575, 11.5802 ], [ 103.0591, 11.5814 ], [ 103.0594, 11.585 ], [ 103.0568, 11.5866 ], [ 103.0565, 11.589 ], [ 103.0564, 11.5912 ], [ 103.0583, 11.5929 ], [ 103.0564, 11.5936 ], [ 103.0565, 11.5943 ], [ 103.0597, 11.5942 ], [ 103.0599, 11.5926 ], [ 103.0622, 11.5921 ], [ 103.067, 11.5932 ], [ 103.071, 11.5909 ], [ 103.0919, 11.5924 ] ] ] } },
{ "type": "Feature", "properties": { "COMNAME_KH": "ពាមក្រសោប", "COM_NAME": "Peam Krasaob", "DISNAME_KH": "មណ្ឌលសីមា", "loss_ha": 749, "pct": 16.2 }, "geometry": { "type": "Polygon", "coordinates": [ [ [ 102.9524, 11.5549 ], [ 102.9551, 11.5526 ], [ 102.9565, 11.554 ], [ 102.9598, 11.5546 ], [ 102.9643, 11.5649 ], [ 102.9635, 11.5681 ], [ 102.9675, 11.574 ], [ 102.9678, 11.5708 ], [ 102.9787, 11.5601 ], [ 102.989, 11.5593 ], [ 102.9902, 11.5586 ], [ 102.9945, 11.5529 ], [ 102.9968, 11.542 ], [ 103.0004, 11.5397 ], [ 103.0066, 11.5391 ], [ 103.0166, 11.545 ], [ 103.0314, 11.5417 ], [ 103.0351, 11.5419 ], [ 103.0371, 11.5436 ], [ 103.0389, 11.5402 ], [ 103.0401, 11.5348 ], [ 103.0371, 11.5259 ], [ 103.0368, 11.5212 ], [ 103.0393, 11.517 ], [ 103.049, 11.5087 ], [ 103.0501, 11.5004 ], [ 103.0423, 11.4999 ], [ 103.0362, 11.4984 ], [ 103.0245, 11.4989 ], [ 103.0201, 11.4998 ], [ 103.0113, 11.4991 ], [ 103.0023, 11.4972 ], [ 102.9938, 11.4946 ], [ 102.9921, 11.4932 ], [ 102.9892, 11.4949 ], [ 102.9893, 11.494 ], [ 102.9857, 11.499 ], [ 102.9825, 11.5077 ], [ 102.9858, 11.5149 ], [ 102.9817, 11.5186 ], [ 102.9796, 11.5186 ], [ 102.971, 11.5225 ], [ 102.9671, 11.5259 ], [ 102.9578, 11.5377 ], [ 102.9511, 11.548 ], [ 102.95, 11.551 ], [ 102.9524, 11.5549 ] ] ] } },
{ "type": "Feature", "properties": { "COMNAME_KH": "ជី ខ លើ", "COM_NAME": "Chi kha Leu", "DISNAME_KH": "ស្រែ អំបិល", "loss_ha": 11428, "pct": 19.2 }, "geometry": { "type": "Polygon", "coordinates": [ [ [ 103.6811, 11.5541 ], [ 103.689, 11.5537 ], [ 103.7024, 11.5455 ], [ 103.7041, 11.5463 ], [ 103.705, 11.5479 ], [ 103.7041, 11.5508 ], [ 103.7106, 11.5543 ], [ 103.7152, 11.5579 ], [ 103.7169, 11.5613 ], [ 103.7198, 11.5643 ], [ 103.7247, 11.5659 ], [ 103.723, 11.5486 ], [ 103.7235, 11.5186 ], [ 103.7209, 11.502 ], [ 103.7156, 11.483 ], [ 103.7107, 11.4718 ], [ 103.7057, 11.466 ], [ 103.7034, 11.4611 ], [ 103.6919, 11.448 ], [ 103.6912, 11.4459 ], [ 103.6782, 11.4287 ], [ 103.6734, 11.419 ], [ 103.6727, 11.4117 ], [ 103.674, 11.4088 ], [ 103.685, 11.3981 ], [ 103.6941, 11.3923 ], [ 103.6954, 11.3897 ], [ 103.7019, 11.3858 ], [ 103.7045, 11.383 ], [ 103.7068, 11.3835 ], [ 103.7103, 11.3806 ], [ 103.7138, 11.374 ], [ 103.7153, 11.3673 ], [ 103.7104, 11.3502 ], [ 103.7102, 11.3421 ], [ 103.711, 11.3388 ], [ 103.7168, 11.3317 ], [ 103.7194, 11.3268 ], [ 103.7261, 11.3242 ], [ 103.7368, 11.3252 ], [ 103.7431, 11.3246 ], [ 103.7448, 11.3235 ], [ 103.7454, 11.3215 ], [ 103.7396, 11.3045 ], [ 103.7357, 11.2572 ], [ 103.7355, 11.2518 ], [ 103.7364, 11.2509 ], [ 103.7289, 11.2216 ], [ 103.7246, 11.1974 ], [ 103.7207, 11.1823 ], [ 103.7178, 11.1532 ], [ 103.7169, 11.1522 ], [ 103.711, 11.1514 ], [ 103.7078, 11.152 ], [ 103.7054, 11.1481 ], [ 103.7015, 11.1473 ], [ 103.7007, 11.1463 ], [ 103.698, 11.1472 ], [ 103.6955, 11.1468 ], [ 103.695, 11.1457 ], [ 103.6945, 11.1462 ], [ 103.6921, 11.1448 ], [ 103.6883, 11.1459 ], [ 103.6853, 11.1489 ], [ 103.6816, 11.15 ], [ 103.6798, 11.1479 ], [ 103.6747, 11.1488 ], [ 103.6713, 11.1476 ], [ 103.6674, 11.149 ], [ 103.6658, 11.148 ], [ 103.665, 11.146 ], [ 103.6632, 11.1477 ], [ 103.6616, 11.1471 ], [ 103.6609, 11.1452 ], [ 103.6541, 11.1438 ], [ 103.6512, 11.1394 ], [ 103.6266, 11.1734 ], [ 103.6211, 11.1728 ], [ 103.6159, 11.1734 ], [ 103.6035, 11.1786 ], [ 103.6033, 11.1799 ], [ 103.6045, 11.1818 ], [ 103.6001, 11.1802 ], [ 103.6004, 11.1827 ], [ 103.6029, 11.1831 ], [ 103.6042, 11.1859 ], [ 103.5979, 11.1856 ], [ 103.5967, 11.1899 ], [ 103.5953, 11.1891 ], [ 103.5929, 11.1912 ], [ 103.593, 11.1927 ], [ 103.5913, 11.193 ], [ 103.591, 11.1989 ], [ 103.5923, 11.1981 ], [ 103.5929, 11.1989 ], [ 103.5929, 11.2011 ], [ 103.5936, 11.2012 ], [ 103.5947, 11.2047 ], [ 103.594, 11.2057 ], [ 103.5944, 11.207 ], [ 103.5959, 11.2055 ], [ 103.5964, 11.206 ], [ 103.5953, 11.2074 ], [ 103.5949, 11.2102 ], [ 103.5933, 11.2122 ], [ 103.5954, 11.2142 ], [ 103.5948, 11.2155 ], [ 103.5959, 11.2211 ], [ 103.5999, 11.2262 ], [ 103.6005, 11.234 ], [ 103.603, 11.2436 ], [ 103.6032, 11.2531 ], [ 103.5995, 11.2596 ], [ 103.5934, 11.264 ], [ 103.5886, 11.266 ], [ 103.5833, 11.2703 ], [ 103.5752, 11.2797 ], [ 103.5727, 11.2817 ], [ 103.5589, 11.2871 ], [ 103.5532, 11.292 ], [ 103.5478, 11.2982 ], [ 103.5454, 11.3033 ], [ 103.5418, 11.3203 ], [ 103.5447, 11.3299 ], [ 103.5419, 11.334 ], [ 103.5359, 11.3368 ], [ 103.5424, 11.3485 ], [ 103.5423, 11.3495 ], [ 103.539, 11.3509 ], [ 103.5377, 11.3523 ], [ 103.5378, 11.3607 ], [ 103.5367, 11.3686 ], [ 103.5387, 11.3729 ], [ 103.5379, 11.3763 ], [ 103.5435, 11.3779 ], [ 103.5487, 11.3845 ], [ 103.5504, 11.3849 ], [ 103.5561, 11.3911 ], [ 103.5668, 11.3969 ], [ 103.572, 11.4041 ], [ 103.5752, 11.4037 ], [ 103.5757, 11.4078 ], [ 103.5767, 11.4093 ], [ 103.5736, 11.4135 ], [ 103.5749, 11.4162 ], [ 103.5784, 11.4165 ], [ 103.5817, 11.4156 ], [ 103.5829, 11.4168 ], [ 103.5826, 11.4181 ], [ 103.5861, 11.4213 ], [ 103.5878, 11.4216 ], [ 103.591, 11.42 ], [ 103.5937, 11.4221 ], [ 103.5954, 11.4223 ], [ 103.5968, 11.4207 ], [ 103.6012, 11.4185 ], [ 103.6032, 11.4212 ], [ 103.6046, 11.4216 ], [ 103.6068, 11.4264 ], [ 103.6085, 11.4246 ], [ 103.6109, 11.4245 ], [ 103.612, 11.4267 ], [ 103.6159, 11.4278 ], [ 103.6185, 11.432 ], [ 103.6204, 11.4316 ], [ 103.6221, 11.4295 ], [ 103.6255, 11.4315 ], [ 103.627, 11.4348 ], [ 103.6282, 11.4352 ], [ 103.6306, 11.4327 ], [ 103.6339, 11.4354 ], [ 103.6356, 11.44 ], [ 103.6356, 11.4445 ], [ 103.6405, 11.4468 ], [ 103.6427, 11.4505 ], [ 103.6406, 11.4559 ], [ 103.6375, 11.4596 ], [ 103.6334, 11.4627 ], [ 103.63, 11.4638 ], [ 103.6294, 11.4654 ], [ 103.6301, 11.4689 ], [ 103.6296, 11.4718 ], [ 103.6321, 11.4742 ], [ 103.6319, 11.4759 ], [ 103.634, 11.4781 ], [ 103.6336, 11.48 ], [ 103.6347, 11.4812 ], [ 103.6308, 11.4908 ], [ 103.6313, 11.4989 ], [ 103.6292, 11.5019 ], [ 103.6298, 11.5142 ], [ 103.6332, 11.5194 ], [ 103.6334, 11.521 ], [ 103.6349, 11.5221 ], [ 103.6346, 11.5241 ], [ 103.6382, 11.5232 ], [ 103.6387, 11.5261 ], [ 103.6421, 11.5315 ], [ 103.6454, 11.5337 ], [ 103.646, 11.5359 ], [ 103.6455, 11.5422 ], [ 103.6471, 11.5443 ], [ 103.6471, 11.5467 ], [ 103.654, 11.5503 ], [ 103.6597, 11.5506 ], [ 103.662, 11.5517 ], [ 103.6685, 11.5511 ], [ 103.6734, 11.5533 ], [ 103.6774, 11.5515 ], [ 103.6811, 11.5541 ] ] ] } },
{ "type": "Feature", "properties": { "COMNAME_KH": "កោះកាពិ", "COM_NAME": "Kaoh Kapi", "DISNAME_KH": "កោះកុង", "loss_ha": 930, "pct": 15.2 }, "geometry": { "type": "MultiPolygon", "coordinates": [ [ [ [ 103.0106, 11.4348 ], [ 103.0114, 11.4341 ], [ 103.0123, 11.4345 ], [ 103.0146, 11.4393 ], [ 103.0149, 11.4455 ], [ 103.0126, 11.4566 ], [ 103.0143, 11.4578 ], [ 103.0104, 11.4633 ], [ 103.005, 11.4736 ], [ 102.9996, 11.4805 ], [ 102.9985, 11.4843 ], [ 102.9921, 11.492 ], [ 102.9917, 11.4927 ], [ 102.9938, 11.4946 ], [ 103.0113, 11.4991 ], [ 103.0201, 11.4998 ], [ 103.0245, 11.4989 ], [ 103.0362, 11.4984 ], [ 103.0423, 11.4999 ], [ 103.0509, 11.5004 ], [ 103.0576, 11.4973 ], [ 103.0659, 11.4957 ], [ 103.0713, 11.4926 ], [ 103.0792, 11.4905 ], [ 103.0805, 11.4866 ], [ 103.0788, 11.4827 ], [ 103.0787, 11.48 ], [ 103.0806, 11.4766 ], [ 103.0878, 11.4749 ], [ 103.0952, 11.4776 ], [ 103.1068, 11.4703 ], [ 103.113, 11.4698 ], [ 103.1125, 11.464 ], [ 103.1106, 11.462 ], [ 103.1008, 11.4547 ], [ 103.0842, 11.4456 ], [ 103.0787, 11.444 ], [ 103.0623, 11.4465 ], [ 103.0545, 11.4464 ], [ 103.0446, 11.4414 ], [ 103.0423, 11.444 ], [ 103.0356, 11.4342 ], [ 103.0325, 11.4321 ], [ 103.031, 11.4329 ], [ 103.0307, 11.4304 ], [ 103.0254, 11.4275 ], [ 103.0242, 11.4248 ], [ 103.0233, 11.4246 ], [ 103.022, 11.4269 ], [ 103.0198, 11.4239 ], [ 103.0178, 11.4227 ], [ 103.0203, 11.4221 ], [ 103.0189, 11.4212 ], [ 103.0165, 11.4217 ], [ 103.0131, 11.4244 ], [ 103.0127, 11.4308 ], [ 103.0106, 11.4348 ] ] ], [ [ [ 103.0106, 11.4348 ], [ 103.0086, 11.4347 ], [ 103.0065, 11.4325 ], [ 103.0051, 11.4334 ], [ 103.0045, 11.4351 ], [ 103.006, 11.4374 ], [ 103.0068, 11.4356 ], [ 103.0106, 11.4348 ] ] ] ] } },
{ "type": "Feature", "properties": { "COMNAME_KH": "ជ្រោយប្រស់", "COM_NAME": "Chrouy Pras", "DISNAME_KH": "កោះកុង", "loss_ha": 10499, "pct": 24.4 }, "geometry": { "type": "MultiPolygon", "coordinates": [ [ [ [ 103.1209, 11.4656 ], [ 103.1301, 11.4635 ], [ 103.1306, 11.4599 ], [ 103.1288, 11.451 ], [ 103.1301, 11.4474 ], [ 103.149, 11.4274 ], [ 103.2464, 11.3622 ], [ 103.2503, 11.357 ], [ 103.2534, 11.3557 ], [ 103.2588, 11.3573 ], [ 103.2653, 11.3558 ], [ 103.2662, 11.3548 ], [ 103.2678, 11.3461 ], [ 103.2676, 11.3433 ], [ 103.2697, 11.3413 ], [ 103.2701, 11.3389 ], [ 103.2695, 11.3363 ], [ 103.2701, 11.3327 ], [ 103.2675, 11.3308 ], [ 103.2672, 11.3289 ], [ 103.2709, 11.3285 ], [ 103.2722, 11.3255 ], [ 103.276, 11.321 ], [ 103.2801, 11.3178 ], [ 103.2782, 11.3095 ], [ 103.2803, 11.3074 ], [ 103.2753, 11.2988 ], [ 103.2767, 11.2977 ], [ 103.2759, 11.2958 ], [ 103.2786, 11.2929 ], [ 103.2778, 11.2886 ], [ 103.2789, 11.288 ], [ 103.2801, 11.2892 ], [ 103.2815, 11.2878 ], [ 103.2897, 11.2859 ], [ 103.2907, 11.2784 ], [ 103.2889, 11.2751 ], [ 103.2889, 11.2697 ], [ 103.2861, 11.2633 ], [ 103.2888, 11.2612 ], [ 103.2888, 11.2577 ], [ 103.29, 11.2559 ], [ 103.2917, 11.2558 ], [ 103.2937, 11.252 ], [ 103.2964, 11.2518 ], [ 103.2966, 11.2505 ], [ 103.2984, 11.2502 ], [ 103.3002, 11.247 ], [ 103.3022, 11.2463 ], [ 103.3024, 11.245 ], [ 103.3013, 11.2427 ], [ 103.3024, 11.2417 ], [ 103.3025, 11.2401 ], [ 103.3045, 11.2384 ], [ 103.3052, 11.2356 ], [ 103.307, 11.2354 ], [ 103.308, 11.2328 ], [ 103.3129, 11.2308 ], [ 103.3189, 11.2249 ], [ 103.3101, 11.221 ], [ 103.3073, 11.2178 ], [ 103.2791, 11.2218 ], [ 103.2497, 11.2232 ], [ 103.2245, 11.2276 ], [ 103.2191, 11.2263 ], [ 103.2134, 11.2238 ], [ 103.2087, 11.2244 ], [ 103.2046, 11.228 ], [ 103.2021, 11.2286 ], [ 103.2026, 11.23 ], [ 103.2, 11.2319 ], [ 103.1942, 11.2334 ], [ 103.1919, 11.2392 ], [ 103.1878, 11.2422 ], [ 103.1871, 11.2478 ], [ 103.1859, 11.2498 ], [ 103.1877, 11.2551 ], [ 103.1816, 11.2625 ], [ 103.1841, 11.2634 ], [ 103.1837, 11.264 ], [ 103.1791, 11.2672 ], [ 103.175, 11.2673 ], [ 103.1716, 11.2703 ], [ 103.1674, 11.2722 ], [ 103.1644, 11.283 ], [ 103.1647, 11.2846 ], [ 103.167, 11.2867 ], [ 103.1639, 11.2903 ], [ 103.1617, 11.2967 ], [ 103.1588, 11.298 ], [ 103.1532, 11.2956 ], [ 103.15, 11.2952 ], [ 103.1475, 11.2965 ], [ 103.1456, 11.2993 ], [ 103.1449, 11.3028 ], [ 103.1464, 11.3149 ], [ 103.1448, 11.3197 ], [ 103.1454, 11.3209 ], [ 103.1447, 11.3237 ], [ 103.1406, 11.3283 ], [ 103.1401, 11.3318 ], [ 103.1388, 11.3329 ], [ 103.1377, 11.3364 ], [ 103.1342, 11.3396 ], [ 103.1337, 11.3416 ], [ 103.1344, 11.3434 ], [ 103.1359, 11.3443 ], [ 103.1375, 11.3468 ], [ 103.1361, 11.3472 ], [ 103.1341, 11.3499 ], [ 103.1295, 11.3507 ], [ 103.1277, 11.3492 ], [ 103.1187, 11.3491 ], [ 103.1115, 11.3433 ], [ 103.1087, 11.3424 ], [ 103.1056, 11.3426 ], [ 103.1026, 11.3452 ], [ 103.1024, 11.3469 ], [ 103.1032, 11.3479 ], [ 103.0955, 11.351 ], [ 103.0905, 11.3604 ], [ 103.0876, 11.3747 ], [ 103.0884, 11.376 ], [ 103.0876, 11.3775 ], [ 103.0877, 11.3821 ], [ 103.0853, 11.3961 ], [ 103.0871, 11.4013 ], [ 103.0898, 11.3996 ], [ 103.091, 11.3998 ], [ 103.0878, 11.4042 ], [ 103.086, 11.4053 ], [ 103.0855, 11.4075 ], [ 103.0873, 11.4094 ], [ 103.0845, 11.4102 ], [ 103.0799, 11.4193 ], [ 103.078, 11.4205 ], [ 103.0778, 11.4226 ], [ 103.0759, 11.4221 ], [ 103.0751, 11.4204 ], [ 103.0761, 11.4158 ], [ 103.0733, 11.4152 ], [ 103.0735, 11.4163 ], [ 103.0714, 11.4183 ], [ 103.0702, 11.4256 ], [ 103.0735, 11.4315 ], [ 103.0712, 11.4325 ], [ 103.0689, 11.4303 ], [ 103.0654, 11.425 ], [ 103.065, 11.4203 ], [ 103.0637, 11.4197 ], [ 103.0604, 11.4249 ], [ 103.0635, 11.425 ], [ 103.0653, 11.4267 ], [ 103.0639, 11.4287 ], [ 103.0658, 11.4318 ], [ 103.0599, 11.4333 ], [ 103.06, 11.4341 ], [ 103.0583, 11.4346 ], [ 103.0553, 11.4346 ], [ 103.054, 11.4383 ], [ 103.0521, 11.4401 ], [ 103.0503, 11.4378 ], [ 103.0469, 11.4372 ], [ 103.047, 11.4387 ], [ 103.0446, 11.4414 ], [ 103.0545, 11.4464 ], [ 103.0623, 11.4465 ], [ 103.0787, 11.444 ], [ 103.0842, 11.4456 ], [ 103.1008, 11.4547 ], [ 103.1142, 11.4651 ], [ 103.1209, 11.4656 ] ] ], [ [ [ 102.9825, 11.418 ], [ 102.9855, 11.4186 ], [ 102.987, 11.417 ], [ 102.9842, 11.4104 ], [ 102.9852, 11.4076 ], [ 102.9867, 11.408 ], [ 102.9871, 11.4065 ], [ 102.988, 11.4066 ], [ 102.9889, 11.4092 ], [ 102.9915, 11.4091 ], [ 102.9955, 11.4106 ], [ 102.9977, 11.4141 ], [ 102.9994, 11.4156 ], [ 103.0007, 11.4155 ], [ 103.004, 11.4188 ], [ 103.0075, 11.4177 ], [ 103.0142, 11.4189 ], [ 103.0157, 11.4166 ], [ 103.0174, 11.4166 ], [ 103.0199, 11.4132 ], [ 103.0198, 11.4115 ], [ 103.0208, 11.411 ], [ 103.0204, 11.4093 ], [ 103.0232, 11.4064 ], [ 103.0231, 11.4032 ], [ 103.0218, 11.4012 ], [ 103.0233, 11.4004 ], [ 103.0234, 11.399 ], [ 103.0283, 11.3908 ], [ 103.0283, 11.3889 ], [ 103.0335, 11.381 ], [ 103.0332, 11.379 ], [ 103.0345, 11.3764 ], [ 103.0346, 11.3739 ], [ 103.0315, 11.3676 ], [ 103.0306, 11.3612 ], [ 103.0299, 11.3608 ], [ 103.0309, 11.3602 ], [ 103.0281, 11.3527 ], [ 103.028, 11.3471 ], [ 103.0315, 11.3428 ], [ 103.0331, 11.342 ], [ 103.0339, 11.3389 ], [ 103.037, 11.3388 ], [ 103.0412, 11.3344 ], [ 103.0416, 11.3293 ], [ 103.039, 11.325 ], [ 103.0388, 11.3217 ], [ 103.0376, 11.3208 ], [ 103.0408, 11.3162 ], [ 103.0411, 11.3134 ], [ 103.0437, 11.3101 ], [ 103.0445, 11.3061 ], [ 103.0416, 11.301 ], [ 103.0426, 11.2936 ], [ 103.0408, 11.2915 ], [ 103.0408, 11.2889 ], [ 103.0393, 11.2851 ], [ 103.0377, 11.2821 ], [ 103.0364, 11.2814 ], [ 103.0342, 11.2762 ], [ 103.0344, 11.2749 ], [ 103.0331, 11.2749 ], [ 103.0324, 11.2759 ], [ 103.0315, 11.2753 ], [ 103.0345, 11.2716 ], [ 103.0327, 11.2693 ], [ 103.0313, 11.2641 ], [ 103.0279, 11.2597 ], [ 103.0254, 11.249 ], [ 103.0227, 11.2453 ], [ 103.0184, 11.2443 ], [ 103.0167, 11.2426 ], [ 103.0105, 11.2452 ], [ 103.009, 11.2486 ], [ 103.0063, 11.2512 ], [ 103.0005, 11.2487 ], [ 102.9999, 11.247 ], [ 102.9987, 11.2474 ], [ 103.0, 11.2517 ], [ 102.9975, 11.2562 ], [ 102.9943, 11.2571 ], [ 102.9902, 11.2541 ], [ 102.9889, 11.2546 ], [ 102.9883, 11.256 ], [ 102.9894, 11.2582 ], [ 102.9926, 11.2604 ], [ 102.9893, 11.2688 ], [ 102.9903, 11.27 ], [ 102.991, 11.2696 ], [ 102.9925, 11.2722 ], [ 102.9884, 11.2709 ], [ 102.9892, 11.2704 ], [ 102.9886, 11.2697 ], [ 102.9854, 11.2702 ], [ 102.9803, 11.276 ], [ 102.9811, 11.2769 ], [ 102.9857, 11.2773 ], [ 102.9861, 11.2783 ], [ 102.984, 11.2827 ], [ 102.9856, 11.2858 ], [ 102.9834, 11.2924 ], [ 102.9855, 11.2961 ], [ 102.9844, 11.301 ], [ 102.9811, 11.3023 ], [ 102.9809, 11.3054 ], [ 102.9848, 11.3117 ], [ 102.9871, 11.3128 ], [ 102.9883, 11.3167 ], [ 102.9905, 11.318 ], [ 102.9898, 11.3199 ], [ 102.9891, 11.3199 ], [ 102.9893, 11.322 ], [ 102.988, 11.3233 ], [ 102.9886, 11.3246 ], [ 102.9799, 11.3504 ], [ 102.9776, 11.3518 ], [ 102.9751, 11.3558 ], [ 102.9752, 11.3589 ], [ 102.9782, 11.3616 ], [ 102.9785, 11.3681 ], [ 102.9814, 11.3718 ], [ 102.9798, 11.3723 ], [ 102.9736, 11.3902 ], [ 102.972, 11.3908 ], [ 102.9703, 11.3945 ], [ 102.9716, 11.3966 ], [ 102.9708, 11.4017 ], [ 102.9719, 11.4029 ], [ 102.9721, 11.406 ], [ 102.9754, 11.4137 ], [ 102.9787, 11.4194 ], [ 102.9815, 11.4219 ], [ 102.9833, 11.4217 ], [ 102.9821, 11.4199 ], [ 102.9825, 11.418 ] ] ] ] } },
{ "type": "Feature", "properties": { "COMNAME_KH": "ជីផាត", "COM_NAME": "Chi Phat", "DISNAME_KH": "ថ្មបាំង", "loss_ha": 3979, "pct": 37.2 }, "geometry": { "type": "Polygon", "coordinates": [ [ [ 103.4781, 11.3888 ], [ 103.4855, 11.3822 ], [ 103.4878, 11.3784 ], [ 103.4925, 11.3785 ], [ 103.498, 11.3748 ], [ 103.501, 11.3664 ], [ 103.5029, 11.3635 ], [ 103.5112, 11.3629 ], [ 103.5168, 11.3586 ], [ 103.5328, 11.3515 ], [ 103.5357, 11.3508 ], [ 103.538, 11.3517 ], [ 103.5423, 11.3495 ], [ 103.5409, 11.3447 ], [ 103.5376, 11.3405 ], [ 103.5359, 11.3368 ], [ 103.5419, 11.334 ], [ 103.5447, 11.3299 ], [ 103.5444, 11.3276 ], [ 103.5417, 11.322 ], [ 103.5424, 11.3156 ], [ 103.5454, 11.3033 ], [ 103.5496, 11.2957 ], [ 103.5564, 11.289 ], [ 103.5589, 11.2871 ], [ 103.571, 11.282 ], [ 103.4964, 11.2726 ], [ 103.493, 11.2685 ], [ 103.4911, 11.2696 ], [ 103.4751, 11.2696 ], [ 103.4564, 11.2662 ], [ 103.4632, 11.2775 ], [ 103.4694, 11.2809 ], [ 103.4715, 11.2833 ], [ 103.4761, 11.2921 ], [ 103.4785, 11.3028 ], [ 103.4713, 11.3071 ], [ 103.4684, 11.3105 ], [ 103.463, 11.3123 ], [ 103.454, 11.311 ], [ 103.4519, 11.3083 ], [ 103.4489, 11.3066 ], [ 103.4474, 11.3109 ], [ 103.445, 11.3125 ], [ 103.4434, 11.3112 ], [ 103.4394, 11.3106 ], [ 103.437, 11.307 ], [ 103.434, 11.3103 ], [ 103.4337, 11.3114 ], [ 103.4347, 11.3137 ], [ 103.4341, 11.3148 ], [ 103.4314, 11.3149 ], [ 103.4303, 11.3142 ], [ 103.4298, 11.3111 ], [ 103.4311, 11.3081 ], [ 103.4296, 11.3091 ], [ 103.4276, 11.3083 ], [ 103.4237, 11.31 ], [ 103.4218, 11.3132 ], [ 103.4202, 11.314 ], [ 103.4185, 11.3164 ], [ 103.4173, 11.3167 ], [ 103.4175, 11.3205 ], [ 103.4236, 11.3293 ], [ 103.4267, 11.3317 ], [ 103.427, 11.3332 ], [ 103.4293, 11.3333 ], [ 103.4283, 11.3352 ], [ 103.4348, 11.3387 ], [ 103.4377, 11.3387 ], [ 103.4391, 11.3369 ], [ 103.4402, 11.3389 ], [ 103.4414, 11.339 ], [ 103.4425, 11.3417 ], [ 103.442, 11.3431 ], [ 103.4402, 11.3436 ], [ 103.4423, 11.3457 ], [ 103.4408, 11.3468 ], [ 103.4412, 11.3473 ], [ 103.4445, 11.3475 ], [ 103.4453, 11.3455 ], [ 103.4444, 11.3448 ], [ 103.4473, 11.344 ], [ 103.4477, 11.3471 ], [ 103.4515, 11.3487 ], [ 103.4545, 11.355 ], [ 103.4599, 11.3616 ], [ 103.4603, 11.3648 ], [ 103.4613, 11.366 ], [ 103.4723, 11.3715 ], [ 103.4714, 11.3762 ], [ 103.4736, 11.3805 ], [ 103.475, 11.3815 ], [ 103.4781, 11.3888 ] ] ] } },
{ "type": "Feature", "properties": { "COMNAME_KH": "ព្រែកខ្សាច់", "COM_NAME": "Preaek Khsach", "DISNAME_KH": "គិរីសាគរ", "loss_ha": 8233, "pct": 28.4 }, "geometry": { "type": "Polygon", "coordinates": [ [ [ 103.1448, 11.3197 ], [ 103.1464, 11.3149 ], [ 103.1449, 11.3028 ], [ 103.1456, 11.2993 ], [ 103.1475, 11.2965 ], [ 103.15, 11.2952 ], [ 103.1532, 11.2956 ], [ 103.1588, 11.298 ], [ 103.1617, 11.2967 ], [ 103.1639, 11.2903 ], [ 103.167, 11.2867 ], [ 103.1647, 11.2846 ], [ 103.1644, 11.283 ], [ 103.1674, 11.2722 ], [ 103.1716, 11.2703 ], [ 103.175, 11.2673 ], [ 103.1791, 11.2672 ], [ 103.1837, 11.264 ], [ 103.1841, 11.2634 ], [ 103.1816, 11.2625 ], [ 103.1877, 11.2551 ], [ 103.1859, 11.2498 ], [ 103.1871, 11.2478 ], [ 103.1878, 11.2422 ], [ 103.1919, 11.2392 ], [ 103.192, 11.2375 ], [ 103.1952, 11.2327 ], [ 103.2, 11.2319 ], [ 103.2026, 11.23 ], [ 103.2021, 11.2286 ], [ 103.2046, 11.228 ], [ 103.2087, 11.2244 ], [ 103.2112, 11.2238 ], [ 103.2134, 11.2238 ], [ 103.2191, 11.2263 ], [ 103.2245, 11.2276 ], [ 103.2497, 11.2232 ], [ 103.2791, 11.2218 ], [ 103.3073, 11.2178 ], [ 103.3097, 11.2137 ], [ 103.3045, 11.2083 ], [ 103.2994, 11.2067 ], [ 103.2968, 11.2021 ], [ 103.2878, 11.199 ], [ 103.2833, 11.1986 ], [ 103.2815, 11.1972 ], [ 103.2817, 11.1946 ], [ 103.2827, 11.1935 ], [ 103.2865, 11.1923 ], [ 103.2942, 11.1834 ], [ 103.2998, 11.1805 ], [ 103.3006, 11.1762 ], [ 103.3037, 11.1726 ], [ 103.3041, 11.1684 ], [ 103.3078, 11.1636 ], [ 103.2778, 11.1122 ], [ 103.2464, 11.1253 ], [ 103.1954, 11.1504 ], [ 103.188, 11.1573 ], [ 103.1853, 11.1646 ], [ 103.1817, 11.1688 ], [ 103.1815, 11.1704 ], [ 103.1832, 11.1705 ], [ 103.1835, 11.1714 ], [ 103.1831, 11.1741 ], [ 103.1818, 11.1744 ], [ 103.1816, 11.1754 ], [ 103.1832, 11.1801 ], [ 103.1838, 11.1862 ], [ 103.1848, 11.1874 ], [ 103.1799, 11.1885 ], [ 103.1783, 11.1918 ], [ 103.1771, 11.1889 ], [ 103.1706, 11.1898 ], [ 103.1644, 11.1867 ], [ 103.1633, 11.1875 ], [ 103.1628, 11.1914 ], [ 103.1619, 11.1921 ], [ 103.1598, 11.1917 ], [ 103.1572, 11.1889 ], [ 103.1519, 11.1925 ], [ 103.1469, 11.191 ], [ 103.1445, 11.187 ], [ 103.1415, 11.1856 ], [ 103.1394, 11.1813 ], [ 103.1407, 11.1802 ], [ 103.1395, 11.1751 ], [ 103.1385, 11.1741 ], [ 103.136, 11.1743 ], [ 103.1347, 11.1717 ], [ 103.1365, 11.1695 ], [ 103.1389, 11.1685 ], [ 103.1386, 11.1635 ], [ 103.1403, 11.1626 ], [ 103.1403, 11.1612 ], [ 103.1366, 11.1594 ], [ 103.1361, 11.1566 ], [ 103.1302, 11.1532 ], [ 103.1332, 11.1492 ], [ 103.1317, 11.145 ], [ 103.1322, 11.1364 ], [ 103.1292, 11.1337 ], [ 103.126, 11.1341 ], [ 103.1237, 11.1372 ], [ 103.123, 11.1418 ], [ 103.1212, 11.1453 ], [ 103.1176, 11.147 ], [ 103.1113, 11.1479 ], [ 103.1112, 11.149 ], [ 103.1074, 11.1525 ], [ 103.0961, 11.1893 ], [ 103.087, 11.2101 ], [ 103.0798, 11.22 ], [ 103.0739, 11.2245 ], [ 103.072, 11.2225 ], [ 103.0662, 11.2229 ], [ 103.0628, 11.2197 ], [ 103.0598, 11.2192 ], [ 103.0531, 11.2157 ], [ 103.046, 11.2234 ], [ 103.0491, 11.2243 ], [ 103.0513, 11.2298 ], [ 103.0524, 11.2302 ], [ 103.0534, 11.2291 ], [ 103.0555, 11.2293 ], [ 103.0562, 11.2331 ], [ 103.0576, 11.2348 ], [ 103.0629, 11.2359 ], [ 103.0669, 11.2382 ], [ 103.0704, 11.2375 ], [ 103.0712, 11.2389 ], [ 103.0699, 11.2468 ], [ 103.065, 11.2549 ], [ 103.0661, 11.2568 ], [ 103.0663, 11.2601 ], [ 103.0699, 11.2608 ], [ 103.0724, 11.2588 ], [ 103.072, 11.2608 ], [ 103.0755, 11.2631 ], [ 103.0767, 11.2661 ], [ 103.0763, 11.2717 ], [ 103.0724, 11.2809 ], [ 103.0704, 11.2835 ], [ 103.0705, 11.2863 ], [ 103.0751, 11.2865 ], [ 103.0755, 11.2848 ], [ 103.0739, 11.2848 ], [ 103.0755, 11.2841 ], [ 103.0874, 11.2874 ], [ 103.0891, 11.2846 ], [ 103.0927, 11.2845 ], [ 103.0934, 11.2882 ], [ 103.0926, 11.2898 ], [ 103.0929, 11.291 ], [ 103.0947, 11.2915 ], [ 103.095, 11.2949 ], [ 103.0921, 11.3004 ], [ 103.0988, 11.2979 ], [ 103.104, 11.2982 ], [ 103.1068, 11.301 ], [ 103.1069, 11.3038 ], [ 103.1129, 11.3045 ], [ 103.1179, 11.3079 ], [ 103.1199, 11.3131 ], [ 103.119, 11.3176 ], [ 103.1197, 11.3184 ], [ 103.1248, 11.3165 ], [ 103.128, 11.3129 ], [ 103.1332, 11.3115 ], [ 103.1354, 11.3123 ], [ 103.1418, 11.3185 ], [ 103.144, 11.3181 ], [ 103.1448, 11.3197 ] ] ] } },
{ "type": "Feature", "properties": { "COMNAME_KH": "អណ្ដូងទឹក", "COM_NAME": "Andoung Tuek", "DISNAME_KH": "បុទុមសាគរ", "loss_ha": 9324, "pct": 22.9 }, "geometry": { "type": "Polygon", "coordinates": [ [ [ 103.4173, 11.3167 ], [ 103.4185, 11.3164 ], [ 103.4202, 11.314 ], [ 103.4218, 11.3132 ], [ 103.4237, 11.31 ], [ 103.4276, 11.3083 ], [ 103.4296, 11.3091 ], [ 103.4311, 11.3081 ], [ 103.4298, 11.3111 ], [ 103.4303, 11.3142 ], [ 103.4314, 11.3149 ], [ 103.4341, 11.3148 ], [ 103.4347, 11.3137 ], [ 103.4337, 11.3114 ], [ 103.434, 11.3103 ], [ 103.437, 11.307 ], [ 103.4394, 11.3106 ], [ 103.4434, 11.3112 ], [ 103.445, 11.3125 ], [ 103.4474, 11.3109 ], [ 103.4489, 11.3066 ], [ 103.4519, 11.3083 ], [ 103.454, 11.311 ], [ 103.4612, 11.3124 ], [ 103.4651, 11.312 ], [ 103.4684, 11.3105 ], [ 103.4713, 11.3071 ], [ 103.4785, 11.3028 ], [ 103.4761, 11.2921 ], [ 103.4715, 11.2833 ], [ 103.4694, 11.2809 ], [ 103.4632, 11.2775 ], [ 103.4564, 11.2662 ], [ 103.4754, 11.2131 ], [ 103.4776, 11.2112 ], [ 103.4785, 11.2085 ], [ 103.481, 11.2089 ], [ 103.4844, 11.2071 ], [ 103.4869, 11.2045 ], [ 103.4865, 11.2017 ], [ 103.4873, 11.2009 ], [ 103.4863, 11.1975 ], [ 103.4882, 11.1969 ], [ 103.4895, 11.199 ], [ 103.4928, 11.1985 ], [ 103.4909, 11.1959 ], [ 103.4936, 11.194 ], [ 103.4948, 11.1905 ], [ 103.4933, 11.189 ], [ 103.4919, 11.1895 ], [ 103.49, 11.1885 ], [ 103.491, 11.1848 ], [ 103.4972, 11.1783 ], [ 103.5053, 11.1662 ], [ 103.501, 11.1647 ], [ 103.5001, 11.161 ], [ 103.4868, 11.1483 ], [ 103.4799, 11.1448 ], [ 103.4742, 11.1439 ], [ 103.4727, 11.1414 ], [ 103.4704, 11.131 ], [ 103.4658, 11.124 ], [ 103.4593, 11.1179 ], [ 103.455, 11.1164 ], [ 103.451, 11.1096 ], [ 103.4481, 11.1075 ], [ 103.4452, 11.1031 ], [ 103.4419, 11.1014 ], [ 103.4423, 11.0986 ], [ 103.4458, 11.0981 ], [ 103.4568, 11.1013 ], [ 103.4633, 11.105 ], [ 103.4663, 11.1052 ], [ 103.4696, 11.1028 ], [ 103.4685, 11.0979 ], [ 103.469, 11.0931 ], [ 103.4666, 11.0876 ], [ 103.4573, 11.0798 ], [ 103.4563, 11.0798 ], [ 103.4502, 11.0735 ], [ 103.4482, 11.0673 ], [ 103.4479, 11.0519 ], [ 103.4471, 11.0505 ], [ 103.4465, 11.0527 ], [ 103.4445, 11.054 ], [ 103.4445, 11.0558 ], [ 103.4416, 11.0565 ], [ 103.4436, 11.057 ], [ 103.4411, 11.0587 ], [ 103.44, 11.0583 ], [ 103.4368, 11.0596 ], [ 103.437, 11.0583 ], [ 103.4362, 11.0581 ], [ 103.4342, 11.0593 ], [ 103.4295, 11.0568 ], [ 103.4239, 11.0589 ], [ 103.4177, 11.0597 ], [ 103.3971, 11.0699 ], [ 103.3895, 11.0749 ], [ 103.3829, 11.0803 ], [ 103.3817, 11.0823 ], [ 103.3391, 11.0967 ], [ 103.2814, 11.1188 ], [ 103.3078, 11.1636 ], [ 103.3041, 11.1684 ], [ 103.3037, 11.1726 ], [ 103.3006, 11.1762 ], [ 103.2998, 11.1805 ], [ 103.2942, 11.1834 ], [ 103.2865, 11.1923 ], [ 103.2827, 11.1935 ], [ 103.2817, 11.1946 ], [ 103.2815, 11.1972 ], [ 103.2833, 11.1986 ], [ 103.2952, 11.2011 ], [ 103.2982, 11.2036 ], [ 103.2994, 11.2067 ], [ 103.3045, 11.2083 ], [ 103.3062, 11.2097 ], [ 103.3097, 11.2137 ], [ 103.3073, 11.2178 ], [ 103.3101, 11.221 ], [ 103.3197, 11.2253 ], [ 103.3354, 11.2297 ], [ 103.3331, 11.2329 ], [ 103.3326, 11.2352 ], [ 103.3346, 11.2387 ], [ 103.3375, 11.2408 ], [ 103.3423, 11.2415 ], [ 103.3483, 11.2401 ], [ 103.3587, 11.2296 ], [ 103.3606, 11.2285 ], [ 103.3624, 11.2286 ], [ 103.3635, 11.2306 ], [ 103.3631, 11.2352 ], [ 103.3588, 11.2409 ], [ 103.3585, 11.2439 ], [ 103.3618, 11.2471 ], [ 103.3729, 11.2521 ], [ 103.3661, 11.2613 ], [ 103.3652, 11.2654 ], [ 103.3663, 11.2677 ], [ 103.3736, 11.2736 ], [ 103.3846, 11.2745 ], [ 103.3884, 11.2756 ], [ 103.391, 11.2797 ], [ 103.393, 11.2876 ], [ 103.3967, 11.2885 ], [ 103.3988, 11.2915 ], [ 103.4056, 11.2944 ], [ 103.4064, 11.2955 ], [ 103.4068, 11.3011 ], [ 103.4123, 11.3088 ], [ 103.413, 11.3114 ], [ 103.4143, 11.3121 ], [ 103.4173, 11.3167 ] ] ] } },
{ "type": "Feature", "properties": { "COMNAME_KH": "កណ្ដោល", "COM_NAME": "Kandaol", "DISNAME_KH": "បុទុមសាគរ", "loss_ha": 4003, "pct": 25.6 }, "geometry": { "type": "Polygon", "coordinates": [ [ [ 103.4564, 11.2662 ], [ 103.4751, 11.2696 ], [ 103.4911, 11.2696 ], [ 103.493, 11.2685 ], [ 103.4964, 11.2726 ], [ 103.5727, 11.2817 ], [ 103.5833, 11.2703 ], [ 103.5886, 11.266 ], [ 103.5934, 11.264 ], [ 103.5995, 11.2596 ], [ 103.6035, 11.2522 ], [ 103.603, 11.2436 ], [ 103.6005, 11.234 ], [ 103.5999, 11.2262 ], [ 103.5959, 11.2211 ], [ 103.5948, 11.2155 ], [ 103.5954, 11.2142 ], [ 103.5933, 11.2122 ], [ 103.5949, 11.2102 ], [ 103.5953, 11.2074 ], [ 103.5964, 11.206 ], [ 103.5959, 11.2055 ], [ 103.5944, 11.207 ], [ 103.594, 11.2057 ], [ 103.5947, 11.2047 ], [ 103.5936, 11.2012 ], [ 103.5929, 11.2011 ], [ 103.5929, 11.1989 ], [ 103.5923, 11.1981 ], [ 103.591, 11.1989 ], [ 103.5907, 11.197 ], [ 103.5913, 11.193 ], [ 103.593, 11.1927 ], [ 103.5929, 11.1912 ], [ 103.5953, 11.1891 ], [ 103.5967, 11.1899 ], [ 103.5979, 11.1856 ], [ 103.6042, 11.1859 ], [ 103.6029, 11.1831 ], [ 103.6004, 11.1827 ], [ 103.5997, 11.1808 ], [ 103.6001, 11.1802 ], [ 103.6045, 11.1818 ], [ 103.6033, 11.1799 ], [ 103.6035, 11.1786 ], [ 103.5988, 11.176 ], [ 103.5962, 11.1758 ], [ 103.5944, 11.1773 ], [ 103.5936, 11.1764 ], [ 103.5949, 11.1736 ], [ 103.5921, 11.1728 ], [ 103.5952, 11.1707 ], [ 103.5933, 11.1667 ], [ 103.5965, 11.1664 ], [ 103.5964, 11.1656 ], [ 103.5922, 11.1644 ], [ 103.5896, 11.1612 ], [ 103.586, 11.1593 ], [ 103.5845, 11.1607 ], [ 103.5841, 11.1639 ], [ 103.5815, 11.1603 ], [ 103.5798, 11.1599 ], [ 103.5771, 11.1634 ], [ 103.578, 11.166 ], [ 103.5761, 11.1673 ], [ 103.5728, 11.1625 ], [ 103.5712, 11.1654 ], [ 103.5693, 11.1661 ], [ 103.5654, 11.1633 ], [ 103.5642, 11.1685 ], [ 103.5649, 11.1696 ], [ 103.5675, 11.1703 ], [ 103.568, 11.1724 ], [ 103.5657, 11.1726 ], [ 103.5594, 11.1697 ], [ 103.5582, 11.1704 ], [ 103.5593, 11.1745 ], [ 103.5582, 11.1753 ], [ 103.5562, 11.1747 ], [ 103.5552, 11.1727 ], [ 103.5531, 11.1716 ], [ 103.5541, 11.1676 ], [ 103.5531, 11.1655 ], [ 103.5521, 11.1676 ], [ 103.5486, 11.1683 ], [ 103.5481, 11.1672 ], [ 103.5457, 11.1666 ], [ 103.5441, 11.1671 ], [ 103.5437, 11.1682 ], [ 103.5309, 11.1691 ], [ 103.5211, 11.1678 ], [ 103.5186, 11.1684 ], [ 103.5157, 11.1678 ], [ 103.5151, 11.1686 ], [ 103.5138, 11.1685 ], [ 103.5053, 11.1662 ], [ 103.4972, 11.1783 ], [ 103.491, 11.1848 ], [ 103.49, 11.1885 ], [ 103.4919, 11.1895 ], [ 103.4933, 11.189 ], [ 103.4948, 11.1905 ], [ 103.4936, 11.194 ], [ 103.4909, 11.1959 ], [ 103.4928, 11.1985 ], [ 103.4895, 11.199 ], [ 103.4882, 11.1969 ], [ 103.4863, 11.1975 ], [ 103.4873, 11.2009 ], [ 103.4865, 11.2017 ], [ 103.4869, 11.2045 ], [ 103.4844, 11.2071 ], [ 103.481, 11.2089 ], [ 103.4785, 11.2085 ], [ 103.4776, 11.2112 ], [ 103.4754, 11.2131 ], [ 103.4564, 11.2662 ] ] ] } },
{ "type": "Feature", "properties": { "COMNAME_KH": "ភ្ញីមាស", "COM_NAME": "Phnhi Meas", "DISNAME_KH": "គិរីសាគរ", "loss_ha": 3327, "pct": 15.4 }, "geometry": { "type": "MultiPolygon", "coordinates": [ [ [ [ 103.1519, 11.1925 ], [ 103.1572, 11.1889 ], [ 103.1598, 11.1917 ], [ 103.1619, 11.1921 ], [ 103.1628, 11.1914 ], [ 103.1633, 11.1875 ], [ 103.1644, 11.1867 ], [ 103.1706, 11.1898 ], [ 103.1771, 11.1889 ], [ 103.1783, 11.1918 ], [ 103.1799, 11.1885 ], [ 103.1848, 11.1874 ], [ 103.1838, 11.1862 ], [ 103.1832, 11.1801 ], [ 103.1816, 11.1754 ], [ 103.1818, 11.1744 ], [ 103.1831, 11.1741 ], [ 103.1835, 11.1714 ], [ 103.1832, 11.1705 ], [ 103.1815, 11.1704 ], [ 103.1817, 11.1688 ], [ 103.1853, 11.1646 ], [ 103.188, 11.1573 ], [ 103.1906, 11.1547 ], [ 103.1954, 11.1504 ], [ 103.2464, 11.1253 ], [ 103.2778, 11.1122 ], [ 103.2779, 11.101 ], [ 103.2753, 11.0959 ], [ 103.2636, 11.0847 ], [ 103.2605, 11.0662 ], [ 103.2555, 11.0595 ], [ 103.2495, 11.0563 ], [ 103.2445, 11.0551 ], [ 103.2397, 11.0553 ], [ 103.2353, 11.0566 ], [ 103.2275, 11.056 ], [ 103.2185, 11.0579 ], [ 103.2029, 11.0539 ], [ 103.1985, 11.0513 ], [ 103.1814, 11.0449 ], [ 103.1653, 11.0374 ], [ 103.158, 11.0323 ], [ 103.1549, 11.0268 ], [ 103.1502, 11.0261 ], [ 103.148, 11.0247 ], [ 103.1474, 11.0233 ], [ 103.1432, 11.0226 ], [ 103.142, 11.0198 ], [ 103.1397, 11.0175 ], [ 103.1398, 11.0188 ], [ 103.1362, 11.0187 ], [ 103.1354, 11.0199 ], [ 103.1329, 11.0179 ], [ 103.1343, 11.0162 ], [ 103.1338, 11.0154 ], [ 103.1325, 11.0172 ], [ 103.1277, 11.0147 ], [ 103.1278, 11.0172 ], [ 103.1251, 11.0168 ], [ 103.1244, 11.016 ], [ 103.1266, 11.0147 ], [ 103.1258, 11.0131 ], [ 103.1238, 11.0139 ], [ 103.1228, 11.0186 ], [ 103.1204, 11.0176 ], [ 103.1201, 11.0206 ], [ 103.1186, 11.0234 ], [ 103.1146, 11.0233 ], [ 103.1124, 11.0195 ], [ 103.1068, 11.021 ], [ 103.1005, 11.0469 ], [ 103.0991, 11.0511 ], [ 103.0962, 11.0541 ], [ 103.0971, 11.0577 ], [ 103.0965, 11.0756 ], [ 103.0951, 11.0773 ], [ 103.0929, 11.0766 ], [ 103.0881, 11.0791 ], [ 103.0925, 11.0816 ], [ 103.0926, 11.0835 ], [ 103.0942, 11.0843 ], [ 103.0979, 11.0805 ], [ 103.097, 11.0784 ], [ 103.1001, 11.0766 ], [ 103.1052, 11.0791 ], [ 103.1084, 11.0829 ], [ 103.1103, 11.0864 ], [ 103.1104, 11.0909 ], [ 103.1111, 11.0917 ], [ 103.1107, 11.0953 ], [ 103.1134, 11.0976 ], [ 103.1178, 11.0993 ], [ 103.1143, 11.1297 ], [ 103.1106, 11.147 ], [ 103.1113, 11.1479 ], [ 103.1176, 11.147 ], [ 103.1212, 11.1453 ], [ 103.123, 11.1418 ], [ 103.1237, 11.1372 ], [ 103.126, 11.1341 ], [ 103.1292, 11.1337 ], [ 103.1319, 11.1357 ], [ 103.1317, 11.145 ], [ 103.1332, 11.1492 ], [ 103.1302, 11.1532 ], [ 103.1361, 11.1566 ], [ 103.1366, 11.1594 ], [ 103.1403, 11.1612 ], [ 103.1403, 11.1626 ], [ 103.1386, 11.1635 ], [ 103.1393, 11.1676 ], [ 103.1356, 11.1702 ], [ 103.1347, 11.1717 ], [ 103.135, 11.1733 ], [ 103.136, 11.1743 ], [ 103.1385, 11.1741 ], [ 103.1395, 11.1751 ], [ 103.1407, 11.1802 ], [ 103.1394, 11.1813 ], [ 103.1415, 11.1856 ], [ 103.1445, 11.187 ], [ 103.1469, 11.191 ], [ 103.1519, 11.1925 ] ] ], [ [ [ 103.0827, 11.0604 ], [ 103.0786, 11.0599 ], [ 103.0779, 11.061 ], [ 103.0846, 11.0656 ], [ 103.0827, 11.0604 ] ] ], [ [ [ 103.0921, 11.0522 ], [ 103.0888, 11.0506 ], [ 103.0867, 11.0523 ], [ 103.0879, 11.0537 ], [ 103.0897, 11.0539 ], [ 103.0921, 11.0522 ] ] ], [ [ [ 103.0717, 11.0588 ], [ 103.0706, 11.0593 ], [ 103.0701, 11.0621 ], [ 103.0713, 11.063 ], [ 103.0735, 11.0609 ], [ 103.0717, 11.0588 ] ] ] ] } },
{ "type": "Feature", "properties": { "COMNAME_KH": "ជី ខ ក្រោម", "COM_NAME": "Chi Kha Kraom", "DISNAME_KH": "ស្រែ អំបិល", "loss_ha": 2220, "pct": 31.0 }, "geometry": { "type": "Polygon", "coordinates": [ [ [ 103.5523, 11.1632 ], [ 103.5541, 11.1676 ], [ 103.5531, 11.1716 ], [ 103.5552, 11.1727 ], [ 103.5562, 11.1747 ], [ 103.5582, 11.1753 ], [ 103.5593, 11.1745 ], [ 103.5582, 11.1704 ], [ 103.5594, 11.1697 ], [ 103.5657, 11.1726 ], [ 103.568, 11.1724 ], [ 103.5675, 11.1703 ], [ 103.5649, 11.1696 ], [ 103.5642, 11.1685 ], [ 103.5654, 11.1633 ], [ 103.5693, 11.1661 ], [ 103.5712, 11.1654 ], [ 103.5728, 11.1625 ], [ 103.5761, 11.1673 ], [ 103.578, 11.166 ], [ 103.5771, 11.1634 ], [ 103.5798, 11.1599 ], [ 103.5815, 11.1603 ], [ 103.5841, 11.1639 ], [ 103.5845, 11.1607 ], [ 103.586, 11.1593 ], [ 103.5896, 11.1612 ], [ 103.5922, 11.1644 ], [ 103.5964, 11.1656 ], [ 103.5965, 11.1664 ], [ 103.5933, 11.1667 ], [ 103.5952, 11.1707 ], [ 103.5921, 11.1722 ], [ 103.5921, 11.1728 ], [ 103.5949, 11.1736 ], [ 103.5936, 11.1764 ], [ 103.5944, 11.1773 ], [ 103.5962, 11.1758 ], [ 103.5988, 11.176 ], [ 103.6035, 11.1786 ], [ 103.6159, 11.1734 ], [ 103.6211, 11.1728 ], [ 103.6266, 11.1734 ], [ 103.6512, 11.1394 ], [ 103.6513, 11.1368 ], [ 103.649, 11.1363 ], [ 103.6481, 11.135 ], [ 103.6488, 11.1312 ], [ 103.6441, 11.1262 ], [ 103.6459, 11.1255 ], [ 103.6458, 11.1239 ], [ 103.6448, 11.1237 ], [ 103.6441, 11.1216 ], [ 103.6425, 11.1221 ], [ 103.6401, 11.1144 ], [ 103.6414, 11.1122 ], [ 103.6421, 11.1122 ], [ 103.6422, 11.1102 ], [ 103.643, 11.1103 ], [ 103.6444, 11.1086 ], [ 103.643, 11.1022 ], [ 103.6447, 11.1015 ], [ 103.6454, 11.1001 ], [ 103.6437, 11.0979 ], [ 103.6484, 11.097 ], [ 103.6487, 11.0953 ], [ 103.6505, 11.0958 ], [ 103.6506, 11.0947 ], [ 103.6523, 11.0944 ], [ 103.6582, 11.0889 ], [ 103.6606, 11.0862 ], [ 103.6602, 11.08 ], [ 103.6569, 11.0803 ], [ 103.6555, 11.0782 ], [ 103.6533, 11.0781 ], [ 103.6424, 11.0841 ], [ 103.6263, 11.089 ], [ 103.6203, 11.0887 ], [ 103.6155, 11.0872 ], [ 103.6135, 11.0851 ], [ 103.5999, 11.0913 ], [ 103.5918, 11.0937 ], [ 103.5915, 11.0991 ], [ 103.5895, 11.1035 ], [ 103.5795, 11.1162 ], [ 103.5783, 11.1207 ], [ 103.5733, 11.1288 ], [ 103.5708, 11.1361 ], [ 103.5664, 11.1427 ], [ 103.5636, 11.1453 ], [ 103.5628, 11.1482 ], [ 103.559, 11.1519 ], [ 103.5571, 11.1552 ], [ 103.5546, 11.1567 ], [ 103.5534, 11.1599 ], [ 103.5538, 11.1609 ], [ 103.5523, 11.1632 ] ] ] } },
{ "type": "Feature", "properties": { "COMNAME_KH": "បឹងព្រាវ", "COM_NAME": "Boeng Preav", "DISNAME_KH": "ស្រែ អំបិល", "loss_ha": 1845, "pct": 20.5 }, "geometry": { "type": "Polygon", "coordinates": [ [ [ 103.7959, 10.9422 ], [ 103.7959, 10.9388 ], [ 103.793, 10.9377 ], [ 103.7892, 10.9376 ], [ 103.7891, 10.9352 ], [ 103.7868, 10.9365 ], [ 103.785, 10.9359 ], [ 103.785, 10.9348 ], [ 103.7819, 10.9355 ], [ 103.7818, 10.9343 ], [ 103.7801, 10.9365 ], [ 103.7785, 10.9345 ], [ 103.7769, 10.9346 ], [ 103.7757, 10.9333 ], [ 103.7738, 10.933 ], [ 103.774, 10.9318 ], [ 103.7729, 10.9307 ], [ 103.7708, 10.9314 ], [ 103.7701, 10.9306 ], [ 103.7687, 10.9312 ], [ 103.768, 10.9306 ], [ 103.7571, 10.9409 ], [ 103.7544, 10.947 ], [ 103.7536, 10.9511 ], [ 103.7542, 10.96 ], [ 103.7628, 10.9815 ], [ 103.7656, 10.9859 ], [ 103.7586, 11.002 ], [ 103.7609, 11.0077 ], [ 103.7598, 11.0125 ], [ 103.7606, 11.0131 ], [ 103.7592, 11.016 ], [ 103.7586, 11.0217 ], [ 103.7626, 11.0266 ], [ 103.7689, 11.0615 ], [ 103.7688, 11.0635 ], [ 103.7626, 11.0776 ], [ 103.7517, 11.0824 ], [ 103.7542, 11.0877 ], [ 103.7525, 11.0885 ], [ 103.7524, 11.0894 ], [ 103.7584, 11.0931 ], [ 103.7633, 11.1022 ], [ 103.7634, 11.1036 ], [ 103.7596, 11.1063 ], [ 103.7637, 11.1099 ], [ 103.7643, 11.1116 ], [ 103.7613, 11.1273 ], [ 103.7655, 11.1328 ], [ 103.7727, 11.1378 ], [ 103.7772, 11.1395 ], [ 103.7792, 11.1395 ], [ 103.7815, 11.1379 ], [ 103.7859, 11.1268 ], [ 103.7933, 11.1289 ], [ 103.7981, 11.1274 ], [ 103.8013, 11.1232 ], [ 103.8008, 11.1204 ], [ 103.798, 11.1173 ], [ 103.7983, 11.1158 ], [ 103.8041, 11.1142 ], [ 103.8106, 11.1109 ], [ 103.8107, 11.109 ], [ 103.807, 11.1066 ], [ 103.8063, 11.103 ], [ 103.8126, 11.0939 ], [ 103.8127, 11.0792 ], [ 103.8114, 11.0766 ], [ 103.8116, 11.075 ], [ 103.8141, 11.0693 ], [ 103.814, 11.0614 ], [ 103.8163, 11.0558 ], [ 103.818, 11.0555 ], [ 103.8055, 11.0486 ], [ 103.8027, 11.0477 ], [ 103.7977, 11.0477 ], [ 103.7954, 11.0465 ], [ 103.7944, 11.0434 ], [ 103.7916, 11.0407 ], [ 103.7856, 11.0247 ], [ 103.7879, 11.0041 ], [ 103.792, 10.994 ], [ 103.7936, 10.9803 ], [ 103.7914, 10.972 ], [ 103.792, 10.9608 ], [ 103.7906, 10.9568 ], [ 103.7908, 10.954 ], [ 103.7959, 10.9422 ] ] ] } },
{ "type": "Feature", "properties": { "COMNAME_KH": "ស្រែអំបិល", "COM_NAME": "Srae Ambel", "DISNAME_KH": "ស្រែ អំបិល", "loss_ha": 524, "pct": 9.3 }, "geometry": { "type": "Polygon", "coordinates": [ [ [ 103.7613, 11.1273 ], [ 103.7643, 11.1116 ], [ 103.7637, 11.1099 ], [ 103.7596, 11.1063 ], [ 103.7634, 11.1036 ], [ 103.7633, 11.1022 ], [ 103.7584, 11.0931 ], [ 103.7524, 11.0894 ], [ 103.7525, 11.0885 ], [ 103.7542, 11.0877 ], [ 103.7517, 11.0824 ], [ 103.7626, 11.0776 ], [ 103.7662, 11.0685 ], [ 103.763, 11.0664 ], [ 103.7512, 11.0634 ], [ 103.7489, 11.0671 ], [ 103.7463, 11.0669 ], [ 103.7433, 11.0684 ], [ 103.7447, 11.0704 ], [ 103.7442, 11.0709 ], [ 103.7426, 11.0703 ], [ 103.7399, 11.0735 ], [ 103.7384, 11.0736 ], [ 103.7389, 11.0688 ], [ 103.7369, 11.0688 ], [ 103.7354, 11.0704 ], [ 103.7341, 11.07 ], [ 103.7331, 11.069 ], [ 103.7329, 11.0665 ], [ 103.7292, 11.0687 ], [ 103.7282, 11.0658 ], [ 103.7289, 11.0639 ], [ 103.7245, 11.0627 ], [ 103.7233, 11.0637 ], [ 103.725, 11.0659 ], [ 103.7248, 11.0673 ], [ 103.723, 11.0706 ], [ 103.7218, 11.0712 ], [ 103.7205, 11.0706 ], [ 103.7177, 11.0683 ], [ 103.7173, 11.0662 ], [ 103.7162, 11.066 ], [ 103.7139, 11.0678 ], [ 103.7158, 11.0695 ], [ 103.716, 11.0707 ], [ 103.7102, 11.0729 ], [ 103.7093, 11.0724 ], [ 103.7089, 11.0692 ], [ 103.7049, 11.0652 ], [ 103.7014, 11.0665 ], [ 103.6984, 11.0658 ], [ 103.694, 11.068 ], [ 103.6726, 11.0618 ], [ 103.6691, 11.0616 ], [ 103.6719, 11.0863 ], [ 103.6815, 11.0987 ], [ 103.6831, 11.1073 ], [ 103.6842, 11.1104 ], [ 103.6868, 11.1135 ], [ 103.6961, 11.1195 ], [ 103.7075, 11.1225 ], [ 103.7259, 11.1227 ], [ 103.7312, 11.1239 ], [ 103.7338, 11.1258 ], [ 103.7334, 11.1234 ], [ 103.7348, 11.1226 ], [ 103.7418, 11.1251 ], [ 103.747, 11.1291 ], [ 103.7613, 11.1273 ] ] ] } },
{ "type": "Feature", "properties": { "COMNAME_KH": "តានូន", "COM_NAME": "Ta Noun", "DISNAME_KH": "បុទុមសាគរ", "loss_ha": 7331, "pct": 27.4 }, "geometry": { "type": "MultiPolygon", "coordinates": [ [ [ [ 103.3391, 11.0967 ], [ 103.3394, 11.0386 ], [ 103.3376, 11.0371 ], [ 103.3379, 11.0335 ], [ 103.331, 11.0363 ], [ 103.3301, 11.036 ], [ 103.3303, 11.0336 ], [ 103.3288, 11.0303 ], [ 103.331, 11.0286 ], [ 103.3312, 11.0262 ], [ 103.3335, 11.0261 ], [ 103.3335, 11.0248 ], [ 103.3314, 11.0248 ], [ 103.3301, 11.023 ], [ 103.3246, 11.0253 ], [ 103.3215, 11.0222 ], [ 103.3186, 11.0234 ], [ 103.3152, 11.0229 ], [ 103.314, 11.0222 ], [ 103.313, 11.0183 ], [ 103.3153, 11.0178 ], [ 103.3144, 11.016 ], [ 103.3158, 11.0154 ], [ 103.3167, 11.0162 ], [ 103.317, 11.0154 ], [ 103.3154, 11.0137 ], [ 103.3137, 11.0142 ], [ 103.3145, 11.012 ], [ 103.3121, 11.0123 ], [ 103.3126, 10.9158 ], [ 103.3098, 10.9149 ], [ 103.3098, 10.9129 ], [ 103.3083, 10.9129 ], [ 103.3035, 10.9143 ], [ 103.3019, 10.9168 ], [ 103.3012, 10.9156 ], [ 103.2962, 10.9149 ], [ 103.2874, 10.9162 ], [ 103.2865, 10.9168 ], [ 103.2866, 10.9192 ], [ 103.2881, 10.9198 ], [ 103.2883, 10.9224 ], [ 103.2873, 10.9221 ], [ 103.2827, 10.9245 ], [ 103.2793, 10.9238 ], [ 103.2781, 10.9223 ], [ 103.2742, 10.9217 ], [ 103.2723, 10.922 ], [ 103.2717, 10.923 ], [ 103.267, 10.9237 ], [ 103.2642, 10.9226 ], [ 103.261, 10.9236 ], [ 103.2547, 10.9226 ], [ 103.2482, 10.919 ], [ 103.2439, 10.9187 ], [ 103.242, 10.9157 ], [ 103.24, 10.9094 ], [ 103.2371, 10.9087 ], [ 103.2356, 10.9092 ], [ 103.2296, 10.9055 ], [ 103.2276, 10.9002 ], [ 103.2284, 10.8975 ], [ 103.2268, 10.8958 ], [ 103.2231, 10.8939 ], [ 103.217, 10.8947 ], [ 103.2161, 10.8939 ], [ 103.2172, 10.8921 ], [ 103.2122, 10.8887 ], [ 103.2117, 10.8851 ], [ 103.2102, 10.8839 ], [ 103.2107, 10.8832 ], [ 103.2126, 10.8834 ], [ 103.2124, 10.8806 ], [ 103.2055, 10.8793 ], [ 103.1835, 10.8703 ], [ 103.1826, 10.871 ], [ 103.1837, 10.8718 ], [ 103.1847, 10.8745 ], [ 103.1804, 10.8803 ], [ 103.1747, 10.8806 ], [ 103.1721, 10.8831 ], [ 103.1725, 10.8848 ], [ 103.1683, 10.8842 ], [ 103.1685, 10.8862 ], [ 103.1659, 10.886 ], [ 103.1651, 10.8882 ], [ 103.1676, 10.8877 ], [ 103.1693, 10.8896 ], [ 103.1677, 10.8913 ], [ 103.1664, 10.8918 ], [ 103.1633, 10.8893 ], [ 103.1626, 10.8905 ], [ 103.1636, 10.8941 ], [ 103.1622, 10.8951 ], [ 103.1604, 10.8945 ], [ 103.1562, 10.9019 ], [ 103.1567, 10.9126 ], [ 103.1579, 10.916 ], [ 103.1631, 10.923 ], [ 103.1713, 10.9285 ], [ 103.1811, 10.9325 ], [ 103.1826, 10.9342 ], [ 103.1827, 10.9351 ], [ 103.1788, 10.9397 ], [ 103.1775, 10.9427 ], [ 103.1749, 10.9597 ], [ 103.1753, 10.9615 ], [ 103.1821, 10.9619 ], [ 103.203, 10.9721 ], [ 103.2096, 10.9724 ], [ 103.2133, 10.9734 ], [ 103.221, 10.9805 ], [ 103.2213, 10.9815 ], [ 103.2198, 10.9836 ], [ 103.2203, 10.9841 ], [ 103.2227, 10.9828 ], [ 103.2236, 10.9843 ], [ 103.2272, 10.9856 ], [ 103.2363, 10.9867 ], [ 103.2385, 10.9891 ], [ 103.2394, 10.993 ], [ 103.238, 10.9973 ], [ 103.2338, 11.0028 ], [ 103.2291, 11.004 ], [ 103.2248, 11.0086 ], [ 103.2248, 11.0204 ], [ 103.2209, 11.0248 ], [ 103.2179, 11.033 ], [ 103.2185, 11.0579 ], [ 103.2275, 11.056 ], [ 103.2353, 11.0566 ], [ 103.2397, 11.0553 ], [ 103.2445, 11.0551 ], [ 103.2495, 11.0563 ], [ 103.2571, 11.0607 ], [ 103.2605, 11.0662 ], [ 103.2636, 11.0847 ], [ 103.2718, 11.0922 ], [ 103.2774, 11.0991 ], [ 103.2778, 11.1122 ], [ 103.2814, 11.1188 ], [ 103.3391, 11.0967 ] ] ], [ [ [ 103.1852, 10.8341 ], [ 103.188, 10.8336 ], [ 103.1891, 10.8325 ], [ 103.1887, 10.8308 ], [ 103.1901, 10.827 ], [ 103.1925, 10.8272 ], [ 103.1945, 10.8259 ], [ 103.1967, 10.8259 ], [ 103.1972, 10.8232 ], [ 103.1963, 10.8211 ], [ 103.1911, 10.8202 ], [ 103.189, 10.8186 ], [ 103.1806, 10.8187 ], [ 103.1766, 10.8168 ], [ 103.1736, 10.8185 ], [ 103.1711, 10.8213 ], [ 103.1658, 10.8311 ], [ 103.1673, 10.8325 ], [ 103.1678, 10.8309 ], [ 103.1684, 10.8318 ], [ 103.1697, 10.8301 ], [ 103.1733, 10.8299 ], [ 103.1763, 10.8325 ], [ 103.1801, 10.8331 ], [ 103.1833, 10.8369 ], [ 103.1842, 10.8368 ], [ 103.1852, 10.8341 ] ] ], [ [ [ 103.2009, 10.8066 ], [ 103.2032, 10.8066 ], [ 103.2069, 10.805 ], [ 103.2014, 10.8039 ], [ 103.1943, 10.8006 ], [ 103.1922, 10.8017 ], [ 103.1921, 10.8048 ], [ 103.193, 10.8053 ], [ 103.1944, 10.8053 ], [ 103.1988, 10.8078 ], [ 103.2009, 10.8066 ] ] ], [ [ [ 103.1735, 10.8365 ], [ 103.1715, 10.8362 ], [ 103.1712, 10.8379 ], [ 103.1747, 10.8414 ], [ 103.1756, 10.8403 ], [ 103.1735, 10.8365 ] ] ], [ [ [ 103.1564, 10.849 ], [ 103.153, 10.8498 ], [ 103.1529, 10.8515 ], [ 103.1547, 10.8504 ], [ 103.1564, 10.849 ] ] ], [ [ [ 103.2146, 10.8812 ], [ 103.2176, 10.8811 ], [ 103.2161, 10.8807 ], [ 103.2146, 10.8812 ] ] ], [ [ [ 103.2201, 10.8822 ], [ 103.2202, 10.8814 ], [ 103.2196, 10.8817 ], [ 103.2201, 10.8822 ] ] ] ] } },
{ "type": "Feature", "properties": { "COMNAME_KH": "ថ្មស", "COM_NAME": "Thma Sa", "DISNAME_KH": "បុទុមសាគរ", "loss_ha": 8027, "pct": 33.1 }, "geometry": { "type": "Polygon", "coordinates": [ [ [ 103.3391, 11.0967 ], [ 103.3817, 11.0823 ], [ 103.3829, 11.0803 ], [ 103.3895, 11.0749 ], [ 103.3971, 11.0699 ], [ 103.4177, 11.0597 ], [ 103.4239, 11.0589 ], [ 103.4295, 11.0568 ], [ 103.4342, 11.0593 ], [ 103.4362, 11.0581 ], [ 103.437, 11.0583 ], [ 103.4368, 11.0596 ], [ 103.44, 11.0583 ], [ 103.4411, 11.0587 ], [ 103.4436, 11.057 ], [ 103.4416, 11.0565 ], [ 103.4445, 11.0558 ], [ 103.4445, 11.054 ], [ 103.4465, 11.0527 ], [ 103.4474, 11.0484 ], [ 103.4464, 11.0435 ], [ 103.4397, 11.0347 ], [ 103.4399, 11.0331 ], [ 103.4386, 11.0319 ], [ 103.4394, 11.0318 ], [ 103.4394, 11.0292 ], [ 103.437, 11.027 ], [ 103.4339, 11.0187 ], [ 103.4274, 11.0065 ], [ 103.426, 11.0059 ], [ 103.4267, 11.0004 ], [ 103.4238, 10.9919 ], [ 103.4227, 10.985 ], [ 103.4145, 10.9725 ], [ 103.41, 10.9577 ], [ 103.4111, 10.9491 ], [ 103.4139, 10.9402 ], [ 103.414, 10.939 ], [ 103.413, 10.9384 ], [ 103.4151, 10.9368 ], [ 103.4207, 10.928 ], [ 103.421, 10.9226 ], [ 103.4201, 10.9198 ], [ 103.4196, 10.9104 ], [ 103.4212, 10.9065 ], [ 103.421, 10.9042 ], [ 103.4252, 10.8957 ], [ 103.425, 10.8925 ], [ 103.4218, 10.892 ], [ 103.4211, 10.8929 ], [ 103.4193, 10.8928 ], [ 103.4181, 10.8949 ], [ 103.4177, 10.8936 ], [ 103.411, 10.8936 ], [ 103.4079, 10.8926 ], [ 103.404, 10.8884 ], [ 103.4033, 10.8851 ], [ 103.3939, 10.8804 ], [ 103.3902, 10.8799 ], [ 103.3871, 10.8759 ], [ 103.3835, 10.8758 ], [ 103.3826, 10.8788 ], [ 103.3788, 10.88 ], [ 103.3783, 10.8814 ], [ 103.3745, 10.8818 ], [ 103.3676, 10.8805 ], [ 103.3665, 10.88 ], [ 103.3661, 10.8781 ], [ 103.3584, 10.874 ], [ 103.3546, 10.8692 ], [ 103.3546, 10.8652 ], [ 103.3509, 10.8662 ], [ 103.3501, 10.8676 ], [ 103.3502, 10.8707 ], [ 103.3518, 10.8732 ], [ 103.3494, 10.8777 ], [ 103.3495, 10.8801 ], [ 103.3504, 10.8811 ], [ 103.3481, 10.8864 ], [ 103.3463, 10.8875 ], [ 103.3397, 10.896 ], [ 103.3355, 10.8997 ], [ 103.326, 10.905 ], [ 103.3248, 10.9052 ], [ 103.3222, 10.9029 ], [ 103.3199, 10.9052 ], [ 103.3204, 10.9077 ], [ 103.3196, 10.9079 ], [ 103.3186, 10.9066 ], [ 103.3127, 10.9088 ], [ 103.3114, 10.9107 ], [ 103.3113, 10.9149 ], [ 103.3126, 10.9158 ], [ 103.3121, 11.0123 ], [ 103.3145, 11.012 ], [ 103.3137, 11.0142 ], [ 103.3154, 11.0137 ], [ 103.317, 11.0154 ], [ 103.3167, 11.0162 ], [ 103.3158, 11.0154 ], [ 103.3144, 11.016 ], [ 103.3153, 11.0178 ], [ 103.313, 11.0183 ], [ 103.314, 11.0222 ], [ 103.3152, 11.0229 ], [ 103.3186, 11.0234 ], [ 103.3215, 11.0222 ], [ 103.3246, 11.0253 ], [ 103.3301, 11.023 ], [ 103.3314, 11.0248 ], [ 103.3335, 11.0248 ], [ 103.3335, 11.0261 ], [ 103.3312, 11.0262 ], [ 103.331, 11.0286 ], [ 103.3288, 11.0303 ], [ 103.3303, 11.0336 ], [ 103.3301, 11.036 ], [ 103.331, 11.0363 ], [ 103.3379, 11.0335 ], [ 103.3376, 11.0371 ], [ 103.3394, 11.0386 ], [ 103.3391, 11.0967 ] ] ] } },
{ "type": "Feature", "properties": { "COMNAME_KH": "ជ្រោយស្វាយ", "COM_NAME": "Chrouy Svay", "DISNAME_KH": "ស្រែ អំបិល", "loss_ha": 9597, "pct": 56.7 }, "geometry": { "type": "Polygon", "coordinates": [ [ [ 103.768, 10.9306 ], [ 103.7646, 10.9286 ], [ 103.7669, 10.9275 ], [ 103.7665, 10.9262 ], [ 103.7652, 10.9265 ], [ 103.765, 10.9252 ], [ 103.7635, 10.9241 ], [ 103.7611, 10.9243 ], [ 103.7608, 10.9232 ], [ 103.7589, 10.9228 ], [ 103.7582, 10.9218 ], [ 103.7563, 10.9226 ], [ 103.7556, 10.9204 ], [ 103.7545, 10.9216 ], [ 103.7538, 10.9199 ], [ 103.7518, 10.9206 ], [ 103.7511, 10.9179 ], [ 103.7501, 10.9171 ], [ 103.7527, 10.9174 ], [ 103.7529, 10.9155 ], [ 103.7543, 10.9148 ], [ 103.7521, 10.9137 ], [ 103.7519, 10.9126 ], [ 103.7486, 10.9156 ], [ 103.7483, 10.9132 ], [ 103.7467, 10.9126 ], [ 103.7447, 10.9093 ], [ 103.7458, 10.9063 ], [ 103.7366, 10.9016 ], [ 103.7365, 10.8997 ], [ 103.7395, 10.8973 ], [ 103.7384, 10.8958 ], [ 103.7341, 10.8995 ], [ 103.7315, 10.9047 ], [ 103.7276, 10.904 ], [ 103.727, 10.9015 ], [ 103.7277, 10.8967 ], [ 103.7252, 10.8951 ], [ 103.7182, 10.8957 ], [ 103.7168, 10.8996 ], [ 103.7123, 10.9023 ], [ 103.7121, 10.906 ], [ 103.7144, 10.9082 ], [ 103.7141, 10.9096 ], [ 103.713, 10.9096 ], [ 103.7097, 10.9064 ], [ 103.7059, 10.9057 ], [ 103.7, 10.9234 ], [ 103.6933, 10.9388 ], [ 103.6903, 10.9426 ], [ 103.6912, 10.9437 ], [ 103.6874, 10.947 ], [ 103.6852, 10.9508 ], [ 103.6856, 10.9553 ], [ 103.6836, 10.9604 ], [ 103.6727, 10.9781 ], [ 103.6578, 10.9978 ], [ 103.6615, 10.9992 ], [ 103.6634, 11.0013 ], [ 103.6649, 11.0074 ], [ 103.6606, 11.0164 ], [ 103.6622, 11.0181 ], [ 103.6628, 11.0211 ], [ 103.6646, 11.0226 ], [ 103.6627, 11.0248 ], [ 103.6628, 11.0297 ], [ 103.6621, 11.0315 ], [ 103.66, 11.0322 ], [ 103.6572, 11.0377 ], [ 103.6532, 11.0418 ], [ 103.6512, 11.0455 ], [ 103.6509, 11.0478 ], [ 103.6488, 11.0479 ], [ 103.6478, 11.0491 ], [ 103.6482, 11.0527 ], [ 103.6602, 11.0593 ], [ 103.6606, 11.0614 ], [ 103.6726, 11.0618 ], [ 103.694, 11.068 ], [ 103.6984, 11.0658 ], [ 103.7014, 11.0665 ], [ 103.7049, 11.0652 ], [ 103.7089, 11.0692 ], [ 103.7093, 11.0724 ], [ 103.7102, 11.0729 ], [ 103.716, 11.0707 ], [ 103.7158, 11.0695 ], [ 103.7139, 11.0678 ], [ 103.7162, 11.066 ], [ 103.7173, 11.0662 ], [ 103.7177, 11.0683 ], [ 103.7205, 11.0706 ], [ 103.7218, 11.0712 ], [ 103.723, 11.0706 ], [ 103.7248, 11.0673 ], [ 103.725, 11.0659 ], [ 103.7233, 11.0637 ], [ 103.7245, 11.0627 ], [ 103.7289, 11.0639 ], [ 103.7282, 11.0658 ], [ 103.7292, 11.0687 ], [ 103.7329, 11.0665 ], [ 103.7331, 11.069 ], [ 103.7341, 11.07 ], [ 103.7354, 11.0704 ], [ 103.7369, 11.0688 ], [ 103.7389, 11.0688 ], [ 103.7384, 11.0736 ], [ 103.7399, 11.0735 ], [ 103.7426, 11.0703 ], [ 103.7442, 11.0709 ], [ 103.7447, 11.0704 ], [ 103.7433, 11.0684 ], [ 103.7463, 11.0669 ], [ 103.7489, 11.0671 ], [ 103.7512, 11.0634 ], [ 103.763, 11.0664 ], [ 103.7662, 11.0685 ], [ 103.7688, 11.0635 ], [ 103.7687, 11.0596 ], [ 103.7626, 11.0266 ], [ 103.7586, 11.0217 ], [ 103.7592, 11.016 ], [ 103.7606, 11.0131 ], [ 103.7598, 11.0125 ], [ 103.7609, 11.0077 ], [ 103.7586, 11.002 ], [ 103.7656, 10.9859 ], [ 103.7628, 10.9815 ], [ 103.7542, 10.96 ], [ 103.7536, 10.9511 ], [ 103.7544, 10.947 ], [ 103.7571, 10.9409 ], [ 103.768, 10.9306 ] ] ] } },
{ "type": "Feature", "properties": { "COMNAME_KH": "កោះស្ដេច", "COM_NAME": "Kaoh Sdach", "DISNAME_KH": "គិរីសាគរ", "loss_ha": 6465, "pct": 37.2 }, "geometry": { "type": "MultiPolygon", "coordinates": [ [ [ [ 103.2178, 11.0344 ], [ 103.2209, 11.0248 ], [ 103.2248, 11.0204 ], [ 103.2248, 11.0086 ], [ 103.2291, 11.004 ], [ 103.2338, 11.0028 ], [ 103.238, 10.9973 ], [ 103.2394, 10.993 ], [ 103.2385, 10.9891 ], [ 103.2363, 10.9867 ], [ 103.2272, 10.9856 ], [ 103.2236, 10.9843 ], [ 103.2227, 10.9828 ], [ 103.2203, 10.9841 ], [ 103.2198, 10.9836 ], [ 103.2213, 10.9815 ], [ 103.221, 10.9805 ], [ 103.2133, 10.9734 ], [ 103.2096, 10.9724 ], [ 103.203, 10.9721 ], [ 103.1821, 10.9619 ], [ 103.1753, 10.9615 ], [ 103.1749, 10.9597 ], [ 103.1775, 10.9427 ], [ 103.1788, 10.9397 ], [ 103.1827, 10.9351 ], [ 103.1826, 10.9342 ], [ 103.1811, 10.9325 ], [ 103.1713, 10.9285 ], [ 103.1631, 10.923 ], [ 103.1579, 10.916 ], [ 103.1567, 10.9126 ], [ 103.1561, 10.9064 ], [ 103.1569, 10.8998 ], [ 103.1604, 10.8945 ], [ 103.1622, 10.8951 ], [ 103.1636, 10.8941 ], [ 103.1626, 10.8905 ], [ 103.1633, 10.8893 ], [ 103.1664, 10.8918 ], [ 103.1693, 10.8902 ], [ 103.1688, 10.8883 ], [ 103.1676, 10.8877 ], [ 103.1651, 10.8882 ], [ 103.1652, 10.8866 ], [ 103.1659, 10.886 ], [ 103.1685, 10.8862 ], [ 103.1683, 10.8842 ], [ 103.1725, 10.8848 ], [ 103.1721, 10.8831 ], [ 103.1747, 10.8806 ], [ 103.1804, 10.8803 ], [ 103.1847, 10.8745 ], [ 103.1837, 10.8718 ], [ 103.1828, 10.8722 ], [ 103.1818, 10.8711 ], [ 103.1818, 10.8684 ], [ 103.179, 10.8632 ], [ 103.1792, 10.8607 ], [ 103.1818, 10.8583 ], [ 103.1819, 10.8572 ], [ 103.1781, 10.8589 ], [ 103.1741, 10.8585 ], [ 103.1714, 10.8608 ], [ 103.1679, 10.8659 ], [ 103.1654, 10.8671 ], [ 103.1632, 10.8699 ], [ 103.1554, 10.8739 ], [ 103.1512, 10.8744 ], [ 103.147, 10.8728 ], [ 103.1455, 10.8701 ], [ 103.1464, 10.8694 ], [ 103.1468, 10.8655 ], [ 103.1458, 10.8637 ], [ 103.1422, 10.8621 ], [ 103.134, 10.8649 ], [ 103.1232, 10.8701 ], [ 103.1223, 10.8709 ], [ 103.1232, 10.8721 ], [ 103.1207, 10.874 ], [ 103.1196, 10.8764 ], [ 103.1218, 10.875 ], [ 103.1245, 10.8756 ], [ 103.1275, 10.8737 ], [ 103.1302, 10.8765 ], [ 103.1315, 10.8793 ], [ 103.1319, 10.8863 ], [ 103.1298, 10.895 ], [ 103.1235, 10.9025 ], [ 103.1136, 10.9104 ], [ 103.1065, 10.9142 ], [ 103.0982, 10.9167 ], [ 103.0953, 10.9359 ], [ 103.0983, 10.9438 ], [ 103.0977, 10.9458 ], [ 103.0956, 10.9476 ], [ 103.0993, 10.9546 ], [ 103.0992, 10.9563 ], [ 103.1031, 10.9605 ], [ 103.1063, 10.9613 ], [ 103.1084, 10.9632 ], [ 103.109, 10.995 ], [ 103.1068, 11.021 ], [ 103.1124, 11.0195 ], [ 103.1146, 11.0233 ], [ 103.1186, 11.0234 ], [ 103.1201, 11.0206 ], [ 103.1204, 11.0176 ], [ 103.1228, 11.0186 ], [ 103.1244, 11.0134 ], [ 103.1258, 11.0131 ], [ 103.1265, 11.0139 ], [ 103.1266, 11.0147 ], [ 103.1244, 11.016 ], [ 103.1251, 11.0168 ], [ 103.1278, 11.0172 ], [ 103.1277, 11.0147 ], [ 103.1325, 11.0172 ], [ 103.1338, 11.0154 ], [ 103.1343, 11.0162 ], [ 103.1329, 11.0179 ], [ 103.1341, 11.0195 ], [ 103.1354, 11.0199 ], [ 103.1362, 11.0187 ], [ 103.1398, 11.0188 ], [ 103.1397, 11.0175 ], [ 103.142, 11.0198 ], [ 103.1432, 11.0226 ], [ 103.1474, 11.0233 ], [ 103.148, 11.0247 ], [ 103.1502, 11.0261 ], [ 103.1549, 11.0268 ], [ 103.158, 11.0323 ], [ 103.1653, 11.0374 ], [ 103.1814, 11.0449 ], [ 103.1985, 11.0513 ], [ 103.2029, 11.0539 ], [ 103.2167, 11.0578 ], [ 103.2185, 11.0579 ], [ 103.2187, 11.0572 ], [ 103.2178, 11.0344 ] ] ], [ [ [ 103.0842, 10.8978 ], [ 103.0855, 10.8956 ], [ 103.0904, 10.8945 ], [ 103.091, 10.8893 ], [ 103.0882, 10.8882 ], [ 103.0804, 10.889 ], [ 103.078, 10.8878 ], [ 103.0697, 10.8881 ], [ 103.0666, 10.8898 ], [ 103.0684, 10.8932 ], [ 103.0688, 10.8977 ], [ 103.0706, 10.8981 ], [ 103.0722, 10.9003 ], [ 103.0716, 10.9044 ], [ 103.0728, 10.906 ], [ 103.075, 10.9057 ], [ 103.0842, 10.8978 ] ] ], [ [ [ 103.0794, 10.9384 ], [ 103.0765, 10.9362 ], [ 103.0744, 10.9322 ], [ 103.0751, 10.9307 ], [ 103.074, 10.929 ], [ 103.0709, 10.9257 ], [ 103.0691, 10.9256 ], [ 103.0687, 10.9275 ], [ 103.0725, 10.9323 ], [ 103.0716, 10.9332 ], [ 103.072, 10.9375 ], [ 103.0749, 10.9393 ], [ 103.0765, 10.9433 ], [ 103.0797, 10.9454 ], [ 103.0807, 10.9434 ], [ 103.0794, 10.9384 ] ] ], [ [ [ 103.078, 10.9824 ], [ 103.0803, 10.981 ], [ 103.0791, 10.979 ], [ 103.0743, 10.9771 ], [ 103.0712, 10.977 ], [ 103.0695, 10.9759 ], [ 103.0686, 10.9721 ], [ 103.0671, 10.9722 ], [ 103.0657, 10.9742 ], [ 103.0679, 10.9762 ], [ 103.0702, 10.9811 ], [ 103.0727, 10.9823 ], [ 103.078, 10.9824 ] ] ], [ [ [ 103.0571, 10.9613 ], [ 103.0536, 10.9545 ], [ 103.05, 10.9542 ], [ 103.0469, 10.9559 ], [ 103.0505, 10.9607 ], [ 103.0571, 10.9613 ] ] ], [ [ [ 103.068, 10.9101 ], [ 103.0635, 10.9089 ], [ 103.0625, 10.9067 ], [ 103.0599, 10.905 ], [ 103.0576, 10.9064 ], [ 103.0574, 10.9101 ], [ 103.0625, 10.9094 ], [ 103.0656, 10.911 ], [ 103.0679, 10.9109 ], [ 103.068, 10.9101 ] ] ], [ [ [ 103.0548, 10.9132 ], [ 103.0502, 10.9124 ], [ 103.05, 10.9131 ], [ 103.0513, 10.9158 ], [ 103.053, 10.9155 ], [ 103.0532, 10.9137 ], [ 103.0548, 10.9132 ] ] ], [ [ [ 103.066, 10.9282 ], [ 103.0655, 10.9267 ], [ 103.0617, 10.9266 ], [ 103.064, 10.9293 ], [ 103.066, 10.9282 ] ] ], [ [ [ 103.0574, 10.9124 ], [ 103.0572, 10.9111 ], [ 103.0553, 10.9117 ], [ 103.0554, 10.9122 ], [ 103.0574, 10.9124 ] ] ] ] } }
]
}
