{
"type": "FeatureCollection",
"name": "protected_areas",
"crs": { "type": "name", "properties": { "name": "urn:ogc:def:crs:OGC:1.3:CRS84" } },
"xy_coordinate_resolution": 0.0001,
"features": [
{ "type": "Feature", "properties": { "Name_E": "Dong Peng", "PA_TYPE": "Multiple Use Area" }, "geometry": { "type": "Polygon", "coordinates": [ [ [ 103.4735, 11.1933 ], [ 103.4865, 11.2103 ], [ 103.5097, 11.2089 ], [ 103.5177, 11.2023 ], [ 103.5379, 11.1959 ], [ 103.5572, 11.1919 ], [ 103.5706, 11.1944 ], [ 103.588, 11.1863 ], [ 103.5963, 11.1857 ], [ 103.6002, 11.1798 ], [ 103.6143, 11.1738 ], [ 103.6315, 11.1734 ], [ 103.6347, 11.1752 ], [ 103.6373, 11.1793 ], [ 103.6431, 11.1815 ], [ 103.6537, 11.1813 ], [ 103.6559, 11.1829 ], [ 103.6622, 11.1809 ], [ 103.6717, 11.1732 ], [ 103.6753, 11.1736 ], [ 103.6834, 11.17 ], [ 103.6915, 11.1694 ], [ 103.7023, 11.1598 ], [ 103.7109, 11.156 ], [ 103.744, 11.1473 ], [ 103.7482, 11.152 ], [ 103.7532, 11.1491 ], [ 103.7572, 11.1495 ], [ 103.7676, 11.1384 ], [ 103.774, 11.1236 ], [ 103.776, 11.0947 ], [ 103.7748, 11.0858 ], [ 103.7704, 11.0781 ], [ 103.7699, 11.072 ], [ 103.7641, 11.0654 ], [ 103.7491, 11.0627 ], [ 103.7453, 11.0648 ], [ 103.7375, 11.0586 ], [ 103.7271, 11.0538 ], [ 103.7116, 11.0319 ], [ 103.7003, 11.0229 ], [ 103.6944, 11.0216 ], [ 103.7011, 11.0355 ], [ 103.6984, 11.05 ], [ 103.6945, 11.0505 ], [ 103.6886, 11.0473 ], [ 103.6845, 11.0422 ], [ 103.6806, 11.0405 ], [ 103.6799, 11.0373 ], [ 103.6731, 11.0332 ], [ 103.6706, 11.0298 ], [ 103.6686, 11.0147 ], [ 103.667, 11.0077 ], [ 103.6652, 11.0065 ], [ 103.6607, 11.0162 ], [ 103.6646, 11.0226 ], [ 103.6628, 11.0249 ], [ 103.6628, 11.0297 ], [ 103.6595, 11.0328 ], [ 103.6509, 11.0478 ], [ 103.6481, 11.049 ], [ 103.6483, 11.0524 ], [ 103.6554, 11.055 ], [ 103.663, 11.0602 ], [ 103.6647, 11.0663 ], [ 103.6594, 11.0691 ], [ 103.6602, 11.08 ], [ 103.6549, 11.0792 ], [ 103.6424, 11.0851 ], [ 103.6263, 11.089 ], [ 103.6203, 11.0887 ], [ 103.6135, 11.0851 ], [ 103.5923, 11.0934 ], [ 103.5917, 11.0992 ], [ 103.5795, 11.1171 ], [ 103.5709, 11.136 ], [ 103.5636, 11.1453 ], [ 103.5628, 11.1482 ], [ 103.5546, 11.1567 ], [ 103.5521, 11.1676 ], [ 103.5486, 11.1683 ], [ 103.5457, 11.1666 ], [ 103.5437, 11.1682 ], [ 103.5309, 11.1691 ], [ 103.5211, 11.1678 ], [ 103.5138, 11.1685 ], [ 103.5056, 11.1662 ], [ 103.4945, 11.1803 ], [ 103.4839, 11.1865 ], [ 103.4805, 11.1908 ], [ 103.4735, 11.1933 ] ] ] } },
{ "type": "Feature", "properties": { "Name_E": "Botum Sakor", "PA_TYPE": "National Park" }, "geometry": { "type": "Polygon", "coordinates": [ [ [ 103.1744, 11.4245 ], [ 103.1838, 11.4146 ], [ 103.1882, 11.4115 ], [ 103.2036, 11.4034 ], [ 103.2049, 11.3957 ], [ 103.2084, 11.3928 ], [ 103.2173, 11.3894 ], [ 103.2284, 11.3797 ], [ 103.2352, 11.3794 ], [ 103.2454, 11.3764 ], [ 103.2519, 11.3817 ], [ 103.2596, 11.3784 ], [ 103.2648, 11.3737 ], [ 103.2651, 11.3683 ], [ 103.2677, 11.3663 ], [ 103.2715, 11.359 ], [ 103.2833, 11.3516 ], [ 103.2885, 11.3447 ], [ 103.2906, 11.3463 ], [ 103.2938, 11.3452 ], [ 103.2955, 11.3389 ], [ 103.3014, 11.3308 ], [ 103.3087, 11.3293 ], [ 103.3104, 11.3262 ], [ 103.3216, 11.3203 ], [ 103.3232, 11.3128 ], [ 103.3225, 11.3085 ], [ 103.3263, 11.3021 ], [ 103.3237, 11.2941 ], [ 103.3268, 11.2872 ], [ 103.331, 11.2832 ], [ 103.3297, 11.2773 ], [ 103.3337, 11.2683 ], [ 103.3362, 11.2649 ], [ 103.3454, 11.2603 ], [ 103.3479, 11.2524 ], [ 103.3561, 11.2479 ], [ 103.3564, 11.2425 ], [ 103.3617, 11.2373 ], [ 103.3647, 11.2247 ], [ 103.373, 11.2133 ], [ 103.3767, 11.2108 ], [ 103.3779, 11.1967 ], [ 103.3843, 11.1881 ], [ 103.393, 11.1864 ], [ 103.3957, 11.1833 ], [ 103.3999, 11.1826 ], [ 103.4079, 11.1829 ], [ 103.4088, 11.184 ], [ 103.4243, 11.1834 ], [ 103.4364, 11.1802 ], [ 103.4462, 11.1708 ], [ 103.4498, 11.1717 ], [ 103.4611, 11.1574 ], [ 103.4781, 11.1591 ], [ 103.4821, 11.1577 ], [ 103.4727, 11.1414 ], [ 103.4715, 11.134 ], [ 103.4681, 11.1272 ], [ 103.4623, 11.1208 ], [ 103.456, 11.1177 ], [ 103.4449, 11.1028 ], [ 103.44, 11.0996 ], [ 103.446, 11.0979 ], [ 103.4666, 11.1051 ], [ 103.4691, 11.1033 ], [ 103.4691, 11.0943 ], [ 103.4661, 11.087 ], [ 103.4502, 11.0735 ], [ 103.4482, 11.0673 ], [ 103.4464, 11.0435 ], [ 103.4397, 11.0347 ], [ 103.4386, 11.0319 ], [ 103.4394, 11.0308 ], [ 103.426, 11.0059 ], [ 103.4261, 11.0 ], [ 103.4227, 10.9852 ], [ 103.4154, 10.9742 ], [ 103.4109, 10.9622 ], [ 103.41, 10.9577 ], [ 103.4139, 10.9402 ], [ 103.413, 10.9384 ], [ 103.4207, 10.928 ], [ 103.4196, 10.9104 ], [ 103.4252, 10.8957 ], [ 103.425, 10.8925 ], [ 103.4193, 10.8928 ], [ 103.4181, 10.8949 ], [ 103.4177, 10.8936 ], [ 103.4092, 10.8932 ], [ 103.4049, 10.8898 ], [ 103.4032, 10.8851 ], [ 103.3939, 10.8804 ], [ 103.3902, 10.8799 ], [ 103.3871, 10.8759 ], [ 103.3835, 10.8758 ], [ 103.3826, 10.8788 ], [ 103.3783, 10.8814 ], [ 103.3676, 10.8805 ], [ 103.3675, 10.9083 ], [ 103.3307, 10.9443 ], [ 103.3124, 10.9442 ], [ 103.294, 10.9622 ], [ 103.2391, 10.9619 ], [ 103.1846, 10.9073 ], [ 103.1664, 10.9072 ], [ 103.1659, 10.9975 ], [ 103.1841, 10.9977 ], [ 103.1838, 11.0519 ], [ 103.1655, 11.0518 ], [ 103.1654, 11.0699 ], [ 103.1835, 11.0881 ], [ 103.1832, 11.1423 ], [ 103.1648, 11.1603 ], [ 103.1646, 11.1964 ], [ 103.0932, 11.1959 ], [ 103.087, 11.2101 ], [ 103.0768, 11.2231 ], [ 103.0739, 11.2245 ], [ 103.072, 11.2225 ], [ 103.0667, 11.2231 ], [ 103.0628, 11.2197 ], [ 103.0531, 11.2157 ], [ 103.0466, 11.223 ], [ 103.0491, 11.2243 ], [ 103.0511, 11.2295 ], [ 103.0559, 11.2295 ], [ 103.0575, 11.2343 ], [ 103.0673, 11.2381 ], [ 103.07, 11.2373 ], [ 103.0713, 11.2389 ], [ 103.0699, 11.2468 ], [ 103.065, 11.2549 ], [ 103.0665, 11.26 ], [ 103.07, 11.2608 ], [ 103.0724, 11.2588 ], [ 103.072, 11.2608 ], [ 103.0755, 11.2631 ], [ 103.0767, 11.2661 ], [ 103.0763, 11.2717 ], [ 103.0703, 11.286 ], [ 103.0751, 11.2864 ], [ 103.0755, 11.2848 ], [ 103.0739, 11.2848 ], [ 103.0755, 11.2841 ], [ 103.0874, 11.2874 ], [ 103.0891, 11.2846 ], [ 103.0927, 11.2845 ], [ 103.0928, 11.2892 ], [ 103.095, 11.2949 ], [ 103.0921, 11.3004 ], [ 103.0988, 11.2979 ], [ 103.104, 11.2982 ], [ 103.1075, 11.3037 ], [ 103.112, 11.304 ], [ 103.1179, 11.3079 ], [ 103.1199, 11.3131 ], [ 103.1197, 11.3184 ], [ 103.1232, 11.3174 ], [ 103.128, 11.3129 ], [ 103.1332, 11.3115 ], [ 103.1415, 11.3178 ], [ 103.144, 11.3181 ], [ 103.1454, 11.3209 ], [ 103.1377, 11.3364 ], [ 103.1341, 11.3398 ], [ 103.1344, 11.3434 ], [ 103.1375, 11.3468 ], [ 103.1341, 11.3499 ], [ 103.1295, 11.3507 ], [ 103.1277, 11.3492 ], [ 103.1187, 11.3491 ], [ 103.1115, 11.3433 ], [ 103.108, 11.3424 ], [ 103.1045, 11.343 ], [ 103.1026, 11.3452 ], [ 103.1027, 11.3482 ], [ 103.0955, 11.351 ], [ 103.0906, 11.3604 ], [ 103.0853, 11.3949 ], [ 103.0872, 11.4013 ], [ 103.091, 11.3998 ], [ 103.0859, 11.4055 ], [ 103.0873, 11.4094 ], [ 103.0853, 11.4097 ], [ 103.0778, 11.4226 ], [ 103.0751, 11.4204 ], [ 103.0761, 11.4158 ], [ 103.074, 11.415 ], [ 103.0721, 11.4177 ], [ 103.0708, 11.4261 ], [ 103.0742, 11.4322 ], [ 103.0808, 11.4391 ], [ 103.0921, 11.4448 ], [ 103.102, 11.4527 ], [ 103.1082, 11.4558 ], [ 103.1129, 11.4618 ], [ 103.1167, 11.4635 ], [ 103.1265, 11.4632 ], [ 103.1327, 11.4604 ], [ 103.1388, 11.4525 ], [ 103.1474, 11.4466 ], [ 103.1477, 11.4373 ], [ 103.1527, 11.4334 ], [ 103.1625, 11.4307 ], [ 103.1744, 11.4245 ] ] ] } },
{ "type": "Feature", "properties": { "Name_E": "Tatai", "PA_TYPE": "Wildlife Sanctuary" }, "geometry": { "type": "Polygon", "coordinates": [ [ [ 103.4759, 11.1923 ], [ 103.4592, 11.1818 ], [ 103.4502, 11.1711 ], [ 103.4462, 11.1708 ], [ 103.4364, 11.1802 ], [ 103.4243, 11.1834 ], [ 103.4088, 11.184 ], [ 103.4079, 11.1829 ], [ 103.3999, 11.1826 ], [ 103.3957, 11.1833 ], [ 103.393, 11.1864 ], [ 103.3843, 11.1881 ], [ 103.3779, 11.1967 ], [ 103.3767, 11.2108 ], [ 103.373, 11.2133 ], [ 103.3647, 11.2247 ], [ 103.3617, 11.2373 ], [ 103.3564, 11.2425 ], [ 103.3561, 11.2479 ], [ 103.3479, 11.2524 ], [ 103.3454, 11.2603 ], [ 103.3362, 11.2649 ], [ 103.3337, 11.2683 ], [ 103.3297, 11.2773 ], [ 103.331, 11.2832 ], [ 103.3268, 11.2872 ], [ 103.3237, 11.2941 ], [ 103.3263, 11.3021 ], [ 103.3225, 11.3085 ], [ 103.3232, 11.3128 ], [ 103.3216, 11.3203 ], [ 103.3104, 11.3262 ], [ 103.3087, 11.3293 ], [ 103.3014, 11.3308 ], [ 103.2955, 11.3389 ], [ 103.2938, 11.3452 ], [ 103.2906, 11.3463 ], [ 103.2885, 11.3447 ], [ 103.2833, 11.3516 ], [ 103.2715, 11.359 ], [ 103.2677, 11.3663 ], [ 103.2651, 11.3683 ], [ 103.2648, 11.3737 ], [ 103.2596, 11.3784 ], [ 103.2519, 11.3817 ], [ 103.2454, 11.3764 ], [ 103.2352, 11.3794 ], [ 103.2284, 11.3797 ], [ 103.2173, 11.3894 ], [ 103.2084, 11.3928 ], [ 103.2049, 11.3957 ], [ 103.2036, 11.4034 ], [ 103.194, 11.4078 ], [ 103.1838, 11.4146 ], [ 103.1744, 11.4245 ], [ 103.1625, 11.4307 ], [ 103.1527, 11.4334 ], [ 103.1477, 11.4373 ], [ 103.1474, 11.4466 ], [ 103.1388, 11.4525 ], [ 103.1327, 11.4604 ], [ 103.1265, 11.4632 ], [ 103.1179, 11.4635 ], [ 103.136, 11.4751 ], [ 103.1421, 11.4825 ], [ 103.1395, 11.4873 ], [ 103.1309, 11.4901 ], [ 103.1245, 11.4999 ], [ 103.1252, 11.5025 ], [ 103.1324, 11.5087 ], [ 103.1347, 11.5129 ], [ 103.1369, 11.5199 ], [ 103.1372, 11.5301 ], [ 103.146, 11.5459 ], [ 103.1476, 11.5502 ], [ 103.1469, 11.5536 ], [ 103.142, 11.558 ], [ 103.1295, 11.561 ], [ 103.1251, 11.5656 ], [ 103.1098, 11.5679 ], [ 103.0978, 11.5723 ], [ 103.0925, 11.5804 ], [ 103.09, 11.5935 ], [ 103.0866, 11.5938 ], [ 103.0757, 11.5896 ], [ 103.0693, 11.5849 ], [ 103.0658, 11.5804 ], [ 103.0592, 11.5803 ], [ 103.0607, 11.583 ], [ 103.0593, 11.5871 ], [ 103.0588, 11.5857 ], [ 103.0573, 11.5869 ], [ 103.0562, 11.5921 ], [ 103.0493, 11.5954 ], [ 103.0468, 11.5997 ], [ 103.0471, 11.6046 ], [ 103.0232, 11.6063 ], [ 103.015, 11.6137 ], [ 103.0151, 11.6159 ], [ 103.0115, 11.6189 ], [ 103.0077, 11.6189 ], [ 103.0055, 11.6161 ], [ 103.0015, 11.6151 ], [ 102.9891, 11.6209 ], [ 102.9789, 11.62 ], [ 102.9789, 11.6266 ], [ 102.9706, 11.6338 ], [ 102.9643, 11.6512 ], [ 102.9612, 11.6561 ], [ 102.9616, 11.6709 ], [ 102.963, 11.6759 ], [ 102.9713, 11.6816 ], [ 102.9721, 11.6804 ], [ 102.9719, 11.6848 ], [ 102.9737, 11.6899 ], [ 102.98, 11.695 ], [ 102.9837, 11.7022 ], [ 102.9878, 11.7065 ], [ 102.9969, 11.7115 ], [ 103.0009, 11.7121 ], [ 103.0047, 11.7178 ], [ 103.0082, 11.7191 ], [ 103.0147, 11.7246 ], [ 103.0236, 11.7264 ], [ 103.0268, 11.7254 ], [ 103.0295, 11.7223 ], [ 103.0334, 11.7125 ], [ 103.0367, 11.7103 ], [ 103.0586, 11.7062 ], [ 103.066, 11.7098 ], [ 103.0703, 11.7165 ], [ 103.0784, 11.7223 ], [ 103.0796, 11.7249 ], [ 103.0834, 11.725 ], [ 103.2437, 11.6345 ], [ 103.2493, 11.6373 ], [ 103.2541, 11.6442 ], [ 103.2524, 11.6478 ], [ 103.2491, 11.6498 ], [ 103.2533, 11.6529 ], [ 103.2577, 11.6532 ], [ 103.2565, 11.646 ], [ 103.2641, 11.6421 ], [ 103.2682, 11.6463 ], [ 103.2798, 11.6442 ], [ 103.2809, 11.647 ], [ 103.2802, 11.6525 ], [ 103.2858, 11.658 ], [ 103.2931, 11.6614 ], [ 103.2933, 11.6674 ], [ 103.3505, 11.567 ], [ 103.3466, 11.5647 ], [ 103.3469, 11.5584 ], [ 103.3444, 11.5553 ], [ 103.3451, 11.5528 ], [ 103.3414, 11.5429 ], [ 103.3428, 11.538 ], [ 103.3359, 11.5285 ], [ 103.3323, 11.5291 ], [ 103.3274, 11.5254 ], [ 103.3213, 11.5245 ], [ 103.3094, 11.5189 ], [ 103.3063, 11.5105 ], [ 103.3038, 11.5088 ], [ 103.3011, 11.5091 ], [ 103.2994, 11.506 ], [ 103.2952, 11.5036 ], [ 103.2908, 11.502 ], [ 103.284, 11.502 ], [ 103.2824, 11.4983 ], [ 103.2796, 11.4983 ], [ 103.2768, 11.5006 ], [ 103.2721, 11.4978 ], [ 103.2714, 11.4865 ], [ 103.2702, 11.4855 ], [ 103.2738, 11.4819 ], [ 103.2681, 11.4765 ], [ 103.2663, 11.4707 ], [ 103.2693, 11.4673 ], [ 103.2671, 11.4639 ], [ 103.2687, 11.4595 ], [ 103.2746, 11.4585 ], [ 103.2739, 11.4675 ], [ 103.2757, 11.472 ], [ 103.2778, 11.4735 ], [ 103.2811, 11.473 ], [ 103.2882, 11.4672 ], [ 103.2923, 11.4666 ], [ 103.2938, 11.4718 ], [ 103.2965, 11.4748 ], [ 103.2935, 11.4807 ], [ 103.2962, 11.4819 ], [ 103.299, 11.4807 ], [ 103.3055, 11.4738 ], [ 103.3103, 11.4794 ], [ 103.3156, 11.4761 ], [ 103.3194, 11.477 ], [ 103.3245, 11.4738 ], [ 103.3324, 11.4792 ], [ 103.3356, 11.4788 ], [ 103.337, 11.4756 ], [ 103.3343, 11.4735 ], [ 103.3389, 11.4675 ], [ 103.3463, 11.4752 ], [ 103.3649, 11.4721 ], [ 103.368, 11.4736 ], [ 103.3713, 11.478 ], [ 103.3769, 11.4809 ], [ 103.3879, 11.4724 ], [ 103.3897, 11.4754 ], [ 103.3882, 11.4834 ], [ 103.3843, 11.4895 ], [ 103.3835, 11.4971 ], [ 103.3804, 11.5058 ], [ 103.3826, 11.5071 ], [ 103.3856, 11.5039 ], [ 103.3901, 11.5032 ], [ 103.3953, 11.5075 ], [ 103.3989, 11.5078 ], [ 103.4025, 11.5125 ], [ 103.403, 11.5156 ], [ 103.4048, 11.5165 ], [ 103.5142, 11.5169 ], [ 103.5121, 11.513 ], [ 103.5105, 11.5128 ], [ 103.5063, 11.5015 ], [ 103.507, 11.4967 ], [ 103.5127, 11.4948 ], [ 103.5144, 11.4921 ], [ 103.5137, 11.4841 ], [ 103.5101, 11.4741 ], [ 103.5104, 11.4665 ], [ 103.5085, 11.4638 ], [ 103.5074, 11.4575 ], [ 103.5102, 11.4553 ], [ 103.5116, 11.4489 ], [ 103.5185, 11.4457 ], [ 103.5199, 11.4359 ], [ 103.5096, 11.4247 ], [ 103.5135, 11.4151 ], [ 103.5188, 11.4155 ], [ 103.5203, 11.4142 ], [ 103.5177, 11.4045 ], [ 103.5202, 11.4001 ], [ 103.5194, 11.3901 ], [ 103.5232, 11.3882 ], [ 103.529, 11.3925 ], [ 103.5314, 11.3915 ], [ 103.5318, 11.3881 ], [ 103.5267, 11.3828 ], [ 103.5304, 11.3834 ], [ 103.5337, 11.382 ], [ 103.5347, 11.3784 ], [ 103.5385, 11.3739 ], [ 103.5361, 11.3687 ], [ 103.5374, 11.3522 ], [ 103.5426, 11.3486 ], [ 103.5358, 11.3378 ], [ 103.5163, 11.337 ], [ 103.4933, 11.3333 ], [ 103.4833, 11.3288 ], [ 103.4751, 11.322 ], [ 103.4746, 11.32 ], [ 103.4764, 11.3182 ], [ 103.4807, 11.3176 ], [ 103.4769, 11.3157 ], [ 103.4769, 11.3142 ], [ 103.4818, 11.3135 ], [ 103.4767, 11.311 ], [ 103.4766, 11.3095 ], [ 103.4801, 11.3069 ], [ 103.4848, 11.3082 ], [ 103.4851, 11.3059 ], [ 103.4798, 11.3055 ], [ 103.4785, 11.3041 ], [ 103.4728, 11.2846 ], [ 103.4699, 11.281 ], [ 103.4638, 11.2773 ], [ 103.4594, 11.2717 ], [ 103.4564, 11.2657 ], [ 103.4569, 11.2541 ], [ 103.4533, 11.2484 ], [ 103.4452, 11.2406 ], [ 103.4404, 11.2246 ], [ 103.4414, 11.2192 ], [ 103.4507, 11.2145 ], [ 103.4537, 11.2058 ], [ 103.4684, 11.1954 ], [ 103.4759, 11.1923 ] ] ] } },
{ "type": "Feature", "properties": { "Name_E": "Peam Krasop", "PA_TYPE": "Wildlife Sanctuary" }, "geometry": { "type": "MultiPolygon", "coordinates": [ [ [ [ 103.0968, 11.4478 ], [ 103.0681, 11.4294 ], [ 103.0654, 11.425 ], [ 103.0644, 11.4195 ], [ 103.0604, 11.4249 ], [ 103.0635, 11.425 ], [ 103.0653, 11.4267 ], [ 103.0639, 11.4287 ], [ 103.0658, 11.4318 ], [ 103.0553, 11.4346 ], [ 103.0521, 11.4401 ], [ 103.0503, 11.4378 ], [ 103.0469, 11.4372 ], [ 103.047, 11.4387 ], [ 103.0423, 11.444 ], [ 103.0356, 11.4342 ], [ 103.0325, 11.4321 ], [ 103.031, 11.4329 ], [ 103.0307, 11.4304 ], [ 103.0254, 11.4275 ], [ 103.0248, 11.4252 ], [ 103.0233, 11.4246 ], [ 103.022, 11.4269 ], [ 103.0178, 11.4227 ], [ 103.0203, 11.4221 ], [ 103.0189, 11.4212 ], [ 103.0135, 11.4238 ], [ 103.0127, 11.4308 ], [ 103.0106, 11.4348 ], [ 103.0123, 11.4345 ], [ 103.0148, 11.4404 ], [ 103.0126, 11.4566 ], [ 103.0143, 11.4573 ], [ 103.014, 11.4585 ], [ 103.0022, 11.4785 ], [ 102.9994, 11.4809 ], [ 102.9985, 11.4843 ], [ 102.9921, 11.4932 ], [ 102.9886, 11.4945 ], [ 102.9857, 11.499 ], [ 102.9825, 11.5084 ], [ 102.9858, 11.5149 ], [ 102.9817, 11.5186 ], [ 102.9689, 11.5239 ], [ 102.9562, 11.5399 ], [ 102.95, 11.551 ], [ 102.9608, 11.5666 ], [ 102.9673, 11.5727 ], [ 102.9723, 11.5804 ], [ 102.995, 11.5809 ], [ 103.0072, 11.5793 ], [ 103.0125, 11.5806 ], [ 103.0156, 11.5832 ], [ 103.0298, 11.5827 ], [ 103.0335, 11.5845 ], [ 103.0338, 11.588 ], [ 103.0268, 11.5952 ], [ 103.0238, 11.6004 ], [ 103.0251, 11.6023 ], [ 103.0301, 11.5981 ], [ 103.0334, 11.5995 ], [ 103.0348, 11.594 ], [ 103.0389, 11.5929 ], [ 103.0373, 11.5905 ], [ 103.0384, 11.5889 ], [ 103.0377, 11.5798 ], [ 103.0391, 11.5766 ], [ 103.0402, 11.5775 ], [ 103.0408, 11.5868 ], [ 103.0458, 11.5892 ], [ 103.0479, 11.5885 ], [ 103.0528, 11.5827 ], [ 103.0521, 11.5798 ], [ 103.055, 11.5732 ], [ 103.0607, 11.5633 ], [ 103.0625, 11.5629 ], [ 103.0643, 11.5686 ], [ 103.0633, 11.5776 ], [ 103.0672, 11.583 ], [ 103.0806, 11.5921 ], [ 103.09, 11.5935 ], [ 103.0925, 11.5804 ], [ 103.0978, 11.5723 ], [ 103.1098, 11.5679 ], [ 103.1251, 11.5656 ], [ 103.1295, 11.561 ], [ 103.142, 11.558 ], [ 103.1459, 11.5554 ], [ 103.1476, 11.5502 ], [ 103.1375, 11.5311 ], [ 103.1356, 11.5151 ], [ 103.1327, 11.509 ], [ 103.1252, 11.5025 ], [ 103.1245, 11.4999 ], [ 103.1309, 11.4901 ], [ 103.141, 11.486 ], [ 103.1421, 11.4825 ], [ 103.1409, 11.4798 ], [ 103.1346, 11.4741 ], [ 103.1179, 11.4635 ], [ 103.1129, 11.4618 ], [ 103.1082, 11.4558 ], [ 103.0995, 11.451 ], [ 103.0968, 11.4478 ] ] ], [ [ [ 103.006, 11.4372 ], [ 103.0048, 11.4355 ], [ 103.0065, 11.4325 ], [ 103.0045, 11.4351 ], [ 103.005, 11.4367 ], [ 103.006, 11.4372 ] ] ], [ [ [ 103.009, 11.4347 ], [ 103.009, 11.4352 ], [ 103.0106, 11.4348 ], [ 103.009, 11.4347 ] ] ] ] } },
{ "type": "Feature", "properties": { "Name_E": "Southern Cardamom", "PA_TYPE": "National Park" }, "geometry": { "type": "MultiPolygon", "coordinates": [ [ [ [ 103.2437, 11.6345 ], [ 103.0829, 11.725 ], [ 103.0796, 11.7249 ], [ 103.0784, 11.7223 ], [ 103.0703, 11.7165 ], [ 103.066, 11.7098 ], [ 103.0586, 11.7062 ], [ 103.0367, 11.7103 ], [ 103.0334, 11.7125 ], [ 103.0306, 11.7208 ], [ 103.0259, 11.7258 ], [ 103.0211, 11.7262 ], [ 103.0147, 11.7246 ], [ 103.0082, 11.7191 ], [ 103.0047, 11.7178 ], [ 103.0009, 11.7121 ], [ 102.9969, 11.7115 ], [ 102.9878, 11.7065 ], [ 102.9837, 11.7022 ], [ 102.98, 11.695 ], [ 102.977, 11.6937 ], [ 102.9702, 11.6851 ], [ 102.9647, 11.6845 ], [ 102.9625, 11.6892 ], [ 102.9627, 11.7011 ], [ 102.9643, 11.7054 ], [ 102.969, 11.7107 ], [ 102.9719, 11.7211 ], [ 102.9554, 11.7414 ], [ 102.9534, 11.7552 ], [ 102.9504, 11.762 ], [ 102.9438, 11.7689 ], [ 102.9307, 11.7719 ], [ 102.9267, 11.779 ], [ 102.9106, 11.7893 ], [ 102.9079, 11.795 ], [ 102.9091, 11.799 ], [ 102.908, 11.8045 ], [ 102.8996, 11.816 ], [ 102.8963, 11.8178 ], [ 102.8933, 11.8295 ], [ 102.8881, 11.8321 ], [ 102.8831, 11.8309 ], [ 102.8768, 11.8318 ], [ 102.8718, 11.834 ], [ 102.869, 11.8388 ], [ 102.8644, 11.8406 ], [ 102.8743, 11.8493 ], [ 102.8746, 11.8546 ], [ 102.8691, 11.8605 ], [ 102.8595, 11.8598 ], [ 102.8576, 11.8713 ], [ 102.8536, 11.8831 ], [ 102.8465, 11.8912 ], [ 102.851, 11.904 ], [ 102.8488, 11.9096 ], [ 102.8514, 11.9108 ], [ 102.8549, 11.9172 ], [ 102.8555, 11.9286 ], [ 102.8588, 11.9354 ], [ 102.8717, 11.9357 ], [ 102.8762, 11.9374 ], [ 102.8819, 11.9365 ], [ 102.8899, 11.941 ], [ 102.8906, 11.9428 ], [ 102.8948, 11.942 ], [ 102.896, 11.9455 ], [ 102.905, 11.9443 ], [ 102.9078, 11.9467 ], [ 102.9088, 11.9514 ], [ 102.9165, 11.9572 ], [ 102.9214, 11.9759 ], [ 102.919, 11.983 ], [ 102.9216, 11.9861 ], [ 102.9203, 12.0021 ], [ 102.9579, 12.0032 ], [ 102.9692, 12.0012 ], [ 102.9743, 11.9957 ], [ 102.9749, 11.992 ], [ 102.9789, 11.9915 ], [ 102.9872, 11.9928 ], [ 102.9971, 11.9966 ], [ 103.0856, 11.96 ], [ 103.1087, 11.949 ], [ 103.1209, 11.9453 ], [ 103.139, 11.9441 ], [ 103.1533, 11.9479 ], [ 103.16, 11.9436 ], [ 103.1625, 11.9454 ], [ 103.1664, 11.9458 ], [ 103.1713, 11.9497 ], [ 103.1743, 11.9486 ], [ 103.185, 11.9525 ], [ 103.1944, 11.962 ], [ 103.1987, 11.9635 ], [ 103.2061, 11.9632 ], [ 103.2192, 11.9602 ], [ 103.2235, 11.9568 ], [ 103.2294, 11.9631 ], [ 103.2285, 11.9694 ], [ 103.2301, 11.962 ], [ 103.2238, 11.956 ], [ 103.2266, 11.9496 ], [ 103.2242, 11.9462 ], [ 103.2213, 11.9355 ], [ 103.2244, 11.93 ], [ 103.229, 11.9311 ], [ 103.2313, 11.9303 ], [ 103.228, 11.9256 ], [ 103.228, 11.914 ], [ 103.2332, 11.9136 ], [ 103.2418, 11.9097 ], [ 103.2442, 11.9047 ], [ 103.2506, 11.9018 ], [ 103.2596, 11.8917 ], [ 103.2502, 11.8902 ], [ 103.2488, 11.8889 ], [ 103.2477, 11.8833 ], [ 103.25, 11.8791 ], [ 103.2465, 11.8726 ], [ 103.2476, 11.8663 ], [ 103.244, 11.8523 ], [ 103.2455, 11.8478 ], [ 103.2392, 11.8431 ], [ 103.239, 11.8401 ], [ 103.2359, 11.8387 ], [ 103.2378, 11.8338 ], [ 103.2361, 11.8313 ], [ 103.2404, 11.8265 ], [ 103.2644, 11.822 ], [ 103.2665, 11.8201 ], [ 103.2663, 11.8185 ], [ 103.2618, 11.8163 ], [ 103.2607, 11.8099 ], [ 103.2556, 11.8053 ], [ 103.2584, 11.7987 ], [ 103.2652, 11.7916 ], [ 103.2647, 11.7882 ], [ 103.2687, 11.7785 ], [ 103.2686, 11.7702 ], [ 103.2757, 11.7759 ], [ 103.279, 11.7769 ], [ 103.291, 11.7751 ], [ 103.2965, 11.7726 ], [ 103.3007, 11.7732 ], [ 103.3055, 11.7697 ], [ 103.3093, 11.7688 ], [ 103.3141, 11.769 ], [ 103.3202, 11.7719 ], [ 103.3241, 11.7669 ], [ 103.3273, 11.7676 ], [ 103.3334, 11.7623 ], [ 103.3262, 11.7549 ], [ 103.3252, 11.7483 ], [ 103.3269, 11.7419 ], [ 103.3259, 11.7388 ], [ 103.3204, 11.7342 ], [ 103.3234, 11.732 ], [ 103.3273, 11.722 ], [ 103.331, 11.7186 ], [ 103.3412, 11.7285 ], [ 103.3465, 11.7252 ], [ 103.3534, 11.729 ], [ 103.3566, 11.7247 ], [ 103.3567, 11.721 ], [ 103.359, 11.7193 ], [ 103.3681, 11.7229 ], [ 103.37, 11.7261 ], [ 103.3781, 11.7222 ], [ 103.3798, 11.7196 ], [ 103.3946, 11.7163 ], [ 103.4068, 11.7091 ], [ 103.4089, 11.7041 ], [ 103.3996, 11.6923 ], [ 103.3987, 11.6892 ], [ 103.4021, 11.6817 ], [ 103.4033, 11.6746 ], [ 103.4067, 11.673 ], [ 103.4136, 11.6756 ], [ 103.4181, 11.6831 ], [ 103.4253, 11.6829 ], [ 103.4278, 11.6881 ], [ 103.4339, 11.6906 ], [ 103.4309, 11.6936 ], [ 103.4321, 11.6969 ], [ 103.4381, 11.7034 ], [ 103.4414, 11.703 ], [ 103.4465, 11.7066 ], [ 103.4457, 11.7092 ], [ 103.4477, 11.7126 ], [ 103.4583, 11.7126 ], [ 103.4613, 11.7174 ], [ 103.4655, 11.7204 ], [ 103.4737, 11.7173 ], [ 103.4756, 11.7184 ], [ 103.4763, 11.7169 ], [ 103.4787, 11.7211 ], [ 103.4818, 11.7216 ], [ 103.4835, 11.7254 ], [ 103.488, 11.7271 ], [ 103.4885, 11.7304 ], [ 103.4923, 11.73 ], [ 103.4915, 11.7349 ], [ 103.4952, 11.7399 ], [ 103.5043, 11.7409 ], [ 103.5066, 11.7435 ], [ 103.5082, 11.7405 ], [ 103.5133, 11.7416 ], [ 103.5145, 11.7444 ], [ 103.5187, 11.7479 ], [ 103.5241, 11.75 ], [ 103.5265, 11.7496 ], [ 103.5269, 11.7552 ], [ 103.53, 11.7594 ], [ 103.5315, 11.7592 ], [ 103.5306, 11.7615 ], [ 103.5329, 11.7648 ], [ 103.5425, 11.7691 ], [ 103.5442, 11.7718 ], [ 103.5481, 11.7703 ], [ 103.5487, 11.7721 ], [ 103.5532, 11.773 ], [ 103.5529, 11.7771 ], [ 103.5582, 11.7811 ], [ 103.5585, 11.7853 ], [ 103.5623, 11.7882 ], [ 103.5632, 11.7935 ], [ 103.5828, 11.8142 ], [ 103.5871, 11.8095 ], [ 103.5858, 11.807 ], [ 103.5879, 11.8035 ], [ 103.5958, 11.7988 ], [ 103.5991, 11.7928 ], [ 103.6035, 11.7914 ], [ 103.6152, 11.7758 ], [ 103.6181, 11.7746 ], [ 103.6191, 11.7755 ], [ 103.6292, 11.7677 ], [ 103.6271, 11.765 ], [ 103.6279, 11.7612 ], [ 103.6334, 11.761 ], [ 103.6306, 11.7586 ], [ 103.6273, 11.7583 ], [ 103.6304, 11.7559 ], [ 103.6292, 11.7543 ], [ 103.6305, 11.753 ], [ 103.628, 11.7533 ], [ 103.6267, 11.7512 ], [ 103.6284, 11.7478 ], [ 103.6239, 11.7436 ], [ 103.6234, 11.7402 ], [ 103.6254, 11.7367 ], [ 103.6219, 11.7317 ], [ 103.6224, 11.7298 ], [ 103.6266, 11.7276 ], [ 103.6232, 11.7245 ], [ 103.6236, 11.7229 ], [ 103.6298, 11.7175 ], [ 103.63, 11.7146 ], [ 103.6276, 11.7112 ], [ 103.6322, 11.7064 ], [ 103.631, 11.7052 ], [ 103.6279, 11.7066 ], [ 103.6256, 11.706 ], [ 103.6266, 11.7023 ], [ 103.6307, 11.7019 ], [ 103.6296, 11.6982 ], [ 103.623, 11.6957 ], [ 103.6219, 11.6916 ], [ 103.6241, 11.6869 ], [ 103.6207, 11.6855 ], [ 103.6176, 11.6876 ], [ 103.6179, 11.6724 ], [ 103.6138, 11.6719 ], [ 103.6089, 11.6672 ], [ 103.6061, 11.6671 ], [ 103.6057, 11.6648 ], [ 103.6077, 11.6613 ], [ 103.6056, 11.6581 ], [ 103.588, 11.6553 ], [ 103.5856, 11.6498 ], [ 103.5806, 11.6509 ], [ 103.5781, 11.6471 ], [ 103.5712, 11.6473 ], [ 103.5693, 11.6419 ], [ 103.5696, 11.6377 ], [ 103.568, 11.6377 ], [ 103.5655, 11.6404 ], [ 103.5655, 11.6444 ], [ 103.5632, 11.6461 ], [ 103.5597, 11.6382 ], [ 103.5567, 11.6375 ], [ 103.5527, 11.634 ], [ 103.551, 11.6388 ], [ 103.5474, 11.6381 ], [ 103.5492, 11.6425 ], [ 103.5463, 11.6429 ], [ 103.5419, 11.641 ], [ 103.5414, 11.6368 ], [ 103.5377, 11.6325 ], [ 103.5449, 11.6246 ], [ 103.5489, 11.6244 ], [ 103.551, 11.6225 ], [ 103.551, 11.6192 ], [ 103.549, 11.6155 ], [ 103.5572, 11.6151 ], [ 103.5656, 11.618 ], [ 103.5701, 11.6134 ], [ 103.5724, 11.6086 ], [ 103.5774, 11.6049 ], [ 103.579, 11.6004 ], [ 103.5778, 11.5976 ], [ 103.5748, 11.5973 ], [ 103.5722, 11.5941 ], [ 103.5736, 11.5901 ], [ 103.5727, 11.5859 ], [ 103.5742, 11.585 ], [ 103.5701, 11.581 ], [ 103.5692, 11.576 ], [ 103.5729, 11.571 ], [ 103.5771, 11.5701 ], [ 103.5784, 11.5716 ], [ 103.5795, 11.5703 ], [ 103.5816, 11.5712 ], [ 103.5858, 11.5693 ], [ 103.5904, 11.5642 ], [ 103.5914, 11.559 ], [ 103.5989, 11.5584 ], [ 103.6015, 11.5509 ], [ 103.6175, 11.548 ], [ 103.6184, 11.5415 ], [ 103.6174, 11.5384 ], [ 103.6211, 11.5308 ], [ 103.6201, 11.5262 ], [ 103.6257, 11.5194 ], [ 103.6321, 11.518 ], [ 103.6347, 11.5215 ], [ 103.6345, 11.5241 ], [ 103.6381, 11.5233 ], [ 103.6393, 11.5277 ], [ 103.646, 11.5345 ], [ 103.6454, 11.5424 ], [ 103.6473, 11.5468 ], [ 103.651, 11.5497 ], [ 103.6654, 11.552 ], [ 103.6692, 11.5509 ], [ 103.6736, 11.5534 ], [ 103.6766, 11.5515 ], [ 103.6852, 11.5546 ], [ 103.6892, 11.5539 ], [ 103.7029, 11.5455 ], [ 103.705, 11.5472 ], [ 103.7041, 11.5513 ], [ 103.7113, 11.5548 ], [ 103.7153, 11.558 ], [ 103.7193, 11.565 ], [ 103.7255, 11.566 ], [ 103.7285, 11.5682 ], [ 103.7314, 11.5733 ], [ 103.7349, 11.575 ], [ 103.7461, 11.5721 ], [ 103.7546, 11.5723 ], [ 103.7616, 11.569 ], [ 103.7673, 11.5696 ], [ 103.7694, 11.5681 ], [ 103.7682, 11.5663 ], [ 103.7713, 11.5634 ], [ 103.7741, 11.5632 ], [ 103.7735, 11.562 ], [ 103.7751, 11.5606 ], [ 103.7774, 11.5615 ], [ 103.7784, 11.5647 ], [ 103.7818, 11.5655 ], [ 103.7857, 11.569 ], [ 103.7873, 11.5681 ], [ 103.7877, 11.5712 ], [ 103.7902, 11.571 ], [ 103.7911, 11.5749 ], [ 103.7946, 11.5772 ], [ 103.7964, 11.5766 ], [ 103.8004, 11.5798 ], [ 103.8003, 11.5822 ], [ 103.8029, 11.5844 ], [ 103.8074, 11.5928 ], [ 103.8069, 11.5952 ], [ 103.8097, 11.6007 ], [ 103.8163, 11.6054 ], [ 103.8194, 11.6179 ], [ 103.8268, 11.6095 ], [ 103.8333, 11.6071 ], [ 103.8336, 11.6038 ], [ 103.8387, 11.5953 ], [ 103.8425, 11.5946 ], [ 103.845, 11.5906 ], [ 103.8512, 11.5896 ], [ 103.8634, 11.5794 ], [ 103.8606, 11.5732 ], [ 103.8634, 11.5744 ], [ 103.8662, 11.5715 ], [ 103.8767, 11.5666 ], [ 103.8823, 11.5671 ], [ 103.8881, 11.5581 ], [ 103.9054, 11.5558 ], [ 103.9142, 11.5508 ], [ 103.9165, 11.5455 ], [ 103.9166, 11.5371 ], [ 103.9226, 11.535 ], [ 103.9268, 11.5359 ], [ 103.9326, 11.5216 ], [ 103.938, 11.5163 ], [ 103.9483, 11.5171 ], [ 103.9529, 11.5198 ], [ 103.9543, 11.5173 ], [ 103.9579, 11.5166 ], [ 103.9692, 11.5247 ], [ 103.9779, 11.5274 ], [ 103.981, 11.5234 ], [ 103.9827, 11.5234 ], [ 103.9964, 11.5302 ], [ 104.0023, 11.5298 ], [ 104.0164, 11.5175 ], [ 104.0199, 11.513 ], [ 104.0251, 11.5013 ], [ 104.0304, 11.5003 ], [ 104.0386, 11.4947 ], [ 104.0415, 11.4949 ], [ 104.0456, 11.4978 ], [ 104.0532, 11.4954 ], [ 104.0598, 11.4818 ], [ 104.0645, 11.4587 ], [ 104.0607, 11.4539 ], [ 104.0528, 11.4515 ], [ 104.0479, 11.448 ], [ 104.0469, 11.4409 ], [ 104.0418, 11.4359 ], [ 103.9962, 11.4039 ], [ 103.987, 11.3993 ], [ 103.9723, 11.3849 ], [ 103.949, 11.354 ], [ 103.9029, 11.3017 ], [ 103.9006, 11.2966 ], [ 103.9024, 11.2896 ], [ 103.9009, 11.2832 ], [ 103.8945, 11.2776 ], [ 103.8872, 11.2756 ], [ 103.8843, 11.2733 ], [ 103.8865, 11.2704 ], [ 103.8848, 11.2688 ], [ 103.888, 11.2661 ], [ 103.8806, 11.2596 ], [ 103.877, 11.2596 ], [ 103.8748, 11.2543 ], [ 103.8718, 11.2524 ], [ 103.8736, 11.2462 ], [ 103.8722, 11.24 ], [ 103.8688, 11.2391 ], [ 103.8601, 11.2254 ], [ 103.8542, 11.2238 ], [ 103.8529, 11.2253 ], [ 103.8516, 11.2235 ], [ 103.8361, 11.2296 ], [ 103.8354, 11.2337 ], [ 103.8318, 11.2312 ], [ 103.8239, 11.2343 ], [ 103.8234, 11.2327 ], [ 103.8198, 11.2316 ], [ 103.8141, 11.2264 ], [ 103.8013, 11.2286 ], [ 103.7952, 11.2328 ], [ 103.7859, 11.2361 ], [ 103.7812, 11.2412 ], [ 103.7722, 11.281 ], [ 103.7669, 11.2964 ], [ 103.77, 11.3236 ], [ 103.7684, 11.3296 ], [ 103.771, 11.3355 ], [ 103.7716, 11.3443 ], [ 103.7651, 11.3529 ], [ 103.7644, 11.3584 ], [ 103.7614, 11.3594 ], [ 103.7568, 11.3585 ], [ 103.7569, 11.349 ], [ 103.7545, 11.348 ], [ 103.7532, 11.3442 ], [ 103.7546, 11.3409 ], [ 103.7518, 11.3353 ], [ 103.7492, 11.3333 ], [ 103.7527, 11.3242 ], [ 103.7553, 11.3217 ], [ 103.7537, 11.3207 ], [ 103.7537, 11.3168 ], [ 103.7567, 11.3143 ], [ 103.7569, 11.3063 ], [ 103.7545, 11.3019 ], [ 103.7517, 11.2991 ], [ 103.7315, 11.3292 ], [ 103.7243, 11.3248 ], [ 103.72, 11.326 ], [ 103.7142, 11.3249 ], [ 103.7066, 11.3102 ], [ 103.726, 11.3103 ], [ 103.7237, 11.296 ], [ 103.7166, 11.2959 ], [ 103.6951, 11.2632 ], [ 103.7009, 11.2624 ], [ 103.6886, 11.2456 ], [ 103.6739, 11.2474 ], [ 103.647, 11.2288 ], [ 103.5465, 11.2565 ], [ 103.5464, 11.2696 ], [ 103.5733, 11.2871 ], [ 103.5823, 11.2851 ], [ 103.6018, 11.3003 ], [ 103.601, 11.3035 ], [ 103.6029, 11.3083 ], [ 103.5981, 11.3119 ], [ 103.5995, 11.3173 ], [ 103.5916, 11.3368 ], [ 103.5915, 11.3425 ], [ 103.5876, 11.3556 ], [ 103.5649, 11.3588 ], [ 103.5578, 11.3559 ], [ 103.5555, 11.3604 ], [ 103.5486, 11.3603 ], [ 103.5501, 11.366 ], [ 103.5414, 11.3685 ], [ 103.5337, 11.382 ], [ 103.5304, 11.3834 ], [ 103.5267, 11.3828 ], [ 103.5318, 11.3882 ], [ 103.5309, 11.3921 ], [ 103.5274, 11.3918 ], [ 103.5245, 11.3884 ], [ 103.5194, 11.3901 ], [ 103.5202, 11.4001 ], [ 103.5177, 11.4045 ], [ 103.5203, 11.4142 ], [ 103.5188, 11.4155 ], [ 103.5135, 11.4151 ], [ 103.5096, 11.4247 ], [ 103.5198, 11.4355 ], [ 103.5196, 11.4398 ], [ 103.5184, 11.4458 ], [ 103.5116, 11.4489 ], [ 103.5102, 11.4553 ], [ 103.5074, 11.4575 ], [ 103.5085, 11.4638 ], [ 103.5104, 11.4665 ], [ 103.5101, 11.4741 ], [ 103.5137, 11.4841 ], [ 103.5144, 11.4921 ], [ 103.5127, 11.4948 ], [ 103.507, 11.4967 ], [ 103.5063, 11.5015 ], [ 103.5105, 11.5128 ], [ 103.5121, 11.513 ], [ 103.5142, 11.5169 ], [ 103.4048, 11.5165 ], [ 103.403, 11.5156 ], [ 103.4025, 11.5125 ], [ 103.3989, 11.5078 ], [ 103.3953, 11.5075 ], [ 103.3901, 11.5032 ], [ 103.3856, 11.5039 ], [ 103.3826, 11.5071 ], [ 103.3804, 11.5058 ], [ 103.3835, 11.4971 ], [ 103.3843, 11.4895 ], [ 103.3882, 11.4834 ], [ 103.3897, 11.4754 ], [ 103.3879, 11.4724 ], [ 103.3769, 11.4809 ], [ 103.3713, 11.478 ], [ 103.368, 11.4736 ], [ 103.3649, 11.4721 ], [ 103.3463, 11.4752 ], [ 103.3389, 11.4675 ], [ 103.3343, 11.4735 ], [ 103.337, 11.4756 ], [ 103.3356, 11.4788 ], [ 103.3324, 11.4792 ], [ 103.3245, 11.4738 ], [ 103.3194, 11.477 ], [ 103.3156, 11.4761 ], [ 103.3103, 11.4794 ], [ 103.3055, 11.4738 ], [ 103.299, 11.4807 ], [ 103.2962, 11.4819 ], [ 103.2935, 11.4807 ], [ 103.2965, 11.4748 ], [ 103.2938, 11.4718 ], [ 103.2923, 11.4666 ], [ 103.2882, 11.4672 ], [ 103.2811, 11.473 ], [ 103.2778, 11.4735 ], [ 103.2757, 11.472 ], [ 103.2739, 11.4675 ], [ 103.2746, 11.4585 ], [ 103.2687, 11.4595 ], [ 103.2671, 11.4639 ], [ 103.2693, 11.4673 ], [ 103.2663, 11.4707 ], [ 103.2681, 11.4765 ], [ 103.2738, 11.4819 ], [ 103.2702, 11.4855 ], [ 103.2714, 11.4865 ], [ 103.2721, 11.4978 ], [ 103.2768, 11.5006 ], [ 103.2796, 11.4983 ], [ 103.2824, 11.4983 ], [ 103.284, 11.502 ], [ 103.2908, 11.502 ], [ 103.2952, 11.5036 ], [ 103.2994, 11.506 ], [ 103.3011, 11.5091 ], [ 103.3038, 11.5088 ], [ 103.3063, 11.5105 ], [ 103.3094, 11.5189 ], [ 103.3213, 11.5245 ], [ 103.3274, 11.5254 ], [ 103.3323, 11.5291 ], [ 103.3359, 11.5285 ], [ 103.3428, 11.538 ], [ 103.3414, 11.5429 ], [ 103.3451, 11.5528 ], [ 103.3444, 11.5553 ], [ 103.3469, 11.5584 ], [ 103.3466, 11.5647 ], [ 103.3505, 11.567 ], [ 103.2933, 11.6674 ], [ 103.2931, 11.6614 ], [ 103.2858, 11.658 ], [ 103.2802, 11.6525 ], [ 103.2809, 11.647 ], [ 103.2798, 11.6442 ], [ 103.2682, 11.6463 ], [ 103.2641, 11.6421 ], [ 103.2565, 11.646 ], [ 103.2577, 11.6532 ], [ 103.2533, 11.6529 ], [ 103.2491, 11.6498 ], [ 103.2524, 11.6478 ], [ 103.2541, 11.6442 ], [ 103.2493, 11.6373 ], [ 103.2437, 11.6345 ] ] ], [ [ [ 103.8813, 11.173 ], [ 103.8801, 11.1736 ], [ 103.8798, 11.1738 ], [ 103.8813, 11.173 ] ] ], [ [ [ 103.8783, 11.1739 ], [ 103.8782, 11.174 ], [ 103.8786, 11.1739 ], [ 103.8783, 11.1739 ] ] ], [ [ [ 103.8775, 11.175 ], [ 103.8773, 11.1755 ], [ 103.8775, 11.176 ], [ 103.8775, 11.175 ] ] ], [ [ [ 103.8774, 11.1774 ], [ 103.8772, 11.1789 ], [ 103.8775, 11.177 ], [ 103.8774, 11.1774 ] ] ], [ [ [ 103.8765, 11.1793 ], [ 103.8749, 11.1799 ], [ 103.8747, 11.18 ], [ 103.8765, 11.1793 ] ] ], [ [ [ 103.8747, 11.18 ], [ 103.8736, 11.1812 ], [ 103.8742, 11.1826 ], [ 103.8747, 11.18 ] ] ], [ [ [ 103.8744, 11.1831 ], [ 103.8742, 11.1841 ], [ 103.8747, 11.185 ], [ 103.8744, 11.1831 ] ] ], [ [ [ 103.8742, 11.1865 ], [ 103.8734, 11.1891 ], [ 103.8731, 11.1912 ], [ 103.8742, 11.1865 ] ] ], [ [ [ 103.8727, 11.1928 ], [ 103.8723, 11.194 ], [ 103.8723, 11.1944 ], [ 103.8727, 11.1928 ] ] ], [ [ [ 103.8717, 11.1956 ], [ 103.8714, 11.1961 ], [ 103.8713, 11.1967 ], [ 103.8717, 11.1956 ] ] ], [ [ [ 103.8705, 11.1983 ], [ 103.8697, 11.1991 ], [ 103.8697, 11.1997 ], [ 103.8705, 11.1983 ] ] ], [ [ [ 103.8688, 11.2003 ], [ 103.8682, 11.2015 ], [ 103.8686, 11.2021 ], [ 103.8685, 11.2016 ], [ 103.8688, 11.2003 ] ] ], [ [ [ 103.8688, 11.2026 ], [ 103.8684, 11.2039 ], [ 103.8688, 11.205 ], [ 103.8688, 11.2026 ] ] ], [ [ [ 103.8683, 11.2063 ], [ 103.8684, 11.2062 ], [ 103.8684, 11.206 ], [ 103.8683, 11.2063 ] ] ], [ [ [ 103.8678, 11.2066 ], [ 103.8666, 11.2073 ], [ 103.8661, 11.2078 ], [ 103.8678, 11.2066 ] ] ], [ [ [ 103.8661, 11.2078 ], [ 103.8633, 11.2098 ], [ 103.8629, 11.2106 ], [ 103.8634, 11.2118 ], [ 103.8635, 11.2099 ], [ 103.8661, 11.2078 ] ] ], [ [ [ 103.8635, 11.2124 ], [ 103.8607, 11.2136 ], [ 103.8595, 11.215 ], [ 103.858, 11.2171 ], [ 103.8635, 11.2124 ] ] ], [ [ [ 103.8577, 11.2175 ], [ 103.855, 11.219 ], [ 103.8538, 11.2203 ], [ 103.8577, 11.2175 ] ] ], [ [ [ 103.8517, 11.2219 ], [ 103.8518, 11.2211 ], [ 103.8516, 11.2214 ], [ 103.8517, 11.2219 ] ] ] ] } },
{ "type": "Feature", "properties": { "Name_E": "Central Cardamom", "PA_TYPE": "National Park" }, "geometry": { "type": "Polygon", "coordinates": [ [ [ 103.8569, 11.8441 ], [ 103.8481, 11.8416 ], [ 103.8397, 11.8365 ], [ 103.8283, 11.8358 ], [ 103.8223, 11.8386 ], [ 103.8065, 11.8403 ], [ 103.7878, 11.8509 ], [ 103.7842, 11.8494 ], [ 103.7849, 11.8436 ], [ 103.7818, 11.8393 ], [ 103.7807, 11.8326 ], [ 103.7824, 11.8293 ], [ 103.7838, 11.8102 ], [ 103.7859, 11.8063 ], [ 103.7929, 11.8032 ], [ 103.7928, 11.7914 ], [ 103.7915, 11.7861 ], [ 103.7785, 11.7787 ], [ 103.7735, 11.7741 ], [ 103.7732, 11.7688 ], [ 103.783, 11.7508 ], [ 103.7808, 11.7445 ], [ 103.7755, 11.7387 ], [ 103.7738, 11.72 ], [ 103.7775, 11.7086 ], [ 103.782, 11.7022 ], [ 103.7903, 11.6967 ], [ 103.7979, 11.6882 ], [ 103.802, 11.6784 ], [ 103.8029, 11.6661 ], [ 103.7968, 11.6538 ], [ 103.7951, 11.6397 ], [ 103.7961, 11.6326 ], [ 103.795, 11.6229 ], [ 103.8067, 11.6223 ], [ 103.8194, 11.6179 ], [ 103.8163, 11.6054 ], [ 103.8097, 11.6007 ], [ 103.8069, 11.5952 ], [ 103.8074, 11.5928 ], [ 103.8029, 11.5844 ], [ 103.8003, 11.5822 ], [ 103.8004, 11.5798 ], [ 103.7964, 11.5766 ], [ 103.7946, 11.5772 ], [ 103.7911, 11.5749 ], [ 103.7902, 11.571 ], [ 103.7877, 11.5712 ], [ 103.7873, 11.5681 ], [ 103.7857, 11.569 ], [ 103.7818, 11.5655 ], [ 103.7784, 11.5647 ], [ 103.7774, 11.5615 ], [ 103.7751, 11.5606 ], [ 103.7735, 11.562 ], [ 103.7741, 11.5632 ], [ 103.7713, 11.5634 ], [ 103.7682, 11.5663 ], [ 103.7694, 11.5681 ], [ 103.7673, 11.5696 ], [ 103.7616, 11.569 ], [ 103.7546, 11.5723 ], [ 103.7461, 11.5721 ], [ 103.7349, 11.575 ], [ 103.7314, 11.5733 ], [ 103.7285, 11.5682 ], [ 103.7255, 11.566 ], [ 103.7193, 11.565 ], [ 103.7153, 11.558 ], [ 103.7113, 11.5548 ], [ 103.7041, 11.5513 ], [ 103.705, 11.5472 ], [ 103.7029, 11.5455 ], [ 103.6892, 11.5539 ], [ 103.6852, 11.5546 ], [ 103.6766, 11.5515 ], [ 103.6736, 11.5534 ], [ 103.6692, 11.5509 ], [ 103.6654, 11.552 ], [ 103.6517, 11.55 ], [ 103.6473, 11.5468 ], [ 103.6454, 11.5424 ], [ 103.6454, 11.5336 ], [ 103.6393, 11.5277 ], [ 103.6381, 11.5233 ], [ 103.6345, 11.5241 ], [ 103.6331, 11.5187 ], [ 103.6307, 11.5181 ], [ 103.6254, 11.5196 ], [ 103.6204, 11.5253 ], [ 103.6211, 11.5308 ], [ 103.6174, 11.5384 ], [ 103.6184, 11.5415 ], [ 103.6175, 11.548 ], [ 103.6015, 11.5509 ], [ 103.5989, 11.5584 ], [ 103.5914, 11.559 ], [ 103.5904, 11.5642 ], [ 103.5858, 11.5693 ], [ 103.5816, 11.5712 ], [ 103.5795, 11.5703 ], [ 103.5784, 11.5716 ], [ 103.5771, 11.5701 ], [ 103.5729, 11.571 ], [ 103.5692, 11.576 ], [ 103.5701, 11.581 ], [ 103.5742, 11.585 ], [ 103.5727, 11.5859 ], [ 103.5736, 11.5901 ], [ 103.5722, 11.5941 ], [ 103.5748, 11.5973 ], [ 103.5778, 11.5976 ], [ 103.579, 11.6004 ], [ 103.5774, 11.6049 ], [ 103.5724, 11.6086 ], [ 103.5701, 11.6134 ], [ 103.5656, 11.618 ], [ 103.5572, 11.6151 ], [ 103.549, 11.6155 ], [ 103.551, 11.6192 ], [ 103.551, 11.6225 ], [ 103.5489, 11.6244 ], [ 103.5449, 11.6246 ], [ 103.5377, 11.6325 ], [ 103.5414, 11.6368 ], [ 103.5419, 11.641 ], [ 103.5463, 11.6429 ], [ 103.5492, 11.6425 ], [ 103.5474, 11.6381 ], [ 103.551, 11.6388 ], [ 103.5527, 11.634 ], [ 103.5567, 11.6375 ], [ 103.5597, 11.6382 ], [ 103.5632, 11.6461 ], [ 103.5655, 11.6444 ], [ 103.5655, 11.6404 ], [ 103.568, 11.6377 ], [ 103.5696, 11.6377 ], [ 103.5693, 11.6419 ], [ 103.5712, 11.6473 ], [ 103.5781, 11.6471 ], [ 103.5806, 11.6509 ], [ 103.5856, 11.6498 ], [ 103.588, 11.6553 ], [ 103.605, 11.6577 ], [ 103.6077, 11.6606 ], [ 103.6057, 11.6648 ], [ 103.6061, 11.6671 ], [ 103.6089, 11.6672 ], [ 103.6138, 11.6719 ], [ 103.6179, 11.6724 ], [ 103.6176, 11.6876 ], [ 103.6207, 11.6855 ], [ 103.6241, 11.6869 ], [ 103.6219, 11.6916 ], [ 103.623, 11.6957 ], [ 103.6296, 11.6982 ], [ 103.6307, 11.7019 ], [ 103.6266, 11.7023 ], [ 103.6256, 11.706 ], [ 103.6279, 11.7066 ], [ 103.631, 11.7052 ], [ 103.6322, 11.7064 ], [ 103.6276, 11.7112 ], [ 103.63, 11.7146 ], [ 103.6298, 11.7175 ], [ 103.6236, 11.7229 ], [ 103.6232, 11.7245 ], [ 103.6266, 11.7276 ], [ 103.6224, 11.7298 ], [ 103.6219, 11.7317 ], [ 103.6254, 11.7367 ], [ 103.6234, 11.7402 ], [ 103.6239, 11.7436 ], [ 103.6284, 11.7478 ], [ 103.6267, 11.7512 ], [ 103.628, 11.7533 ], [ 103.6305, 11.753 ], [ 103.6292, 11.7543 ], [ 103.6304, 11.7559 ], [ 103.6273, 11.7583 ], [ 103.6306, 11.7586 ], [ 103.6334, 11.761 ], [ 103.6279, 11.7612 ], [ 103.6271, 11.765 ], [ 103.6292, 11.7677 ], [ 103.6191, 11.7755 ], [ 103.6181, 11.7746 ], [ 103.6152, 11.7758 ], [ 103.6035, 11.7914 ], [ 103.5991, 11.7928 ], [ 103.5958, 11.7988 ], [ 103.5879, 11.8035 ], [ 103.5858, 11.807 ], [ 103.5871, 11.8095 ], [ 103.5828, 11.8142 ], [ 103.5632, 11.7935 ], [ 103.5623, 11.7882 ], [ 103.5585, 11.7853 ], [ 103.5582, 11.7811 ], [ 103.5529, 11.7771 ], [ 103.5532, 11.773 ], [ 103.5487, 11.7721 ], [ 103.5481, 11.7703 ], [ 103.5442, 11.7718 ], [ 103.5425, 11.7691 ], [ 103.5329, 11.7648 ], [ 103.5306, 11.7615 ], [ 103.5315, 11.7592 ], [ 103.53, 11.7594 ], [ 103.5269, 11.7552 ], [ 103.5265, 11.7496 ], [ 103.5241, 11.75 ], [ 103.5187, 11.7479 ], [ 103.5145, 11.7444 ], [ 103.5133, 11.7416 ], [ 103.5082, 11.7405 ], [ 103.5066, 11.7435 ], [ 103.5043, 11.7409 ], [ 103.4952, 11.7399 ], [ 103.4915, 11.7349 ], [ 103.4923, 11.73 ], [ 103.4885, 11.7304 ], [ 103.488, 11.7271 ], [ 103.4835, 11.7254 ], [ 103.4818, 11.7216 ], [ 103.4787, 11.7211 ], [ 103.4763, 11.7169 ], [ 103.4756, 11.7184 ], [ 103.4737, 11.7173 ], [ 103.4655, 11.7204 ], [ 103.4613, 11.7174 ], [ 103.4583, 11.7126 ], [ 103.4477, 11.7126 ], [ 103.4457, 11.7092 ], [ 103.4465, 11.7066 ], [ 103.4414, 11.703 ], [ 103.4381, 11.7034 ], [ 103.4321, 11.6969 ], [ 103.4309, 11.6936 ], [ 103.4341, 11.691 ], [ 103.4278, 11.6881 ], [ 103.4259, 11.6832 ], [ 103.4189, 11.6836 ], [ 103.4136, 11.6756 ], [ 103.4074, 11.6731 ], [ 103.4045, 11.674 ], [ 103.3987, 11.6892 ], [ 103.3996, 11.6923 ], [ 103.4089, 11.7041 ], [ 103.4068, 11.7091 ], [ 103.3946, 11.7163 ], [ 103.3798, 11.7196 ], [ 103.3781, 11.7222 ], [ 103.37, 11.7261 ], [ 103.3681, 11.7229 ], [ 103.359, 11.7193 ], [ 103.3567, 11.721 ], [ 103.3566, 11.7247 ], [ 103.3534, 11.729 ], [ 103.3465, 11.7252 ], [ 103.3412, 11.7285 ], [ 103.331, 11.7186 ], [ 103.3273, 11.722 ], [ 103.3234, 11.732 ], [ 103.3204, 11.7342 ], [ 103.3259, 11.7388 ], [ 103.3269, 11.7419 ], [ 103.3252, 11.7483 ], [ 103.3262, 11.7549 ], [ 103.3334, 11.7623 ], [ 103.3287, 11.7667 ], [ 103.3265, 11.7678 ], [ 103.3241, 11.7669 ], [ 103.3202, 11.7719 ], [ 103.3141, 11.769 ], [ 103.3093, 11.7688 ], [ 103.3055, 11.7697 ], [ 103.3007, 11.7732 ], [ 103.2965, 11.7726 ], [ 103.291, 11.7751 ], [ 103.279, 11.7769 ], [ 103.2757, 11.7759 ], [ 103.2686, 11.7702 ], [ 103.2687, 11.7785 ], [ 103.2647, 11.7882 ], [ 103.2652, 11.7916 ], [ 103.2584, 11.7987 ], [ 103.2556, 11.8053 ], [ 103.2607, 11.8099 ], [ 103.2618, 11.8163 ], [ 103.2663, 11.8185 ], [ 103.2665, 11.8201 ], [ 103.2644, 11.822 ], [ 103.2386, 11.8272 ], [ 103.2361, 11.8313 ], [ 103.2378, 11.8338 ], [ 103.2356, 11.838 ], [ 103.239, 11.8401 ], [ 103.2392, 11.8431 ], [ 103.2455, 11.8478 ], [ 103.244, 11.8523 ], [ 103.2476, 11.8663 ], [ 103.2465, 11.8726 ], [ 103.25, 11.8791 ], [ 103.2477, 11.8833 ], [ 103.2488, 11.8889 ], [ 103.2502, 11.8902 ], [ 103.2596, 11.8917 ], [ 103.2506, 11.9018 ], [ 103.2442, 11.9047 ], [ 103.2418, 11.9097 ], [ 103.2332, 11.9136 ], [ 103.228, 11.914 ], [ 103.228, 11.9256 ], [ 103.2313, 11.9303 ], [ 103.229, 11.9311 ], [ 103.2244, 11.93 ], [ 103.2214, 11.9348 ], [ 103.2242, 11.9462 ], [ 103.2266, 11.9496 ], [ 103.2238, 11.956 ], [ 103.2301, 11.962 ], [ 103.2285, 11.9694 ], [ 103.2302, 11.9752 ], [ 103.2345, 11.9766 ], [ 103.2413, 11.9755 ], [ 103.2446, 11.9765 ], [ 103.2464, 11.9745 ], [ 103.2533, 11.9732 ], [ 103.2571, 11.9781 ], [ 103.2566, 11.982 ], [ 103.2632, 11.9841 ], [ 103.2681, 11.9884 ], [ 103.2716, 11.9892 ], [ 103.2905, 11.9797 ], [ 103.2947, 11.9815 ], [ 103.296, 11.9853 ], [ 103.3115, 11.9857 ], [ 103.3163, 11.9935 ], [ 103.3196, 12.0089 ], [ 103.3279, 12.0148 ], [ 103.3304, 12.0192 ], [ 103.3324, 12.0196 ], [ 103.3343, 12.0181 ], [ 103.3381, 12.0201 ], [ 103.3444, 12.0246 ], [ 103.3462, 12.0278 ], [ 103.3494, 12.027 ], [ 103.3541, 12.0291 ], [ 103.3589, 12.0284 ], [ 103.3636, 12.0312 ], [ 103.3609, 12.0456 ], [ 103.3643, 12.0613 ], [ 103.367, 12.0618 ], [ 103.3725, 12.0689 ], [ 103.3766, 12.0712 ], [ 103.3832, 12.0699 ], [ 103.3868, 12.0719 ], [ 103.386, 12.074 ], [ 103.3825, 12.0759 ], [ 103.3848, 12.0814 ], [ 103.3823, 12.0841 ], [ 103.3809, 12.0891 ], [ 103.3838, 12.0924 ], [ 103.3818, 12.0945 ], [ 103.3821, 12.097 ], [ 103.3896, 12.1035 ], [ 103.3918, 12.108 ], [ 103.4001, 12.1088 ], [ 103.4031, 12.1035 ], [ 103.4132, 12.1019 ], [ 103.4146, 12.0965 ], [ 103.4198, 12.0957 ], [ 103.4207, 12.0929 ], [ 103.423, 12.0914 ], [ 103.4268, 12.0913 ], [ 103.4334, 12.0867 ], [ 103.4356, 12.088 ], [ 103.4369, 12.0912 ], [ 103.4486, 12.0942 ], [ 103.4543, 12.0979 ], [ 103.4543, 12.0998 ], [ 103.4584, 12.1008 ], [ 103.4652, 12.1103 ], [ 103.4679, 12.1116 ], [ 103.47, 12.1161 ], [ 103.4757, 12.1159 ], [ 103.4811, 12.1109 ], [ 103.4815, 12.1075 ], [ 103.4842, 12.1087 ], [ 103.4863, 12.1067 ], [ 103.4903, 12.099 ], [ 103.4918, 12.0985 ], [ 103.4941, 12.101 ], [ 103.5074, 12.1057 ], [ 103.5137, 12.1045 ], [ 103.5201, 12.1011 ], [ 103.523, 12.0973 ], [ 103.5298, 12.0988 ], [ 103.5375, 12.095 ], [ 103.541, 12.0904 ], [ 103.5375, 12.0883 ], [ 103.5365, 12.0849 ], [ 103.5473, 12.0786 ], [ 103.5493, 12.0754 ], [ 103.5596, 12.0711 ], [ 103.5638, 12.0655 ], [ 103.5683, 12.0669 ], [ 103.5719, 12.0566 ], [ 103.5837, 12.0532 ], [ 103.5907, 12.0408 ], [ 103.5946, 12.0397 ], [ 103.5965, 12.0361 ], [ 103.6004, 12.0336 ], [ 103.6046, 12.0242 ], [ 103.6114, 12.0198 ], [ 103.6185, 12.019 ], [ 103.6336, 12.0136 ], [ 103.6372, 12.0065 ], [ 103.636, 12.002 ], [ 103.6278, 11.9946 ], [ 103.6337, 11.9917 ], [ 103.6369, 11.9857 ], [ 103.6392, 11.9849 ], [ 103.644, 11.9865 ], [ 103.6497, 11.9837 ], [ 103.6498, 11.9796 ], [ 103.6532, 11.9787 ], [ 103.6554, 11.9748 ], [ 103.6667, 11.9721 ], [ 103.6744, 11.9657 ], [ 103.6932, 11.9651 ], [ 103.6969, 11.9633 ], [ 103.6998, 11.9549 ], [ 103.7002, 11.9466 ], [ 103.6945, 11.9415 ], [ 103.6997, 11.9387 ], [ 103.7084, 11.9368 ], [ 103.7106, 11.9316 ], [ 103.7134, 11.9294 ], [ 103.7218, 11.9277 ], [ 103.731, 11.9349 ], [ 103.7412, 11.9401 ], [ 103.7482, 11.9318 ], [ 103.7571, 11.9261 ], [ 103.7642, 11.9258 ], [ 103.7708, 11.934 ], [ 103.7759, 11.9315 ], [ 103.784, 11.9328 ], [ 103.789, 11.9314 ], [ 103.7971, 11.9235 ], [ 103.7978, 11.9161 ], [ 103.8013, 11.9108 ], [ 103.8049, 11.9072 ], [ 103.8089, 11.909 ], [ 103.8141, 11.901 ], [ 103.8149, 11.8953 ], [ 103.8185, 11.8937 ], [ 103.8212, 11.8886 ], [ 103.8307, 11.8802 ], [ 103.8356, 11.8727 ], [ 103.8361, 11.8691 ], [ 103.8383, 11.8666 ], [ 103.8381, 11.8615 ], [ 103.8422, 11.8546 ], [ 103.8483, 11.8535 ], [ 103.8569, 11.8441 ] ] ] } },
{ "type": "Feature", "properties": { "Name_E": "Phnom Aural", "PA_TYPE": "Wildlife Sanctuary" }, "geometry": { "type": "Polygon", "coordinates": [ [ [ 103.8481, 11.8414 ], [ 103.8569, 11.8441 ], [ 103.8577, 11.8433 ], [ 103.8481, 11.8414 ] ] ] } },
{ "type": "Feature", "properties": { "Name_E": "Phnom Somkos", "PA_TYPE": "Wildlife Sanctuary" }, "geometry": { "type": "MultiPolygon", "coordinates": [ [ [ [ 103.0097, 11.9917 ], [ 103.0097, 11.9917 ], [ 103.0111, 11.9912 ], [ 103.0097, 11.9917 ] ] ], [ [ [ 102.9964, 11.9961 ], [ 102.9789, 11.9915 ], [ 102.9749, 11.992 ], [ 102.9743, 11.9957 ], [ 102.9692, 12.0012 ], [ 102.9579, 12.0032 ], [ 102.9203, 12.0021 ], [ 102.9216, 11.9861 ], [ 102.919, 11.983 ], [ 102.9212, 11.9744 ], [ 102.9165, 11.9572 ], [ 102.9088, 11.9514 ], [ 102.9078, 11.9467 ], [ 102.9042, 11.944 ], [ 102.896, 11.9455 ], [ 102.8948, 11.942 ], [ 102.8906, 11.9428 ], [ 102.8899, 11.941 ], [ 102.8819, 11.9365 ], [ 102.8762, 11.9374 ], [ 102.8717, 11.9357 ], [ 102.8588, 11.9354 ], [ 102.8555, 11.9286 ], [ 102.8549, 11.9172 ], [ 102.8514, 11.9108 ], [ 102.8488, 11.9096 ], [ 102.851, 11.904 ], [ 102.8465, 11.8912 ], [ 102.8536, 11.8831 ], [ 102.8576, 11.8713 ], [ 102.8595, 11.8598 ], [ 102.8691, 11.8605 ], [ 102.8746, 11.8546 ], [ 102.8743, 11.8493 ], [ 102.8644, 11.8406 ], [ 102.869, 11.8388 ], [ 102.8718, 11.834 ], [ 102.8768, 11.8318 ], [ 102.8831, 11.8309 ], [ 102.8881, 11.8321 ], [ 102.8933, 11.8295 ], [ 102.8963, 11.8178 ], [ 102.9029, 11.8117 ], [ 102.8919, 11.8072 ], [ 102.8856, 11.7998 ], [ 102.8676, 11.8056 ], [ 102.8629, 11.8126 ], [ 102.864, 11.8164 ], [ 102.862, 11.8197 ], [ 102.8624, 11.824 ], [ 102.8598, 11.8265 ], [ 102.8531, 11.8264 ], [ 102.8488, 11.8328 ], [ 102.8454, 11.8446 ], [ 102.8361, 11.8521 ], [ 102.8256, 11.8734 ], [ 102.8198, 11.8924 ], [ 102.8224, 11.908 ], [ 102.8186, 11.9128 ], [ 102.8199, 11.9164 ], [ 102.8134, 11.9231 ], [ 102.8161, 11.9332 ], [ 102.8094, 11.945 ], [ 102.8006, 11.9493 ], [ 102.7964, 11.957 ], [ 102.7972, 11.9614 ], [ 102.7907, 11.9772 ], [ 102.7844, 11.9774 ], [ 102.7765, 12.0069 ], [ 102.7761, 12.0138 ], [ 102.7794, 12.0219 ], [ 102.7976, 12.0136 ], [ 102.9726, 12.0023 ], [ 102.9964, 11.9961 ] ] ] ] } }
]
}
