{
"type": "FeatureCollection",
"name": "province",
"crs": { "type": "name", "properties": { "name": "urn:ogc:def:crs:OGC:1.3:CRS84" } },
"xy_coordinate_resolution": 0.0001,
"features": [
{ "type": "Feature", "properties": { "Name_KH": "កោះកុង" }, "geometry": { "type": "MultiPolygon", "coordinates": [ [ [ [ 103.2009, 10.8066 ], [ 103.2032, 10.8066 ], [ 103.2069, 10.805 ], [ 103.2014, 10.8039 ], [ 103.1943, 10.8006 ], [ 103.1922, 10.8017 ], [ 103.1921, 10.8048 ], [ 103.193, 10.8053 ], [ 103.1944, 10.8053 ], [ 103.1988, 10.8078 ], [ 103.2009, 10.8066 ] ] ], [ [ [ 103.1852, 10.8341 ], [ 103.188, 10.8336 ], [ 103.1891, 10.8325 ], [ 103.1887, 10.8308 ], [ 103.1901, 10.827 ], [ 103.1925, 10.8272 ], [ 103.1945, 10.8259 ], [ 103.1967, 10.8259 ], [ 103.1972, 10.8232 ], [ 103.1963, 10.8211 ], [ 103.1911, 10.8202 ], [ 103.189, 10.8186 ], [ 103.1806, 10.8187 ], [ 103.1766, 10.8168 ], [ 103.1736, 10.8185 ], [ 103.1711, 10.8213 ], [ 103.1658, 10.8311 ], [ 103.1673, 10.8325 ], [ 103.1678, 10.8309 ], [ 103.1684, 10.8318 ], [ 103.1697, 10.8301 ], [ 103.1733, 10.8299 ], [ 103.1763, 10.8325 ], [ 103.1801, 10.8331 ], [ 103.1833, 10.8369 ], [ 103.1842, 10.8368 ], [ 103.1852, 10.8341 ] ] ], [ [ [ 103.1735, 10.8365 ], [ 103.1715, 10.8362 ], [ 103.1712, 10.8379 ], [ 103.1747, 10.8414 ], [ 103.1756, 10.8403 ], [ 103.1735, 10.8365 ] ] ], [ [ [ 103.1564, 10.849 ], [ 103.153, 10.8498 ], [ 103.1529, 10.8515 ], [ 103.1547, 10.8504 ], [ 103.1564, 10.849 ] ] ], [ [ [ 103.2146, 10.8812 ], [ 103.2176, 10.8811 ], [ 103.2161, 10.8807 ], [ 103.2146, 10.8812 ] ] ], [ [ [ 103.2201, 10.8822 ], [ 103.2202, 10.8814 ], [ 103.2196, 10.8817 ], [ 103.2201, 10.8822 ] ] ], [ [ [ 103.0842, 10.8978 ], [ 103.0855, 10.8956 ], [ 103.0904, 10.8945 ], [ 103.091, 10.8893 ], [ 103.0882, 10.8882 ], [ 103.0804, 10.889 ], [ 103.078, 10.8878 ], [ 103.0697, 10.8881 ], [ 103.0666, 10.8898 ], [ 103.0684, 10.8932 ], [ 103.0688, 10.8977 ], [ 103.0706, 10.8981 ], [ 103.0722, 10.9003 ], [ 103.0716, 10.9044 ], [ 103.0728, 10.906 ], [ 103.075, 10.9057 ], [ 103.0842, 10.8978 ] ] ], [ [ [ 103.068, 10.9101 ], [ 103.0635, 10.9089 ], [ 103.0625, 10.9067 ], [ 103.0599, 10.905 ], [ 103.0576, 10.9064 ], [ 103.0574, 10.9101 ], [ 103.0625, 10.9094 ], [ 103.0656, 10.911 ], [ 103.0679, 10.9109 ], [ 103.068, 10.9101 ] ] ], [ [ [ 103.0574, 10.9124 ], [ 103.0572, 10.9111 ], [ 103.0553, 10.9117 ], [ 103.0554, 10.9122 ], [ 103.0574, 10.9124 ] ] ], [ [ [ 103.0548, 10.9132 ], [ 103.0502, 10.9124 ], [ 103.05, 10.9131 ], [ 103.0513, 10.9158 ], [ 103.053, 10.9155 ], [ 103.0532, 10.9137 ], [ 103.0548, 10.9132 ] ] ], [ [ [ 103.066, 10.9282 ], [ 103.0655, 10.9267 ], [ 103.0617, 10.9266 ], [ 103.064, 10.9293 ], [ 103.066, 10.9282 ] ] ], [ [ [ 103.0794, 10.9384 ], [ 103.0765, 10.9362 ], [ 103.0744, 10.9322 ], [ 103.0751, 10.9307 ], [ 103.074, 10.929 ], [ 103.0709, 10.9257 ], [ 103.0691, 10.9256 ], [ 103.0687, 10.9275 ], [ 103.0725, 10.9323 ], [ 103.0716, 10.9332 ], [ 103.072, 10.9375 ], [ 103.0749, 10.9393 ], [ 103.0765, 10.9433 ], [ 103.0797, 10.9454 ], [ 103.0807, 10.9434 ], [ 103.0794, 10.9384 ] ] ], [ [ [ 103.0571, 10.9613 ], [ 103.0536, 10.9545 ], [ 103.05, 10.9542 ], [ 103.0469, 10.9559 ], [ 103.0505, 10.9607 ], [ 103.0571, 10.9613 ] ] ], [ [ [ 103.078, 10.9824 ], [ 103.0803, 10.981 ], [ 103.0791, 10.979 ], [ 103.0743, 10.9771 ], [ 103.0712, 10.977 ], [ 103.0695, 10.9759 ], [ 103.0686, 10.9721 ], [ 103.0671, 10.9722 ], [ 103.0657, 10.9742 ], [ 103.0679, 10.9762 ], [ 103.0702, 10.9811 ], [ 103.0727, 10.9823 ], [ 103.078, 10.9824 ] ] ], [ [ [ 103.0921, 11.0522 ], [ 103.0888, 11.0506 ], [ 103.0867, 11.0523 ], [ 103.0879, 11.0537 ], [ 103.0897, 11.0539 ], [ 103.0921, 11.0522 ] ] ], [ [ [ 103.0717, 11.0588 ], [ 103.0706, 11.0593 ], [ 103.0701, 11.0621 ], [ 103.0713, 11.063 ], [ 103.0735, 11.0609 ], [ 103.0717, 11.0588 ] ] ], [ [ [ 103.0827, 11.0604 ], [ 103.0786, 11.0599 ], [ 103.0779, 11.061 ], [ 103.0846, 11.0656 ], [ 103.0827, 11.0604 ] ] ], [ [ [ 102.9825, 11.418 ], [ 102.9855, 11.4186 ], [ 102.987, 11.417 ], [ 102.9842, 11.4104 ], [ 102.9852, 11.4076 ], [ 102.9867, 11.408 ], [ 102.9871, 11.4065 ], [ 102.988, 11.4066 ], [ 102.9889, 11.4092 ], [ 102.9915, 11.4091 ], [ 102.9955, 11.4106 ], [ 102.9977, 11.4141 ], [ 102.9994, 11.4156 ], [ 103.0007, 11.4155 ], [ 103.004, 11.4188 ], [ 103.0075, 11.4177 ], [ 103.0142, 11.4189 ], [ 103.0157, 11.4166 ], [ 103.0174, 11.4166 ], [ 103.0199, 11.4132 ], [ 103.0198, 11.4115 ], [ 103.0208, 11.411 ], [ 103.0204, 11.4093 ], [ 103.0232, 11.4064 ], [ 103.0231, 11.4032 ], [ 103.0218, 11.4012 ], [ 103.0233, 11.4004 ], [ 103.0234, 11.399 ], [ 103.0283, 11.3908 ], [ 103.0283, 11.3889 ], [ 103.0335, 11.381 ], [ 103.0332, 11.379 ], [ 103.0345, 11.3764 ], [ 103.0346, 11.3739 ], [ 103.0315, 11.3676 ], [ 103.0306, 11.3612 ], [ 103.0299, 11.3608 ], [ 103.0309, 11.3602 ], [ 103.0281, 11.3527 ], [ 103.028, 11.3471 ], [ 103.0315, 11.3428 ], [ 103.0331, 11.342 ], [ 103.0339, 11.3389 ], [ 103.037, 11.3388 ], [ 103.0412, 11.3344 ], [ 103.0416, 11.3293 ], [ 103.039, 11.325 ], [ 103.0388, 11.3217 ], [ 103.0376, 11.3208 ], [ 103.0408, 11.3162 ], [ 103.0411, 11.3134 ], [ 103.0437, 11.3101 ], [ 103.0445, 11.3061 ], [ 103.0416, 11.301 ], [ 103.0426, 11.2936 ], [ 103.0408, 11.2915 ], [ 103.0408, 11.2889 ], [ 103.0393, 11.2851 ], [ 103.0377, 11.2821 ], [ 103.0364, 11.2814 ], [ 103.0342, 11.2762 ], [ 103.0344, 11.2749 ], [ 103.0331, 11.2749 ], [ 103.0324, 11.2759 ], [ 103.0315, 11.2753 ], [ 103.0345, 11.2716 ], [ 103.0327, 11.2693 ], [ 103.0313, 11.2641 ], [ 103.0279, 11.2597 ], [ 103.0254, 11.249 ], [ 103.0227, 11.2453 ], [ 103.0184, 11.2443 ], [ 103.0167, 11.2426 ], [ 103.0105, 11.2452 ], [ 103.009, 11.2486 ], [ 103.0063, 11.2512 ], [ 103.0005, 11.2487 ], [ 102.9999, 11.247 ], [ 102.9987, 11.2474 ], [ 103.0, 11.2517 ], [ 102.9975, 11.2562 ], [ 102.9943, 11.2571 ], [ 102.9902, 11.2541 ], [ 102.9889, 11.2546 ], [ 102.9883, 11.256 ], [ 102.9894, 11.2582 ], [ 102.9926, 11.2604 ], [ 102.9893, 11.2688 ], [ 102.9903, 11.27 ], [ 102.991, 11.2696 ], [ 102.9925, 11.2722 ], [ 102.9884, 11.2709 ], [ 102.9892, 11.2704 ], [ 102.9886, 11.2697 ], [ 102.9854, 11.2702 ], [ 102.9803, 11.276 ], [ 102.9811, 11.2769 ], [ 102.9857, 11.2773 ], [ 102.9861, 11.2783 ], [ 102.984, 11.2827 ], [ 102.9856, 11.2858 ], [ 102.9834, 11.2924 ], [ 102.9855, 11.2961 ], [ 102.9844, 11.301 ], [ 102.9811, 11.3023 ], [ 102.9809, 11.3054 ], [ 102.9848, 11.3117 ], [ 102.9871, 11.3128 ], [ 102.9883, 11.3167 ], [ 102.9905, 11.318 ], [ 102.9898, 11.3199 ], [ 102.9891, 11.3199 ], [ 102.9893, 11.322 ], [ 102.988, 11.3233 ], [ 102.9886, 11.3246 ], [ 102.9799, 11.3504 ], [ 102.9776, 11.3518 ], [ 102.9751, 11.3558 ], [ 102.9752, 11.3589 ], [ 102.9782, 11.3616 ], [ 102.9785, 11.3681 ], [ 102.9814, 11.3718 ], [ 102.9798, 11.3723 ], [ 102.9736, 11.3902 ], [ 102.972, 11.3908 ], [ 102.9703, 11.3945 ], [ 102.9716, 11.3966 ], [ 102.9708, 11.4017 ], [ 102.9719, 11.4029 ], [ 102.9721, 11.406 ], [ 102.9754, 11.4137 ], [ 102.9787, 11.4194 ], [ 102.9815, 11.4219 ], [ 102.9833, 11.4217 ], [ 102.9821, 11.4199 ], [ 102.9825, 11.418 ] ] ], [ [ [ 103.0106, 11.4348 ], [ 103.0086, 11.4347 ], [ 103.0065, 11.4325 ], [ 103.0051, 11.4334 ], [ 103.0045, 11.4351 ], [ 103.006, 11.4374 ], [ 103.0068, 11.4356 ], [ 103.0106, 11.4348 ] ] ], [ [ [ 103.0106, 11.4348 ], [ 103.0114, 11.4341 ], [ 103.0123, 11.4345 ], [ 103.0148, 11.4404 ], [ 103.0147, 11.4465 ], [ 103.0126, 11.4566 ], [ 103.0143, 11.4573 ], [ 103.014, 11.4585 ], [ 103.0104, 11.4633 ], [ 103.005, 11.4736 ], [ 102.9996, 11.4805 ], [ 102.9985, 11.4843 ], [ 102.9921, 11.492 ], [ 102.9921, 11.4932 ], [ 102.9892, 11.4949 ], [ 102.9893, 11.494 ], [ 102.9886, 11.4945 ], [ 102.9857, 11.499 ], [ 102.9831, 11.5046 ], [ 102.9825, 11.5084 ], [ 102.9858, 11.5149 ], [ 102.9817, 11.5186 ], [ 102.9796, 11.5186 ], [ 102.9689, 11.5239 ], [ 102.9525, 11.5453 ], [ 102.95, 11.551 ], [ 102.9509, 11.5532 ], [ 102.9562, 11.5586 ], [ 102.9544, 11.5649 ], [ 102.9514, 11.5662 ], [ 102.9485, 11.5698 ], [ 102.9407, 11.5869 ], [ 102.937, 11.5885 ], [ 102.9359, 11.5861 ], [ 102.9338, 11.5856 ], [ 102.9326, 11.5868 ], [ 102.9308, 11.5935 ], [ 102.9312, 11.5977 ], [ 102.933, 11.6007 ], [ 102.9347, 11.6009 ], [ 102.9378, 11.5987 ], [ 102.9387, 11.6041 ], [ 102.9364, 11.6117 ], [ 102.9289, 11.6257 ], [ 102.9255, 11.6304 ], [ 102.9224, 11.6324 ], [ 102.9217, 11.63 ], [ 102.9194, 11.6293 ], [ 102.9181, 11.6352 ], [ 102.9102, 11.6486 ], [ 102.9141, 11.6507 ], [ 102.9151, 11.6529 ], [ 102.9128, 11.6604 ], [ 102.9136, 11.6678 ], [ 102.9126, 11.6719 ], [ 102.9132, 11.6761 ], [ 102.9112, 11.6804 ], [ 102.9123, 11.697 ], [ 102.9106, 11.7162 ], [ 102.9112, 11.7294 ], [ 102.9105, 11.7407 ], [ 102.9112, 11.7458 ], [ 102.9087, 11.7506 ], [ 102.9043, 11.7688 ], [ 102.9021, 11.7727 ], [ 102.8943, 11.7822 ], [ 102.8925, 11.787 ], [ 102.8898, 11.7885 ], [ 102.8816, 11.7903 ], [ 102.8821, 11.7937 ], [ 102.8859, 11.7996 ], [ 102.8816, 11.8002 ], [ 102.8775, 11.8028 ], [ 102.8739, 11.8031 ], [ 102.8666, 11.8063 ], [ 102.8627, 11.8133 ], [ 102.864, 11.8151 ], [ 102.862, 11.8197 ], [ 102.8631, 11.8222 ], [ 102.8624, 11.824 ], [ 102.8603, 11.8263 ], [ 102.8546, 11.8257 ], [ 102.8531, 11.8264 ], [ 102.8488, 11.8328 ], [ 102.8454, 11.8446 ], [ 102.8367, 11.8513 ], [ 102.8339, 11.8558 ], [ 102.828, 11.8699 ], [ 102.8256, 11.8734 ], [ 102.8198, 11.8924 ], [ 102.8212, 11.8975 ], [ 102.8209, 11.9029 ], [ 102.8224, 11.908 ], [ 102.8186, 11.9128 ], [ 102.8199, 11.9164 ], [ 102.8159, 11.9197 ], [ 102.8134, 11.9231 ], [ 102.8134, 11.9261 ], [ 102.8162, 11.9316 ], [ 102.8161, 11.9332 ], [ 102.8094, 11.945 ], [ 102.8006, 11.9493 ], [ 102.7964, 11.957 ], [ 102.7961, 11.9594 ], [ 102.7972, 11.9614 ], [ 102.7907, 11.9772 ], [ 102.7849, 11.9769 ], [ 102.7844, 11.9774 ], [ 102.78, 11.9909 ], [ 102.7801, 11.9947 ], [ 102.7765, 12.0069 ], [ 102.7761, 12.0138 ], [ 102.7794, 12.0219 ], [ 102.7976, 12.0136 ], [ 102.9726, 12.0023 ], [ 102.9963, 11.997 ], [ 103.0185, 11.9886 ], [ 103.1147, 11.9468 ], [ 103.1209, 11.9453 ], [ 103.139, 11.9441 ], [ 103.1533, 11.9479 ], [ 103.1572, 11.9462 ], [ 103.16, 11.9436 ], [ 103.1625, 11.9454 ], [ 103.1664, 11.9458 ], [ 103.1713, 11.9497 ], [ 103.1743, 11.9486 ], [ 103.1768, 11.9497 ], [ 103.1785, 11.9495 ], [ 103.185, 11.9525 ], [ 103.1944, 11.962 ], [ 103.1987, 11.9635 ], [ 103.2061, 11.9632 ], [ 103.2091, 11.9618 ], [ 103.2192, 11.9602 ], [ 103.2235, 11.9568 ], [ 103.2262, 11.9584 ], [ 103.2294, 11.9631 ], [ 103.2284, 11.9689 ], [ 103.2302, 11.9752 ], [ 103.2345, 11.9766 ], [ 103.2413, 11.9755 ], [ 103.2446, 11.9765 ], [ 103.2464, 11.9745 ], [ 103.2514, 11.9744 ], [ 103.2533, 11.9732 ], [ 103.2571, 11.9781 ], [ 103.2566, 11.982 ], [ 103.2583, 11.9834 ], [ 103.2632, 11.9841 ], [ 103.2681, 11.9884 ], [ 103.2716, 11.9892 ], [ 103.2863, 11.9827 ], [ 103.2884, 11.9804 ], [ 103.2905, 11.9797 ], [ 103.2947, 11.9815 ], [ 103.296, 11.9853 ], [ 103.3074, 11.985 ], [ 103.3115, 11.9857 ], [ 103.3163, 11.9935 ], [ 103.3171, 12.0004 ], [ 103.319, 12.0038 ], [ 103.3196, 12.0089 ], [ 103.3248, 12.0119 ], [ 103.3279, 12.0148 ], [ 103.3304, 12.0192 ], [ 103.3324, 12.0196 ], [ 103.3343, 12.0181 ], [ 103.3381, 12.0201 ], [ 103.3444, 12.0246 ], [ 103.3462, 12.0278 ], [ 103.3494, 12.027 ], [ 103.3541, 12.0291 ], [ 103.3589, 12.0284 ], [ 103.3636, 12.0312 ], [ 103.3613, 12.0396 ], [ 103.3609, 12.0456 ], [ 103.3613, 12.0515 ], [ 103.364, 12.056 ], [ 103.3643, 12.0613 ], [ 103.367, 12.0618 ], [ 103.3706, 12.0651 ], [ 103.3725, 12.0689 ], [ 103.3766, 12.0712 ], [ 103.3805, 12.0713 ], [ 103.3832, 12.0699 ], [ 103.3868, 12.0719 ], [ 103.386, 12.074 ], [ 103.3825, 12.0759 ], [ 103.3848, 12.0814 ], [ 103.3823, 12.0841 ], [ 103.3809, 12.0891 ], [ 103.3838, 12.0924 ], [ 103.3818, 12.0945 ], [ 103.3821, 12.097 ], [ 103.3896, 12.1035 ], [ 103.3918, 12.108 ], [ 103.3959, 12.109 ], [ 103.4001, 12.1088 ], [ 103.4016, 12.1076 ], [ 103.4031, 12.1035 ], [ 103.4046, 12.1041 ], [ 103.4132, 12.1019 ], [ 103.4146, 12.0965 ], [ 103.4198, 12.0957 ], [ 103.4207, 12.0929 ], [ 103.423, 12.0914 ], [ 103.4268, 12.0913 ], [ 103.4334, 12.0867 ], [ 103.4356, 12.088 ], [ 103.4369, 12.0912 ], [ 103.4486, 12.0942 ], [ 103.4543, 12.0979 ], [ 103.4543, 12.0998 ], [ 103.4584, 12.1008 ], [ 103.46, 12.1043 ], [ 103.4641, 12.1074 ], [ 103.4652, 12.1103 ], [ 103.4679, 12.1116 ], [ 103.4689, 12.1153 ], [ 103.4709, 12.1163 ], [ 103.4757, 12.1159 ], [ 103.4811, 12.1109 ], [ 103.4815, 12.1075 ], [ 103.4842, 12.1087 ], [ 103.4863, 12.1067 ], [ 103.4888, 12.1005 ], [ 103.4918, 12.0985 ], [ 103.4941, 12.101 ], [ 103.4963, 12.101 ], [ 103.5074, 12.1057 ], [ 103.5137, 12.1045 ], [ 103.5201, 12.1011 ], [ 103.523, 12.0973 ], [ 103.5298, 12.0988 ], [ 103.5375, 12.095 ], [ 103.541, 12.0904 ], [ 103.5375, 12.0883 ], [ 103.5365, 12.0849 ], [ 103.5473, 12.0786 ], [ 103.5493, 12.0754 ], [ 103.5596, 12.0711 ], [ 103.561, 12.0678 ], [ 103.5638, 12.0655 ], [ 103.5683, 12.0669 ], [ 103.5703, 12.0595 ], [ 103.5719, 12.0566 ], [ 103.5752, 12.0564 ], [ 103.58, 12.054 ], [ 103.5837, 12.0532 ], [ 103.5907, 12.0408 ], [ 103.5946, 12.0397 ], [ 103.5965, 12.0361 ], [ 103.6004, 12.0336 ], [ 103.6016, 12.0296 ], [ 103.6046, 12.0262 ], [ 103.6046, 12.0242 ], [ 103.6114, 12.0198 ], [ 103.6153, 12.0186 ], [ 103.6185, 12.019 ], [ 103.6241, 12.0164 ], [ 103.63, 12.0155 ], [ 103.6336, 12.0136 ], [ 103.6372, 12.0065 ], [ 103.636, 12.002 ], [ 103.6339, 12.0006 ], [ 103.6325, 11.998 ], [ 103.6289, 11.9961 ], [ 103.6278, 11.9946 ], [ 103.6285, 11.9934 ], [ 103.6337, 11.9917 ], [ 103.6369, 11.9857 ], [ 103.6392, 11.9849 ], [ 103.644, 11.9865 ], [ 103.6457, 11.9847 ], [ 103.6497, 11.9837 ], [ 103.6498, 11.9796 ], [ 103.6532, 11.9787 ], [ 103.6554, 11.9748 ], [ 103.6618, 11.9742 ], [ 103.6667, 11.9721 ], [ 103.6681, 11.9705 ], [ 103.6709, 11.9695 ], [ 103.6744, 11.9657 ], [ 103.6886, 11.9644 ], [ 103.6932, 11.9651 ], [ 103.6969, 11.9633 ], [ 103.6998, 11.9549 ], [ 103.7002, 11.9466 ], [ 103.6986, 11.9446 ], [ 103.6944, 11.9424 ], [ 103.6945, 11.9415 ], [ 103.6997, 11.9387 ], [ 103.7084, 11.9368 ], [ 103.7106, 11.9316 ], [ 103.7134, 11.9294 ], [ 103.719, 11.9276 ], [ 103.7218, 11.9277 ], [ 103.731, 11.9349 ], [ 103.7412, 11.9401 ], [ 103.7438, 11.9379 ], [ 103.7482, 11.9318 ], [ 103.7527, 11.9297 ], [ 103.7571, 11.9261 ], [ 103.7621, 11.9252 ], [ 103.7642, 11.9258 ], [ 103.7701, 11.9333 ], [ 103.7715, 11.934 ], [ 103.7759, 11.9315 ], [ 103.7825, 11.9319 ], [ 103.784, 11.9328 ], [ 103.789, 11.9314 ], [ 103.7954, 11.9242 ], [ 103.7971, 11.9235 ], [ 103.7982, 11.9203 ], [ 103.7978, 11.9161 ], [ 103.8013, 11.9108 ], [ 103.8033, 11.9096 ], [ 103.8049, 11.9072 ], [ 103.8089, 11.909 ], [ 103.8141, 11.901 ], [ 103.8149, 11.8953 ], [ 103.8159, 11.8942 ], [ 103.8185, 11.8937 ], [ 103.8212, 11.8886 ], [ 103.8232, 11.8878 ], [ 103.8307, 11.8802 ], [ 103.8356, 11.8727 ], [ 103.8361, 11.8691 ], [ 103.8383, 11.8666 ], [ 103.8381, 11.8615 ], [ 103.8422, 11.8546 ], [ 103.844, 11.8537 ], [ 103.8483, 11.8535 ], [ 103.8541, 11.8479 ], [ 103.8577, 11.8433 ], [ 103.8486, 11.8416 ], [ 103.842, 11.8385 ], [ 103.8397, 11.8365 ], [ 103.8283, 11.8358 ], [ 103.8223, 11.8386 ], [ 103.8065, 11.8403 ], [ 103.801, 11.8444 ], [ 103.7928, 11.847 ], [ 103.7878, 11.8509 ], [ 103.7842, 11.8494 ], [ 103.7849, 11.8436 ], [ 103.7818, 11.8393 ], [ 103.7807, 11.8326 ], [ 103.7824, 11.8293 ], [ 103.7838, 11.8102 ], [ 103.7859, 11.8063 ], [ 103.7929, 11.8032 ], [ 103.7928, 11.7914 ], [ 103.7915, 11.7861 ], [ 103.7785, 11.7787 ], [ 103.7735, 11.7741 ], [ 103.7732, 11.7688 ], [ 103.7757, 11.765 ], [ 103.7771, 11.7599 ], [ 103.7809, 11.7559 ], [ 103.783, 11.7508 ], [ 103.7808, 11.7445 ], [ 103.7755, 11.7387 ], [ 103.7737, 11.7214 ], [ 103.7753, 11.7128 ], [ 103.7775, 11.7086 ], [ 103.782, 11.7022 ], [ 103.7903, 11.6967 ], [ 103.7979, 11.6882 ], [ 103.8005, 11.6842 ], [ 103.802, 11.6784 ], [ 103.8029, 11.6707 ], [ 103.8019, 11.6685 ], [ 103.803, 11.6674 ], [ 103.8029, 11.6661 ], [ 103.801, 11.6606 ], [ 103.7968, 11.6538 ], [ 103.7951, 11.6397 ], [ 103.7961, 11.6326 ], [ 103.795, 11.6229 ], [ 103.7987, 11.622 ], [ 103.8067, 11.6223 ], [ 103.8142, 11.6192 ], [ 103.8184, 11.6191 ], [ 103.8268, 11.6095 ], [ 103.8301, 11.6089 ], [ 103.8333, 11.6071 ], [ 103.8336, 11.6038 ], [ 103.8387, 11.5953 ], [ 103.8425, 11.5946 ], [ 103.845, 11.5906 ], [ 103.8512, 11.5896 ], [ 103.8634, 11.5794 ], [ 103.8637, 11.5781 ], [ 103.8606, 11.5732 ], [ 103.8634, 11.5744 ], [ 103.8662, 11.5715 ], [ 103.8767, 11.5666 ], [ 103.8823, 11.5671 ], [ 103.8881, 11.5581 ], [ 103.9041, 11.5561 ], [ 103.9114, 11.5531 ], [ 103.9142, 11.5508 ], [ 103.9161, 11.5473 ], [ 103.917, 11.5416 ], [ 103.9166, 11.5371 ], [ 103.9226, 11.535 ], [ 103.9268, 11.5359 ], [ 103.9302, 11.5293 ], [ 103.9326, 11.5216 ], [ 103.938, 11.5163 ], [ 103.9483, 11.5171 ], [ 103.9502, 11.5189 ], [ 103.9529, 11.5198 ], [ 103.9543, 11.5173 ], [ 103.9579, 11.5166 ], [ 103.9692, 11.5247 ], [ 103.9736, 11.5253 ], [ 103.9779, 11.5274 ], [ 103.9789, 11.5273 ], [ 103.981, 11.5234 ], [ 103.9827, 11.5234 ], [ 103.9964, 11.5302 ], [ 104.0023, 11.5298 ], [ 104.0164, 11.5175 ], [ 104.0199, 11.513 ], [ 104.0251, 11.5013 ], [ 104.0304, 11.5003 ], [ 104.0386, 11.4947 ], [ 104.0415, 11.4949 ], [ 104.0456, 11.4978 ], [ 104.0532, 11.4954 ], [ 104.0598, 11.4818 ], [ 104.063, 11.4704 ], [ 104.0646, 11.4587 ], [ 104.0633, 11.4556 ], [ 104.0612, 11.454 ], [ 104.0529, 11.4515 ], [ 104.0479, 11.448 ], [ 104.0469, 11.4409 ], [ 104.0418, 11.4359 ], [ 103.9962, 11.4039 ], [ 103.987, 11.3993 ], [ 103.9759, 11.3889 ], [ 103.949, 11.354 ], [ 103.9029, 11.3017 ], [ 103.9006, 11.2966 ], [ 103.9024, 11.2896 ], [ 103.9009, 11.2832 ], [ 103.898, 11.2816 ], [ 103.8976, 11.2797 ], [ 103.8945, 11.2776 ], [ 103.8872, 11.2756 ], [ 103.8843, 11.2733 ], [ 103.8865, 11.2704 ], [ 103.8848, 11.2688 ], [ 103.8866, 11.2666 ], [ 103.888, 11.2661 ], [ 103.8806, 11.2596 ], [ 103.8785, 11.2602 ], [ 103.877, 11.2596 ], [ 103.8748, 11.2543 ], [ 103.8729, 11.2538 ], [ 103.8718, 11.2524 ], [ 103.8736, 11.2462 ], [ 103.8722, 11.24 ], [ 103.8688, 11.2391 ], [ 103.8666, 11.2342 ], [ 103.8601, 11.2254 ], [ 103.8542, 11.2238 ], [ 103.8531, 11.2241 ], [ 103.8536, 11.2251 ], [ 103.8529, 11.2253 ], [ 103.8516, 11.2239 ], [ 103.8517, 11.2213 ], [ 103.8573, 11.218 ], [ 103.8608, 11.2137 ], [ 103.8628, 11.2132 ], [ 103.8636, 11.2123 ], [ 103.8635, 11.2099 ], [ 103.8684, 11.2062 ], [ 103.8687, 11.2006 ], [ 103.8693, 11.2007 ], [ 103.8724, 11.1943 ], [ 103.8748, 11.1848 ], [ 103.8739, 11.1814 ], [ 103.8747, 11.18 ], [ 103.8772, 11.1788 ], [ 103.8776, 11.1746 ], [ 103.8819, 11.1721 ], [ 103.881, 11.1679 ], [ 103.8824, 11.1632 ], [ 103.8835, 11.1638 ], [ 103.8837, 11.1656 ], [ 103.8846, 11.1664 ], [ 103.8853, 11.1658 ], [ 103.8851, 11.1615 ], [ 103.8871, 11.1572 ], [ 103.8817, 11.1526 ], [ 103.8799, 11.155 ], [ 103.879, 11.155 ], [ 103.8744, 11.1495 ], [ 103.871, 11.1488 ], [ 103.8707, 11.1453 ], [ 103.8687, 11.143 ], [ 103.8719, 11.1439 ], [ 103.8725, 11.1427 ], [ 103.8705, 11.1403 ], [ 103.8721, 11.139 ], [ 103.8726, 11.1364 ], [ 103.8668, 11.131 ], [ 103.8635, 11.132 ], [ 103.8638, 11.1291 ], [ 103.863, 11.1284 ], [ 103.8643, 11.1263 ], [ 103.8642, 11.1229 ], [ 103.8636, 11.1214 ], [ 103.8612, 11.1212 ], [ 103.8602, 11.1198 ], [ 103.8591, 11.1175 ], [ 103.8591, 11.1132 ], [ 103.8569, 11.1096 ], [ 103.8515, 11.1037 ], [ 103.8408, 11.0982 ], [ 103.8396, 11.096 ], [ 103.8403, 11.0861 ], [ 103.8417, 11.0845 ], [ 103.8436, 11.0856 ], [ 103.8439, 11.0874 ], [ 103.8423, 11.0891 ], [ 103.8428, 11.0904 ], [ 103.8456, 11.0892 ], [ 103.8462, 11.0869 ], [ 103.8465, 11.0838 ], [ 103.8456, 11.082 ], [ 103.8425, 11.0807 ], [ 103.8488, 11.0785 ], [ 103.8466, 11.0758 ], [ 103.8468, 11.0732 ], [ 103.8458, 11.0718 ], [ 103.8398, 11.073 ], [ 103.8339, 11.072 ], [ 103.8271, 11.0644 ], [ 103.8224, 11.0571 ], [ 103.818, 11.0555 ], [ 103.8055, 11.0486 ], [ 103.8027, 11.0477 ], [ 103.7969, 11.0476 ], [ 103.7916, 11.0407 ], [ 103.7856, 11.0247 ], [ 103.7879, 11.0041 ], [ 103.792, 10.994 ], [ 103.7936, 10.9803 ], [ 103.7914, 10.972 ], [ 103.792, 10.9608 ], [ 103.7906, 10.9568 ], [ 103.7908, 10.954 ], [ 103.7959, 10.9422 ], [ 103.7959, 10.9388 ], [ 103.793, 10.9377 ], [ 103.7892, 10.9376 ], [ 103.7889, 10.9352 ], [ 103.7868, 10.9365 ], [ 103.785, 10.9359 ], [ 103.785, 10.9348 ], [ 103.7819, 10.9355 ], [ 103.7818, 10.9343 ], [ 103.7801, 10.9365 ], [ 103.7785, 10.9345 ], [ 103.7769, 10.9346 ], [ 103.7757, 10.9333 ], [ 103.7738, 10.933 ], [ 103.774, 10.9318 ], [ 103.7729, 10.9307 ], [ 103.7708, 10.9314 ], [ 103.7701, 10.9306 ], [ 103.7687, 10.9312 ], [ 103.7665, 10.9301 ], [ 103.7645, 10.9283 ], [ 103.7669, 10.9277 ], [ 103.7665, 10.9262 ], [ 103.7652, 10.9265 ], [ 103.765, 10.9252 ], [ 103.7635, 10.9241 ], [ 103.7611, 10.9243 ], [ 103.7608, 10.9232 ], [ 103.7589, 10.9228 ], [ 103.7582, 10.9218 ], [ 103.7563, 10.9226 ], [ 103.7556, 10.9204 ], [ 103.7545, 10.9216 ], [ 103.7538, 10.9199 ], [ 103.7518, 10.9206 ], [ 103.7511, 10.9179 ], [ 103.7501, 10.9171 ], [ 103.7527, 10.9174 ], [ 103.7529, 10.9155 ], [ 103.7543, 10.9148 ], [ 103.7521, 10.9137 ], [ 103.7519, 10.9126 ], [ 103.7486, 10.9156 ], [ 103.7483, 10.9132 ], [ 103.7467, 10.9126 ], [ 103.7447, 10.9093 ], [ 103.7458, 10.9063 ], [ 103.7366, 10.9016 ], [ 103.7365, 10.8997 ], [ 103.7395, 10.8973 ], [ 103.7389, 10.8961 ], [ 103.7377, 10.8958 ], [ 103.7341, 10.8995 ], [ 103.7315, 10.9047 ], [ 103.7276, 10.904 ], [ 103.727, 10.9015 ], [ 103.7277, 10.8967 ], [ 103.7252, 10.8951 ], [ 103.7182, 10.8957 ], [ 103.7168, 10.8996 ], [ 103.7123, 10.9023 ], [ 103.7121, 10.906 ], [ 103.7144, 10.9082 ], [ 103.7141, 10.9096 ], [ 103.713, 10.9096 ], [ 103.7097, 10.9064 ], [ 103.7059, 10.9057 ], [ 103.7, 10.9234 ], [ 103.6933, 10.9388 ], [ 103.6903, 10.9426 ], [ 103.6912, 10.9437 ], [ 103.6874, 10.947 ], [ 103.6852, 10.9508 ], [ 103.6856, 10.9553 ], [ 103.6836, 10.9604 ], [ 103.6727, 10.9781 ], [ 103.6578, 10.9978 ], [ 103.6615, 10.9992 ], [ 103.6634, 11.0013 ], [ 103.6649, 11.0074 ], [ 103.6606, 11.0164 ], [ 103.6622, 11.0181 ], [ 103.6628, 11.0211 ], [ 103.6646, 11.0226 ], [ 103.6627, 11.0248 ], [ 103.6628, 11.0297 ], [ 103.6621, 11.0315 ], [ 103.66, 11.0322 ], [ 103.6572, 11.0377 ], [ 103.6532, 11.0418 ], [ 103.6512, 11.0455 ], [ 103.6509, 11.0478 ], [ 103.6488, 11.0479 ], [ 103.6478, 11.0491 ], [ 103.6478, 11.0517 ], [ 103.6487, 11.053 ], [ 103.6513, 11.0538 ], [ 103.6602, 11.0593 ], [ 103.6619, 11.0673 ], [ 103.6597, 11.0685 ], [ 103.6583, 11.0718 ], [ 103.6602, 11.08 ], [ 103.6569, 11.0803 ], [ 103.6555, 11.0782 ], [ 103.6533, 11.0781 ], [ 103.6424, 11.0841 ], [ 103.6263, 11.089 ], [ 103.6203, 11.0887 ], [ 103.6155, 11.0872 ], [ 103.6135, 11.0851 ], [ 103.5999, 11.0913 ], [ 103.594, 11.0935 ], [ 103.5922, 11.0934 ], [ 103.5915, 11.0991 ], [ 103.5895, 11.1035 ], [ 103.5795, 11.1162 ], [ 103.5783, 11.1207 ], [ 103.5733, 11.1288 ], [ 103.5708, 11.1361 ], [ 103.5664, 11.1427 ], [ 103.5636, 11.1453 ], [ 103.5628, 11.1482 ], [ 103.559, 11.1519 ], [ 103.5571, 11.1552 ], [ 103.5546, 11.1567 ], [ 103.5534, 11.1599 ], [ 103.5538, 11.1609 ], [ 103.5523, 11.1632 ], [ 103.5533, 11.1647 ], [ 103.5521, 11.1676 ], [ 103.5486, 11.1683 ], [ 103.5481, 11.1672 ], [ 103.5457, 11.1666 ], [ 103.5441, 11.1671 ], [ 103.5437, 11.1682 ], [ 103.5309, 11.1691 ], [ 103.5211, 11.1678 ], [ 103.5186, 11.1684 ], [ 103.5157, 11.1678 ], [ 103.5145, 11.1686 ], [ 103.501, 11.1647 ], [ 103.5001, 11.161 ], [ 103.4868, 11.1483 ], [ 103.4799, 11.1448 ], [ 103.4742, 11.1439 ], [ 103.4727, 11.1414 ], [ 103.4704, 11.131 ], [ 103.4658, 11.124 ], [ 103.4593, 11.1179 ], [ 103.455, 11.1164 ], [ 103.451, 11.1096 ], [ 103.4481, 11.1075 ], [ 103.4452, 11.1031 ], [ 103.4419, 11.1014 ], [ 103.4423, 11.0986 ], [ 103.4458, 11.0981 ], [ 103.4568, 11.1013 ], [ 103.4633, 11.105 ], [ 103.4663, 11.1052 ], [ 103.4696, 11.1028 ], [ 103.4685, 11.0979 ], [ 103.4691, 11.0943 ], [ 103.4661, 11.087 ], [ 103.4602, 11.0829 ], [ 103.4573, 11.0798 ], [ 103.4563, 11.0798 ], [ 103.4502, 11.0735 ], [ 103.4482, 11.0673 ], [ 103.4479, 11.0519 ], [ 103.447, 11.05 ], [ 103.4474, 11.0484 ], [ 103.4464, 11.0435 ], [ 103.4397, 11.0347 ], [ 103.4399, 11.0331 ], [ 103.4386, 11.0319 ], [ 103.4394, 11.0318 ], [ 103.4394, 11.0292 ], [ 103.437, 11.027 ], [ 103.4339, 11.0187 ], [ 103.4274, 11.0065 ], [ 103.426, 11.0059 ], [ 103.4267, 11.0004 ], [ 103.4238, 10.9919 ], [ 103.4227, 10.985 ], [ 103.4154, 10.9742 ], [ 103.412, 10.9635 ], [ 103.4109, 10.9622 ], [ 103.4107, 10.9586 ], [ 103.41, 10.9577 ], [ 103.4111, 10.9491 ], [ 103.4139, 10.9402 ], [ 103.414, 10.939 ], [ 103.413, 10.9384 ], [ 103.4151, 10.9368 ], [ 103.4207, 10.928 ], [ 103.421, 10.9226 ], [ 103.4201, 10.9198 ], [ 103.4196, 10.9104 ], [ 103.4212, 10.9065 ], [ 103.421, 10.9042 ], [ 103.4252, 10.8957 ], [ 103.4247, 10.8919 ], [ 103.4193, 10.8928 ], [ 103.4181, 10.8949 ], [ 103.4177, 10.8936 ], [ 103.411, 10.8936 ], [ 103.4079, 10.8926 ], [ 103.404, 10.8884 ], [ 103.4033, 10.8851 ], [ 103.3939, 10.8804 ], [ 103.3902, 10.8799 ], [ 103.3871, 10.8759 ], [ 103.3835, 10.8758 ], [ 103.3826, 10.8788 ], [ 103.3788, 10.88 ], [ 103.3783, 10.8814 ], [ 103.3745, 10.8818 ], [ 103.3676, 10.8805 ], [ 103.3665, 10.88 ], [ 103.3661, 10.8781 ], [ 103.3584, 10.874 ], [ 103.3546, 10.8692 ], [ 103.3546, 10.8652 ], [ 103.3534, 10.8653 ], [ 103.3509, 10.8662 ], [ 103.3501, 10.8676 ], [ 103.3502, 10.8707 ], [ 103.3518, 10.8732 ], [ 103.3494, 10.8777 ], [ 103.3495, 10.8801 ], [ 103.3504, 10.8811 ], [ 103.3481, 10.8864 ], [ 103.3355, 10.8997 ], [ 103.3254, 10.9052 ], [ 103.3222, 10.9029 ], [ 103.3199, 10.9052 ], [ 103.3204, 10.9077 ], [ 103.3196, 10.9079 ], [ 103.3186, 10.9066 ], [ 103.3127, 10.9088 ], [ 103.3114, 10.9107 ], [ 103.3113, 10.9149 ], [ 103.3098, 10.9149 ], [ 103.3098, 10.9129 ], [ 103.3083, 10.9129 ], [ 103.3035, 10.9143 ], [ 103.3019, 10.9168 ], [ 103.3012, 10.9156 ], [ 103.2941, 10.9148 ], [ 103.2867, 10.9164 ], [ 103.2866, 10.9192 ], [ 103.2881, 10.9198 ], [ 103.2883, 10.9224 ], [ 103.2873, 10.9221 ], [ 103.2827, 10.9245 ], [ 103.2793, 10.9238 ], [ 103.2781, 10.9223 ], [ 103.2742, 10.9217 ], [ 103.2723, 10.922 ], [ 103.2717, 10.923 ], [ 103.267, 10.9237 ], [ 103.2642, 10.9226 ], [ 103.2581, 10.9235 ], [ 103.2538, 10.9222 ], [ 103.2482, 10.919 ], [ 103.2439, 10.9187 ], [ 103.242, 10.9157 ], [ 103.24, 10.9094 ], [ 103.2371, 10.9087 ], [ 103.2356, 10.9092 ], [ 103.2335, 10.9075 ], [ 103.2319, 10.9075 ], [ 103.2288, 10.9048 ], [ 103.2276, 10.9002 ], [ 103.2284, 10.8975 ], [ 103.2268, 10.8958 ], [ 103.2231, 10.8939 ], [ 103.217, 10.8947 ], [ 103.2161, 10.8939 ], [ 103.2172, 10.8921 ], [ 103.2122, 10.8887 ], [ 103.2117, 10.8851 ], [ 103.2102, 10.8839 ], [ 103.2107, 10.8832 ], [ 103.2126, 10.8834 ], [ 103.2124, 10.8806 ], [ 103.2055, 10.8793 ], [ 103.1835, 10.8703 ], [ 103.1826, 10.871 ], [ 103.1837, 10.8718 ], [ 103.1828, 10.8722 ], [ 103.179, 10.8632 ], [ 103.1792, 10.8607 ], [ 103.1818, 10.8583 ], [ 103.1813, 10.8571 ], [ 103.1781, 10.8589 ], [ 103.1741, 10.8585 ], [ 103.1714, 10.8608 ], [ 103.1679, 10.8659 ], [ 103.1654, 10.8671 ], [ 103.1632, 10.8699 ], [ 103.1554, 10.8739 ], [ 103.1512, 10.8744 ], [ 103.147, 10.8728 ], [ 103.1455, 10.8701 ], [ 103.1464, 10.8694 ], [ 103.1468, 10.8655 ], [ 103.1458, 10.8637 ], [ 103.1422, 10.8621 ], [ 103.134, 10.8649 ], [ 103.1232, 10.8701 ], [ 103.1223, 10.8709 ], [ 103.1232, 10.8721 ], [ 103.1207, 10.874 ], [ 103.1196, 10.8764 ], [ 103.1218, 10.875 ], [ 103.1245, 10.8756 ], [ 103.1275, 10.8737 ], [ 103.1302, 10.8765 ], [ 103.1315, 10.8793 ], [ 103.1319, 10.8863 ], [ 103.1298, 10.895 ], [ 103.1235, 10.9025 ], [ 103.1136, 10.9104 ], [ 103.1065, 10.9142 ], [ 103.0982, 10.9167 ], [ 103.0953, 10.9359 ], [ 103.0983, 10.9438 ], [ 103.0977, 10.9458 ], [ 103.0956, 10.9476 ], [ 103.1004, 10.9581 ], [ 103.1031, 10.9605 ], [ 103.1063, 10.9613 ], [ 103.1084, 10.9632 ], [ 103.1088, 11.0004 ], [ 103.1068, 11.021 ], [ 103.1013, 11.0441 ], [ 103.0991, 11.0511 ], [ 103.0962, 11.0541 ], [ 103.0971, 11.0577 ], [ 103.0965, 11.0756 ], [ 103.0951, 11.0773 ], [ 103.0929, 11.0766 ], [ 103.0881, 11.0791 ], [ 103.0925, 11.0816 ], [ 103.0926, 11.0835 ], [ 103.0942, 11.0843 ], [ 103.0979, 11.0805 ], [ 103.0968, 11.0789 ], [ 103.0978, 11.0773 ], [ 103.1001, 11.0766 ], [ 103.1052, 11.0791 ], [ 103.1103, 11.0864 ], [ 103.1104, 11.0909 ], [ 103.1111, 11.0917 ], [ 103.1107, 11.0953 ], [ 103.1134, 11.0976 ], [ 103.1178, 11.0993 ], [ 103.1143, 11.1297 ], [ 103.1103, 11.1459 ], [ 103.1112, 11.149 ], [ 103.107, 11.1532 ], [ 103.1007, 11.1755 ], [ 103.0937, 11.1951 ], [ 103.087, 11.2101 ], [ 103.0798, 11.22 ], [ 103.0739, 11.2245 ], [ 103.072, 11.2225 ], [ 103.0662, 11.2229 ], [ 103.0628, 11.2197 ], [ 103.0598, 11.2192 ], [ 103.0531, 11.2157 ], [ 103.046, 11.2234 ], [ 103.0491, 11.2243 ], [ 103.0513, 11.2298 ], [ 103.0524, 11.2302 ], [ 103.0534, 11.2291 ], [ 103.0555, 11.2293 ], [ 103.0562, 11.2331 ], [ 103.0576, 11.2348 ], [ 103.0629, 11.2359 ], [ 103.0669, 11.2382 ], [ 103.0704, 11.2375 ], [ 103.0712, 11.2389 ], [ 103.0699, 11.2468 ], [ 103.065, 11.2549 ], [ 103.0661, 11.2568 ], [ 103.0663, 11.2601 ], [ 103.0699, 11.2608 ], [ 103.0724, 11.2588 ], [ 103.072, 11.2608 ], [ 103.0755, 11.2631 ], [ 103.0767, 11.2661 ], [ 103.0763, 11.2717 ], [ 103.0724, 11.2809 ], [ 103.0704, 11.2835 ], [ 103.0705, 11.2863 ], [ 103.0751, 11.2865 ], [ 103.0755, 11.2848 ], [ 103.0739, 11.2848 ], [ 103.0755, 11.2841 ], [ 103.0874, 11.2874 ], [ 103.0891, 11.2846 ], [ 103.0927, 11.2845 ], [ 103.0934, 11.2882 ], [ 103.0926, 11.2898 ], [ 103.0929, 11.291 ], [ 103.0947, 11.2915 ], [ 103.095, 11.2949 ], [ 103.0921, 11.3004 ], [ 103.0988, 11.2979 ], [ 103.104, 11.2982 ], [ 103.1068, 11.301 ], [ 103.1069, 11.3038 ], [ 103.1129, 11.3045 ], [ 103.1179, 11.3079 ], [ 103.1199, 11.3131 ], [ 103.1192, 11.3181 ], [ 103.1227, 11.3177 ], [ 103.1254, 11.3161 ], [ 103.128, 11.3129 ], [ 103.1332, 11.3115 ], [ 103.1354, 11.3123 ], [ 103.1418, 11.3185 ], [ 103.144, 11.3181 ], [ 103.1454, 11.3209 ], [ 103.1447, 11.3237 ], [ 103.1406, 11.3283 ], [ 103.1401, 11.3318 ], [ 103.1388, 11.3329 ], [ 103.1377, 11.3364 ], [ 103.1342, 11.3396 ], [ 103.1344, 11.3434 ], [ 103.1359, 11.3443 ], [ 103.1375, 11.3468 ], [ 103.1361, 11.3472 ], [ 103.1341, 11.3499 ], [ 103.1295, 11.3507 ], [ 103.1277, 11.3492 ], [ 103.1187, 11.3491 ], [ 103.1115, 11.3433 ], [ 103.108, 11.3424 ], [ 103.1045, 11.343 ], [ 103.1026, 11.3452 ], [ 103.1027, 11.3482 ], [ 103.0955, 11.351 ], [ 103.0905, 11.3604 ], [ 103.0876, 11.3747 ], [ 103.0884, 11.376 ], [ 103.0876, 11.3775 ], [ 103.0877, 11.3821 ], [ 103.0853, 11.395 ], [ 103.0871, 11.4013 ], [ 103.0898, 11.3996 ], [ 103.091, 11.3998 ], [ 103.0878, 11.4042 ], [ 103.086, 11.4053 ], [ 103.0855, 11.4075 ], [ 103.0873, 11.4094 ], [ 103.0845, 11.4102 ], [ 103.0799, 11.4193 ], [ 103.078, 11.4205 ], [ 103.0778, 11.4226 ], [ 103.0759, 11.4221 ], [ 103.0751, 11.4204 ], [ 103.0761, 11.4158 ], [ 103.0733, 11.4152 ], [ 103.0735, 11.4163 ], [ 103.0714, 11.4183 ], [ 103.0702, 11.4256 ], [ 103.0735, 11.4315 ], [ 103.0712, 11.4325 ], [ 103.0689, 11.4303 ], [ 103.0654, 11.425 ], [ 103.065, 11.4203 ], [ 103.0637, 11.4197 ], [ 103.0604, 11.4249 ], [ 103.0635, 11.425 ], [ 103.0653, 11.4267 ], [ 103.0639, 11.4287 ], [ 103.0658, 11.4318 ], [ 103.0599, 11.4333 ], [ 103.06, 11.4341 ], [ 103.0583, 11.4346 ], [ 103.0553, 11.4346 ], [ 103.054, 11.4383 ], [ 103.0521, 11.4401 ], [ 103.0503, 11.4378 ], [ 103.0469, 11.4372 ], [ 103.047, 11.4387 ], [ 103.0423, 11.444 ], [ 103.0356, 11.4342 ], [ 103.0325, 11.4321 ], [ 103.031, 11.4329 ], [ 103.0307, 11.4304 ], [ 103.0254, 11.4275 ], [ 103.0242, 11.4248 ], [ 103.0233, 11.4246 ], [ 103.022, 11.4269 ], [ 103.0198, 11.4239 ], [ 103.0178, 11.4227 ], [ 103.0203, 11.4221 ], [ 103.0183, 11.4212 ], [ 103.0155, 11.4222 ], [ 103.0131, 11.4244 ], [ 103.0127, 11.4308 ], [ 103.0106, 11.4348 ] ] ] ] } }
]
}
