{
"type": "FeatureCollection",
"name": "buffer_5km",
"crs": { "type": "name", "properties": { "name": "urn:ogc:def:crs:OGC:1.3:CRS84" } },
"xy_coordinate_resolution": 1e-05,
"features": [
{ "type": "Feature", "properties": { }, "geometry": { "type": "MultiPolygon", "coordinates": [ [ [ [ 104.45182, 11.62577 ], [ 104.45944, 11.63215 ], [ 104.4633, 11.63443 ], [ 104.46736, 11.63634 ], [ 104.47596, 11.63893 ], [ 104.48042, 11.63959 ], [ 104.48941, 11.6396 ], [ 104.49823, 11.63789 ], [ 104.50615, 11.6347 ], [ 104.50353, 11.63982 ], [ 104.50201, 11.644 ], [ 104.50024, 11.65269 ], [ 104.50001, 11.65712 ], [ 104.50022, 11.66155 ], [ 104.50196, 11.67025 ], [ 104.50559, 11.67879 ], [ 104.50048, 11.68105 ], [ 104.49299, 11.68596 ], [ 104.48662, 11.69221 ], [ 104.48161, 11.69957 ], [ 104.47815, 11.70776 ], [ 104.47638, 11.71645 ], [ 104.47637, 11.72531 ], [ 104.4781, 11.73401 ], [ 104.48153, 11.7422 ], [ 104.48384, 11.74601 ], [ 104.48953, 11.75288 ], [ 104.49648, 11.75851 ], [ 104.5044, 11.7627 ], [ 104.50864, 11.76421 ], [ 104.51746, 11.76595 ], [ 104.52539, 11.76602 ], [ 104.52443, 11.77153 ], [ 104.52441, 11.7804 ], [ 104.52615, 11.78909 ], [ 104.52958, 11.79729 ], [ 104.53457, 11.80467 ], [ 104.53759, 11.80796 ], [ 104.54453, 11.81359 ], [ 104.55246, 11.81778 ], [ 104.56107, 11.82037 ], [ 104.57002, 11.82125 ], [ 104.57898, 11.8204 ], [ 104.58759, 11.81784 ], [ 104.59553, 11.81367 ], [ 104.6025, 11.80806 ], [ 104.60821, 11.80121 ], [ 104.61053, 11.79741 ], [ 104.61296, 11.79205 ], [ 104.61712, 11.79973 ], [ 104.6198, 11.8033 ], [ 104.62282, 11.80659 ], [ 104.62977, 11.81223 ], [ 104.6377, 11.81641 ], [ 104.64631, 11.819 ], [ 104.65076, 11.81965 ], [ 104.65976, 11.81967 ], [ 104.66421, 11.81902 ], [ 104.67283, 11.81646 ], [ 104.6769, 11.81456 ], [ 104.68077, 11.81229 ], [ 104.68773, 11.80667 ], [ 104.69345, 11.79983 ], [ 104.69577, 11.79602 ], [ 104.69922, 11.78784 ], [ 104.70098, 11.77914 ], [ 104.70099, 11.77028 ], [ 104.69925, 11.76159 ], [ 104.69773, 11.75741 ], [ 104.69581, 11.75339 ], [ 104.69082, 11.74602 ], [ 104.68447, 11.73974 ], [ 104.677, 11.73481 ], [ 104.67293, 11.73291 ], [ 104.66432, 11.73032 ], [ 104.65987, 11.72967 ], [ 104.65087, 11.72966 ], [ 104.64205, 11.73137 ], [ 104.63439, 11.73445 ], [ 104.63371, 11.72964 ], [ 104.63111, 11.72115 ], [ 104.62688, 11.71333 ], [ 104.62419, 11.70974 ], [ 104.62993, 11.71072 ], [ 104.63443, 11.71094 ], [ 104.64338, 11.71008 ], [ 104.65199, 11.70752 ], [ 104.65959, 11.70355 ], [ 104.66129, 11.70635 ], [ 104.66577, 11.71189 ], [ 104.66902, 11.71958 ], [ 104.67133, 11.72339 ], [ 104.67703, 11.73025 ], [ 104.68398, 11.73588 ], [ 104.68784, 11.73817 ], [ 104.69191, 11.74007 ], [ 104.70051, 11.74265 ], [ 104.70497, 11.74331 ], [ 104.71396, 11.74332 ], [ 104.72279, 11.7416 ], [ 104.7311, 11.73821 ], [ 104.73497, 11.73593 ], [ 104.7418, 11.73043 ], [ 104.74256, 11.7368 ], [ 104.74365, 11.74111 ], [ 104.74516, 11.74529 ], [ 104.74917, 11.75275 ], [ 104.74246, 11.75926 ], [ 104.73746, 11.76663 ], [ 104.73401, 11.77481 ], [ 104.7328, 11.77985 ], [ 104.72636, 11.78123 ], [ 104.71804, 11.78461 ], [ 104.71418, 11.78689 ], [ 104.70721, 11.7925 ], [ 104.7015, 11.79935 ], [ 104.69918, 11.80315 ], [ 104.69593, 11.81077 ], [ 104.69154, 11.81452 ], [ 104.68851, 11.8178 ], [ 104.6835, 11.82517 ], [ 104.68005, 11.83335 ], [ 104.67828, 11.84204 ], [ 104.67827, 11.85091 ], [ 104.67995, 11.85934 ], [ 104.67433, 11.86316 ], [ 104.66796, 11.86942 ], [ 104.66295, 11.87679 ], [ 104.6595, 11.88497 ], [ 104.65773, 11.89366 ], [ 104.6575, 11.8981 ], [ 104.65772, 11.90253 ], [ 104.65929, 11.91054 ], [ 104.65343, 11.90894 ], [ 104.64898, 11.90828 ], [ 104.63998, 11.90827 ], [ 104.63115, 11.90998 ], [ 104.62283, 11.91337 ], [ 104.61534, 11.91828 ], [ 104.60896, 11.92454 ], [ 104.60395, 11.9319 ], [ 104.60202, 11.93591 ], [ 104.59945, 11.94418 ], [ 104.59287, 11.93761 ], [ 104.58539, 11.93268 ], [ 104.57708, 11.92927 ], [ 104.56826, 11.92753 ], [ 104.55926, 11.92751 ], [ 104.55042, 11.92923 ], [ 104.5421, 11.93261 ], [ 104.53461, 11.93752 ], [ 104.52823, 11.94378 ], [ 104.52322, 11.95114 ], [ 104.51976, 11.95932 ], [ 104.51799, 11.96801 ], [ 104.51776, 11.97244 ], [ 104.51797, 11.97688 ], [ 104.51971, 11.98557 ], [ 104.52314, 11.99377 ], [ 104.52813, 12.00115 ], [ 104.53116, 12.00444 ], [ 104.53625, 12.00871 ], [ 104.52845, 12.00722 ], [ 104.52394, 12.007 ], [ 104.51498, 12.00785 ], [ 104.50636, 12.01041 ], [ 104.50228, 12.0123 ], [ 104.49479, 12.01721 ], [ 104.49144, 12.02019 ], [ 104.48572, 12.02703 ], [ 104.48146, 12.03484 ], [ 104.47993, 12.03901 ], [ 104.47816, 12.0477 ], [ 104.47814, 12.05656 ], [ 104.47988, 12.06526 ], [ 104.48139, 12.06944 ], [ 104.48331, 12.07346 ], [ 104.4883, 12.08084 ], [ 104.49132, 12.08413 ], [ 104.49827, 12.08976 ], [ 104.50621, 12.09396 ], [ 104.51045, 12.09546 ], [ 104.51928, 12.0972 ], [ 104.52379, 12.09743 ], [ 104.52829, 12.09722 ], [ 104.53713, 12.09551 ], [ 104.54137, 12.09402 ], [ 104.54932, 12.08985 ], [ 104.55295, 12.08721 ], [ 104.55914, 12.08116 ], [ 104.55619, 12.08579 ], [ 104.55426, 12.0898 ], [ 104.55273, 12.09397 ], [ 104.55096, 12.10266 ], [ 104.55094, 12.11153 ], [ 104.5516, 12.11592 ], [ 104.55269, 12.12022 ], [ 104.55612, 12.12842 ], [ 104.56111, 12.1358 ], [ 104.56414, 12.13909 ], [ 104.57109, 12.14472 ], [ 104.57507, 12.14706 ], [ 104.57839, 12.15496 ], [ 104.58071, 12.15877 ], [ 104.58641, 12.16563 ], [ 104.58975, 12.16861 ], [ 104.59723, 12.17355 ], [ 104.60131, 12.17545 ], [ 104.60992, 12.17804 ], [ 104.6181, 12.17888 ], [ 104.61933, 12.18407 ], [ 104.62303, 12.19271 ], [ 104.62066, 12.20184 ], [ 104.6168, 12.2052 ], [ 104.61107, 12.21204 ], [ 104.60681, 12.21985 ], [ 104.60491, 12.22548 ], [ 104.60106, 12.22604 ], [ 104.59406, 12.22803 ], [ 104.58658, 12.22662 ], [ 104.58207, 12.2264 ], [ 104.57757, 12.22661 ], [ 104.56873, 12.22832 ], [ 104.56448, 12.22981 ], [ 104.55652, 12.23398 ], [ 104.54955, 12.23959 ], [ 104.54382, 12.24643 ], [ 104.54149, 12.25023 ], [ 104.53803, 12.25842 ], [ 104.53626, 12.26711 ], [ 104.53624, 12.27597 ], [ 104.53798, 12.28467 ], [ 104.54142, 12.29286 ], [ 104.54641, 12.30024 ], [ 104.54944, 12.30353 ], [ 104.5564, 12.30917 ], [ 104.56434, 12.31336 ], [ 104.57296, 12.31594 ], [ 104.58193, 12.31683 ], [ 104.5909, 12.31597 ], [ 104.59791, 12.31398 ], [ 104.60539, 12.31539 ], [ 104.6099, 12.31561 ], [ 104.61441, 12.3154 ], [ 104.62325, 12.31368 ], [ 104.6275, 12.31219 ], [ 104.63546, 12.30803 ], [ 104.64243, 12.30241 ], [ 104.64687, 12.29727 ], [ 104.65144, 12.30007 ], [ 104.65552, 12.30197 ], [ 104.66414, 12.30456 ], [ 104.66861, 12.30522 ], [ 104.67762, 12.30523 ], [ 104.68209, 12.30458 ], [ 104.68742, 12.30317 ], [ 104.69256, 12.30927 ], [ 104.6959, 12.31226 ], [ 104.70339, 12.31719 ], [ 104.70747, 12.31909 ], [ 104.7161, 12.32167 ], [ 104.72056, 12.32233 ], [ 104.72507, 12.32255 ], [ 104.73269, 12.32189 ], [ 104.73403, 12.32783 ], [ 104.73555, 12.33201 ], [ 104.73979, 12.33983 ], [ 104.7455, 12.34668 ], [ 104.75247, 12.35231 ], [ 104.75633, 12.3546 ], [ 104.76466, 12.358 ], [ 104.7735, 12.35973 ], [ 104.78252, 12.35974 ], [ 104.78698, 12.35909 ], [ 104.79561, 12.35653 ], [ 104.80357, 12.35236 ], [ 104.81054, 12.34674 ], [ 104.81357, 12.34345 ], [ 104.81859, 12.33608 ], [ 104.82204, 12.3279 ], [ 104.82381, 12.31921 ], [ 104.82381, 12.31034 ], [ 104.82206, 12.30165 ], [ 104.81862, 12.29346 ], [ 104.8163, 12.28965 ], [ 104.81059, 12.28279 ], [ 104.80725, 12.27981 ], [ 104.79976, 12.27488 ], [ 104.79568, 12.27298 ], [ 104.78706, 12.2704 ], [ 104.78259, 12.26975 ], [ 104.77809, 12.26952 ], [ 104.77046, 12.27019 ], [ 104.76912, 12.26425 ], [ 104.76761, 12.26007 ], [ 104.76336, 12.25225 ], [ 104.75765, 12.24539 ], [ 104.75069, 12.23976 ], [ 104.74682, 12.23748 ], [ 104.7385, 12.23408 ], [ 104.72967, 12.23234 ], [ 104.72065, 12.23233 ], [ 104.71263, 12.23385 ], [ 104.70853, 12.22575 ], [ 104.71116, 12.21726 ], [ 104.71183, 12.21287 ], [ 104.71184, 12.20401 ], [ 104.71009, 12.19531 ], [ 104.70638, 12.18667 ], [ 104.70839, 12.17987 ], [ 104.70906, 12.17548 ], [ 104.70907, 12.16662 ], [ 104.70732, 12.15793 ], [ 104.70388, 12.14973 ], [ 104.69888, 12.14236 ], [ 104.69586, 12.13907 ], [ 104.6889, 12.13344 ], [ 104.68096, 12.12925 ], [ 104.67672, 12.12775 ], [ 104.67234, 12.12666 ], [ 104.66417, 12.12582 ], [ 104.66294, 12.12064 ], [ 104.66143, 12.11646 ], [ 104.65719, 12.10863 ], [ 104.65149, 12.10177 ], [ 104.64815, 12.09879 ], [ 104.64056, 12.0938 ], [ 104.63723, 12.08591 ], [ 104.63492, 12.0821 ], [ 104.62921, 12.07524 ], [ 104.62588, 12.07226 ], [ 104.61839, 12.06732 ], [ 104.61008, 12.06392 ], [ 104.60125, 12.06218 ], [ 104.59224, 12.06216 ], [ 104.58341, 12.06388 ], [ 104.57508, 12.06726 ], [ 104.56759, 12.07217 ], [ 104.56139, 12.07823 ], [ 104.56434, 12.0736 ], [ 104.56628, 12.06959 ], [ 104.56891, 12.06111 ], [ 104.5698, 12.05229 ], [ 104.56894, 12.04347 ], [ 104.56633, 12.03498 ], [ 104.5621, 12.02716 ], [ 104.5564, 12.0203 ], [ 104.55131, 12.01602 ], [ 104.55911, 12.01751 ], [ 104.56361, 12.01773 ], [ 104.57257, 12.01688 ], [ 104.58119, 12.01432 ], [ 104.58914, 12.01015 ], [ 104.59611, 12.00454 ], [ 104.60183, 11.9977 ], [ 104.60609, 11.98989 ], [ 104.60866, 11.98162 ], [ 104.61524, 11.98819 ], [ 104.62272, 11.99312 ], [ 104.62679, 11.99502 ], [ 104.6354, 11.99761 ], [ 104.63986, 11.99826 ], [ 104.64886, 11.99828 ], [ 104.65332, 11.99763 ], [ 104.66194, 11.99507 ], [ 104.66989, 11.9909 ], [ 104.67685, 11.98528 ], [ 104.67988, 11.982 ], [ 104.68257, 11.97844 ], [ 104.68555, 11.97328 ], [ 104.69194, 11.97742 ], [ 104.69801, 11.98002 ], [ 104.69381, 11.98522 ], [ 104.68956, 11.99303 ], [ 104.68693, 12.00151 ], [ 104.68604, 12.01033 ], [ 104.68691, 12.01915 ], [ 104.68952, 12.02764 ], [ 104.69375, 12.03546 ], [ 104.69684, 12.03947 ], [ 104.69647, 12.04049 ], [ 104.69043, 12.04377 ], [ 104.68681, 12.04641 ], [ 104.68043, 12.05267 ], [ 104.67542, 12.06004 ], [ 104.67196, 12.06822 ], [ 104.67086, 12.07253 ], [ 104.6702, 12.07691 ], [ 104.67019, 12.08578 ], [ 104.67193, 12.09447 ], [ 104.67537, 12.10267 ], [ 104.68036, 12.11004 ], [ 104.68673, 12.11632 ], [ 104.69421, 12.12125 ], [ 104.69829, 12.12315 ], [ 104.7069, 12.12573 ], [ 104.71587, 12.12661 ], [ 104.72483, 12.12575 ], [ 104.73345, 12.12319 ], [ 104.73753, 12.12129 ], [ 104.74503, 12.11638 ], [ 104.74837, 12.1134 ], [ 104.75377, 12.10698 ], [ 104.7592, 12.11041 ], [ 104.76751, 12.11381 ], [ 104.77635, 12.11554 ], [ 104.78085, 12.11577 ], [ 104.78536, 12.11555 ], [ 104.79419, 12.11383 ], [ 104.79844, 12.11234 ], [ 104.80639, 12.10816 ], [ 104.81335, 12.10255 ], [ 104.81907, 12.0957 ], [ 104.82139, 12.09189 ], [ 104.82484, 12.08371 ], [ 104.82661, 12.07501 ], [ 104.82661, 12.06615 ], [ 104.82486, 12.05745 ], [ 104.82335, 12.05328 ], [ 104.81911, 12.04546 ], [ 104.8134, 12.0386 ], [ 104.80644, 12.03297 ], [ 104.80257, 12.03069 ], [ 104.7985, 12.02879 ], [ 104.78989, 12.02621 ], [ 104.78093, 12.02533 ], [ 104.77605, 12.0256 ], [ 104.77543, 12.02488 ], [ 104.77702, 12.01924 ], [ 104.77768, 12.01485 ], [ 104.77769, 12.00599 ], [ 104.77594, 11.99729 ], [ 104.7725, 11.9891 ], [ 104.7675, 11.98172 ], [ 104.76114, 11.97545 ], [ 104.75366, 11.97052 ], [ 104.74759, 11.96791 ], [ 104.75224, 11.96198 ], [ 104.7595, 11.96333 ], [ 104.7685, 11.96334 ], [ 104.77296, 11.96269 ], [ 104.78158, 11.96013 ], [ 104.78952, 11.95595 ], [ 104.79648, 11.95033 ], [ 104.79951, 11.94705 ], [ 104.80452, 11.93968 ], [ 104.80797, 11.9315 ], [ 104.80973, 11.9228 ], [ 104.80974, 11.91394 ], [ 104.80908, 11.90955 ], [ 104.80799, 11.90524 ], [ 104.80455, 11.89705 ], [ 104.79956, 11.88968 ], [ 104.7932, 11.88341 ], [ 104.78572, 11.87848 ], [ 104.7774, 11.87508 ], [ 104.76858, 11.87334 ], [ 104.76091, 11.87327 ], [ 104.76379, 11.86892 ], [ 104.7697, 11.86877 ], [ 104.77416, 11.86813 ], [ 104.78076, 11.86627 ], [ 104.78668, 11.86855 ], [ 104.79105, 11.86963 ], [ 104.80001, 11.87051 ], [ 104.8062, 11.87005 ], [ 104.80697, 11.87655 ], [ 104.80957, 11.88503 ], [ 104.81381, 11.89285 ], [ 104.81952, 11.89971 ], [ 104.82647, 11.90534 ], [ 104.83033, 11.90762 ], [ 104.83865, 11.91102 ], [ 104.84747, 11.91275 ], [ 104.85647, 11.91275 ], [ 104.86093, 11.91211 ], [ 104.86955, 11.90954 ], [ 104.87362, 11.90764 ], [ 104.87749, 11.90536 ], [ 104.88445, 11.89974 ], [ 104.88747, 11.89645 ], [ 104.89133, 11.89098 ], [ 104.89372, 11.89862 ], [ 104.89796, 11.90644 ], [ 104.90367, 11.9133 ], [ 104.90701, 11.91628 ], [ 104.91449, 11.9212 ], [ 104.91856, 11.9231 ], [ 104.92718, 11.92568 ], [ 104.93163, 11.92633 ], [ 104.94064, 11.92633 ], [ 104.94509, 11.92568 ], [ 104.95371, 11.92311 ], [ 104.96165, 11.91893 ], [ 104.96861, 11.91331 ], [ 104.97163, 11.91002 ], [ 104.97663, 11.90265 ], [ 104.97933, 11.89652 ], [ 104.9876, 11.90094 ], [ 104.99621, 11.90351 ], [ 105.00517, 11.90438 ], [ 105.01228, 11.90378 ], [ 105.01228, 11.73481 ], [ 105.01175, 11.72418 ], [ 105.01016, 11.71364 ], [ 105.00753, 11.70331 ], [ 105.00389, 11.69328 ], [ 104.99927, 11.68366 ], [ 104.99372, 11.67452 ], [ 104.98728, 11.66597 ], [ 104.98003, 11.65808 ], [ 104.97202, 11.65092 ], [ 104.96334, 11.64458 ], [ 104.95408, 11.6391 ], [ 104.94431, 11.63455 ], [ 104.93414, 11.63096 ], [ 104.92366, 11.62837 ], [ 104.91298, 11.6268 ], [ 104.90219, 11.62627 ], [ 104.71709, 11.62615 ], [ 104.712, 11.6304 ], [ 104.70672, 11.63668 ], [ 104.69951, 11.63606 ], [ 104.69056, 11.63692 ], [ 104.68196, 11.63948 ], [ 104.67436, 11.64345 ], [ 104.66998, 11.63708 ], [ 104.66749, 11.63437 ], [ 104.67432, 11.63361 ], [ 104.67869, 11.63254 ], [ 104.687, 11.62916 ], [ 104.6919, 11.62613 ], [ 104.61256, 11.62603 ], [ 104.60543, 11.63073 ], [ 104.59907, 11.63699 ], [ 104.59406, 11.64436 ], [ 104.59124, 11.65081 ], [ 104.5898, 11.64414 ], [ 104.58637, 11.63594 ], [ 104.58406, 11.63213 ], [ 104.57901, 11.62598 ], [ 104.45182, 11.62577 ] ], [ [ 104.85633, 11.8163 ], [ 104.86004, 11.81162 ], [ 104.86235, 11.80782 ], [ 104.8658, 11.79963 ], [ 104.86756, 11.79094 ], [ 104.86757, 11.78207 ], [ 104.86691, 11.77768 ], [ 104.86581, 11.77338 ], [ 104.86238, 11.76519 ], [ 104.85738, 11.75781 ], [ 104.85102, 11.75154 ], [ 104.84741, 11.7489 ], [ 104.83962, 11.74478 ], [ 104.84503, 11.74461 ], [ 104.85385, 11.74289 ], [ 104.86216, 11.7395 ], [ 104.86641, 11.73694 ], [ 104.8688, 11.74223 ], [ 104.87111, 11.74604 ], [ 104.87682, 11.75289 ], [ 104.88377, 11.75852 ], [ 104.8917, 11.7627 ], [ 104.90031, 11.76527 ], [ 104.90476, 11.76593 ], [ 104.91376, 11.76593 ], [ 104.91822, 11.76528 ], [ 104.92682, 11.76271 ], [ 104.9309, 11.76081 ], [ 104.93542, 11.75805 ], [ 104.94082, 11.76328 ], [ 104.94443, 11.76592 ], [ 104.9483, 11.76821 ], [ 104.95373, 11.77058 ], [ 104.94574, 11.77574 ], [ 104.93938, 11.78201 ], [ 104.93438, 11.78938 ], [ 104.93094, 11.79757 ], [ 104.92918, 11.80626 ], [ 104.92918, 11.81512 ], [ 104.92984, 11.81951 ], [ 104.93245, 11.828 ], [ 104.93694, 11.83615 ], [ 104.9272, 11.83698 ], [ 104.91859, 11.83955 ], [ 104.91452, 11.84145 ], [ 104.91065, 11.84373 ], [ 104.90369, 11.84935 ], [ 104.90067, 11.85264 ], [ 104.89682, 11.85811 ], [ 104.89442, 11.85047 ], [ 104.89249, 11.84646 ], [ 104.8875, 11.83908 ], [ 104.88447, 11.83579 ], [ 104.87752, 11.83017 ], [ 104.86959, 11.82599 ], [ 104.86098, 11.82341 ], [ 104.85634, 11.82275 ], [ 104.85633, 11.8163 ] ], [ [ 104.58824, 11.67457 ], [ 104.58913, 11.67212 ], [ 104.59057, 11.67879 ], [ 104.59208, 11.68297 ], [ 104.59631, 11.6908 ], [ 104.599, 11.69438 ], [ 104.59326, 11.69341 ], [ 104.58876, 11.69318 ], [ 104.57981, 11.69404 ], [ 104.5712, 11.6966 ], [ 104.5631, 11.70089 ], [ 104.56233, 11.69937 ], [ 104.56744, 11.69711 ], [ 104.57131, 11.69483 ], [ 104.57827, 11.68922 ], [ 104.58398, 11.68238 ], [ 104.58824, 11.67457 ] ], [ [ 104.90946, 11.67572 ], [ 104.91086, 11.67489 ], [ 104.91124, 11.67461 ], [ 104.91094, 11.67579 ], [ 104.90946, 11.67572 ] ] ], [ [ [ 105.01229, 11.9725 ], [ 105.00178, 11.97431 ], [ 104.99346, 11.9777 ], [ 104.98597, 11.98262 ], [ 104.98226, 11.98601 ], [ 104.97562, 11.98413 ], [ 104.97116, 11.98347 ], [ 104.96215, 11.98347 ], [ 104.95332, 11.9852 ], [ 104.945, 11.98859 ], [ 104.94114, 11.99087 ], [ 104.93418, 11.99649 ], [ 104.92846, 12.00334 ], [ 104.92422, 12.01116 ], [ 104.9216, 12.01964 ], [ 104.92094, 12.02403 ], [ 104.92093, 12.0329 ], [ 104.92269, 12.04159 ], [ 104.92482, 12.04705 ], [ 104.92379, 12.05286 ], [ 104.92379, 12.06173 ], [ 104.92555, 12.07042 ], [ 104.92875, 12.07811 ], [ 104.92799, 12.0861 ], [ 104.92821, 12.09053 ], [ 104.92887, 12.09492 ], [ 104.93135, 12.10302 ], [ 104.92884, 12.10926 ], [ 104.92708, 12.11796 ], [ 104.92707, 12.12682 ], [ 104.92883, 12.13552 ], [ 104.93227, 12.14371 ], [ 104.93728, 12.15108 ], [ 104.9403, 12.15437 ], [ 104.94727, 12.15999 ], [ 104.95114, 12.16227 ], [ 104.95521, 12.16417 ], [ 104.96383, 12.16674 ], [ 104.9683, 12.1674 ], [ 104.97731, 12.1674 ], [ 104.98177, 12.16675 ], [ 104.99039, 12.16417 ], [ 104.99447, 12.16228 ], [ 105.00196, 12.15735 ], [ 105.00833, 12.15108 ], [ 105.0123, 12.14541 ], [ 105.01229, 11.9725 ] ] ], [ [ [ 105.0123, 12.15796 ], [ 105.00918, 12.16748 ], [ 105.0083, 12.1763 ], [ 105.00918, 12.18512 ], [ 105.01028, 12.18942 ], [ 105.0123, 12.19464 ], [ 105.0123, 12.15796 ] ] ], [ [ [ 105.01015, 12.53833 ], [ 105.00669, 12.54652 ], [ 105.00493, 12.55521 ], [ 105.00471, 12.55965 ], [ 105.00493, 12.56408 ], [ 105.00669, 12.57277 ], [ 105.00822, 12.57695 ], [ 105.01232, 12.58451 ], [ 105.01231, 12.53478 ], [ 105.01015, 12.53833 ] ] ], [ [ [ 105.00918, 12.58564 ], [ 105.00055, 12.58307 ], [ 104.99157, 12.5822 ], [ 104.98705, 12.58242 ], [ 104.9782, 12.58414 ], [ 104.96987, 12.58754 ], [ 104.96599, 12.58982 ], [ 104.95901, 12.59544 ], [ 104.95329, 12.60229 ], [ 104.95096, 12.6061 ], [ 104.94862, 12.61125 ], [ 104.94207, 12.61073 ], [ 104.93308, 12.6116 ], [ 104.92445, 12.61417 ], [ 104.91988, 12.61635 ], [ 104.91319, 12.61646 ], [ 104.90434, 12.61818 ], [ 104.90008, 12.61968 ], [ 104.89212, 12.62385 ], [ 104.88514, 12.62947 ], [ 104.88211, 12.63276 ], [ 104.87709, 12.64013 ], [ 104.87363, 12.64831 ], [ 104.87253, 12.65262 ], [ 104.87168, 12.6607 ], [ 104.86513, 12.66601 ], [ 104.8621, 12.66929 ], [ 104.8594, 12.67286 ], [ 104.85649, 12.67788 ], [ 104.85091, 12.68343 ], [ 104.84821, 12.68699 ], [ 104.84381, 12.69519 ], [ 104.8349, 12.69874 ], [ 104.83144, 12.69049 ], [ 104.82643, 12.68312 ], [ 104.82339, 12.67983 ], [ 104.81642, 12.6742 ], [ 104.80846, 12.67002 ], [ 104.79983, 12.66744 ], [ 104.79536, 12.66678 ], [ 104.78633, 12.66677 ], [ 104.77748, 12.6685 ], [ 104.76913, 12.67188 ], [ 104.76525, 12.67416 ], [ 104.75827, 12.67978 ], [ 104.75523, 12.68306 ], [ 104.75021, 12.69043 ], [ 104.74675, 12.69861 ], [ 104.74565, 12.70291 ], [ 104.74498, 12.7073 ], [ 104.74497, 12.7161 ], [ 104.90179, 12.7162 ], [ 104.91262, 12.71568 ], [ 104.92335, 12.71412 ], [ 104.93388, 12.71154 ], [ 104.94409, 12.70795 ], [ 104.9539, 12.7034 ], [ 104.96338, 12.6978 ], [ 104.96242, 12.69644 ], [ 104.96763, 12.69355 ], [ 104.97461, 12.68792 ], [ 104.98034, 12.68107 ], [ 104.98266, 12.67727 ], [ 104.98501, 12.67211 ], [ 104.99024, 12.67256 ], [ 104.9937, 12.66799 ], [ 104.99927, 12.65886 ], [ 105.00391, 12.64923 ], [ 105.00756, 12.6392 ], [ 105.0102, 12.62887 ], [ 105.01179, 12.61834 ], [ 105.01232, 12.6077 ], [ 105.01232, 12.5871 ], [ 105.00918, 12.58564 ] ] ], [ [ [ 104.16614, 11.64092 ], [ 104.15785, 11.63751 ], [ 104.14903, 11.63575 ], [ 104.14004, 11.63573 ], [ 104.13122, 11.63743 ], [ 104.1229, 11.6408 ], [ 104.11541, 11.6457 ], [ 104.10903, 11.65195 ], [ 104.10401, 11.6593 ], [ 104.10055, 11.66748 ], [ 104.09876, 11.67616 ], [ 104.09873, 11.68503 ], [ 104.10046, 11.69373 ], [ 104.10388, 11.70193 ], [ 104.10885, 11.70931 ], [ 104.11519, 11.7156 ], [ 104.12265, 11.72054 ], [ 104.13095, 11.72396 ], [ 104.13976, 11.72572 ], [ 104.14876, 11.72574 ], [ 104.15759, 11.72404 ], [ 104.1659, 11.72067 ], [ 104.1734, 11.71577 ], [ 104.17978, 11.70952 ], [ 104.18479, 11.70217 ], [ 104.18826, 11.69399 ], [ 104.19004, 11.6853 ], [ 104.19006, 11.67644 ], [ 104.18834, 11.66774 ], [ 104.18492, 11.65954 ], [ 104.17994, 11.65216 ], [ 104.1736, 11.64587 ], [ 104.16614, 11.64092 ] ] ], [ [ [ 104.36966, 11.75714 ], [ 104.36136, 11.75373 ], [ 104.35254, 11.75198 ], [ 104.34354, 11.75196 ], [ 104.33472, 11.75367 ], [ 104.3264, 11.75704 ], [ 104.31891, 11.76195 ], [ 104.31253, 11.7682 ], [ 104.30752, 11.77556 ], [ 104.30405, 11.78374 ], [ 104.30227, 11.79243 ], [ 104.30225, 11.80129 ], [ 104.30399, 11.80999 ], [ 104.30741, 11.81818 ], [ 104.31239, 11.82557 ], [ 104.31874, 11.83185 ], [ 104.3262, 11.83679 ], [ 104.33451, 11.8402 ], [ 104.34333, 11.84195 ], [ 104.35233, 11.84197 ], [ 104.36116, 11.84026 ], [ 104.36948, 11.83689 ], [ 104.37697, 11.83198 ], [ 104.38335, 11.82573 ], [ 104.38836, 11.81837 ], [ 104.39183, 11.81019 ], [ 104.3936, 11.8015 ], [ 104.39362, 11.79264 ], [ 104.39188, 11.78394 ], [ 104.38846, 11.77574 ], [ 104.38348, 11.76836 ], [ 104.37713, 11.76208 ], [ 104.36966, 11.75714 ] ] ], [ [ [ 104.19778, 12.25706 ], [ 104.18946, 12.25364 ], [ 104.18063, 12.25189 ], [ 104.17162, 12.25186 ], [ 104.16277, 12.25356 ], [ 104.15444, 12.25693 ], [ 104.14693, 12.26183 ], [ 104.14054, 12.26808 ], [ 104.13551, 12.27543 ], [ 104.13203, 12.28361 ], [ 104.13024, 12.2923 ], [ 104.13021, 12.30116 ], [ 104.13194, 12.30986 ], [ 104.13537, 12.31806 ], [ 104.14035, 12.32544 ], [ 104.1467, 12.33173 ], [ 104.15418, 12.33668 ], [ 104.1625, 12.34009 ], [ 104.17134, 12.34185 ], [ 104.18035, 12.34188 ], [ 104.1892, 12.34017 ], [ 104.19754, 12.33681 ], [ 104.20505, 12.3319 ], [ 104.21144, 12.32566 ], [ 104.21647, 12.3183 ], [ 104.21994, 12.31012 ], [ 104.22173, 12.30143 ], [ 104.22175, 12.29257 ], [ 104.22002, 12.28387 ], [ 104.21659, 12.27568 ], [ 104.21161, 12.26829 ], [ 104.20526, 12.26201 ], [ 104.19778, 12.25706 ] ] ], [ [ [ 104.05991, 12.43737 ], [ 104.05943, 12.56875 ], [ 104.06585, 12.57128 ], [ 104.07469, 12.57304 ], [ 104.08372, 12.57307 ], [ 104.08819, 12.57244 ], [ 104.09683, 12.56989 ], [ 104.1048, 12.56574 ], [ 104.11179, 12.56014 ], [ 104.11754, 12.55331 ], [ 104.12182, 12.54551 ], [ 104.12447, 12.53704 ], [ 104.12538, 12.52822 ], [ 104.12453, 12.5194 ], [ 104.12344, 12.51509 ], [ 104.12002, 12.50689 ], [ 104.11503, 12.4995 ], [ 104.10868, 12.49322 ], [ 104.10119, 12.48827 ], [ 104.09712, 12.48636 ], [ 104.0885, 12.48375 ], [ 104.08326, 12.48305 ], [ 104.08373, 12.47712 ], [ 104.08288, 12.4683 ], [ 104.0818, 12.46399 ], [ 104.07837, 12.45579 ], [ 104.07339, 12.4484 ], [ 104.07037, 12.4451 ], [ 104.06704, 12.44211 ], [ 104.05991, 12.43737 ] ] ], [ [ [ 104.33825, 12.45685 ], [ 104.32993, 12.45344 ], [ 104.32109, 12.45169 ], [ 104.31207, 12.45167 ], [ 104.30322, 12.45337 ], [ 104.29488, 12.45674 ], [ 104.28737, 12.46165 ], [ 104.28097, 12.4679 ], [ 104.27594, 12.47525 ], [ 104.27246, 12.48343 ], [ 104.27068, 12.49212 ], [ 104.27066, 12.50098 ], [ 104.27239, 12.50968 ], [ 104.27582, 12.51788 ], [ 104.28081, 12.52526 ], [ 104.28717, 12.53154 ], [ 104.29466, 12.53649 ], [ 104.30299, 12.5399 ], [ 104.31183, 12.54165 ], [ 104.32085, 12.54168 ], [ 104.32971, 12.53997 ], [ 104.33805, 12.5366 ], [ 104.34556, 12.53169 ], [ 104.35196, 12.52544 ], [ 104.35699, 12.51808 ], [ 104.36046, 12.5099 ], [ 104.36224, 12.50122 ], [ 104.36226, 12.49235 ], [ 104.36052, 12.48365 ], [ 104.35709, 12.47546 ], [ 104.3521, 12.46808 ], [ 104.34574, 12.46179 ], [ 104.33825, 12.45685 ] ] ], [ [ [ 104.23406, 12.49184 ], [ 104.22574, 12.48843 ], [ 104.2169, 12.48667 ], [ 104.20788, 12.48665 ], [ 104.20341, 12.48728 ], [ 104.19477, 12.48983 ], [ 104.1868, 12.49398 ], [ 104.17981, 12.49959 ], [ 104.17677, 12.50286 ], [ 104.17174, 12.51022 ], [ 104.16826, 12.5184 ], [ 104.16647, 12.52708 ], [ 104.16623, 12.53151 ], [ 104.16644, 12.53594 ], [ 104.1675, 12.54196 ], [ 104.16439, 12.54936 ], [ 104.16261, 12.55805 ], [ 104.16258, 12.56691 ], [ 104.16431, 12.57561 ], [ 104.16774, 12.58381 ], [ 104.17273, 12.59119 ], [ 104.17575, 12.59449 ], [ 104.18271, 12.60013 ], [ 104.18657, 12.60243 ], [ 104.1949, 12.60584 ], [ 104.20374, 12.6076 ], [ 104.21277, 12.60763 ], [ 104.22162, 12.60592 ], [ 104.22997, 12.60255 ], [ 104.23749, 12.59765 ], [ 104.24389, 12.5914 ], [ 104.24892, 12.58405 ], [ 104.2524, 12.57587 ], [ 104.25418, 12.56718 ], [ 104.25442, 12.56275 ], [ 104.25421, 12.55832 ], [ 104.25315, 12.55231 ], [ 104.25625, 12.5449 ], [ 104.25804, 12.53621 ], [ 104.25806, 12.52735 ], [ 104.25741, 12.52296 ], [ 104.25482, 12.51447 ], [ 104.25059, 12.50664 ], [ 104.24489, 12.49978 ], [ 104.23793, 12.49413 ], [ 104.23406, 12.49184 ] ] ], [ [ [ 104.45488, 11.71447 ], [ 104.44657, 11.71106 ], [ 104.43776, 11.70931 ], [ 104.42876, 11.7093 ], [ 104.41994, 11.71101 ], [ 104.41162, 11.71438 ], [ 104.40413, 11.71929 ], [ 104.39776, 11.72555 ], [ 104.39274, 11.7329 ], [ 104.38928, 11.74109 ], [ 104.38751, 11.74978 ], [ 104.38749, 11.75864 ], [ 104.38923, 11.76734 ], [ 104.39265, 11.77553 ], [ 104.39763, 11.78291 ], [ 104.40398, 11.78919 ], [ 104.41145, 11.79413 ], [ 104.41976, 11.79754 ], [ 104.42858, 11.79929 ], [ 104.43757, 11.79931 ], [ 104.4464, 11.7976 ], [ 104.45472, 11.79422 ], [ 104.46221, 11.78931 ], [ 104.46858, 11.78306 ], [ 104.4736, 11.77569 ], [ 104.47705, 11.76751 ], [ 104.47883, 11.75882 ], [ 104.47884, 11.74996 ], [ 104.4771, 11.74126 ], [ 104.47368, 11.73307 ], [ 104.46869, 11.72569 ], [ 104.46235, 11.71941 ], [ 104.45488, 11.71447 ] ] ], [ [ [ 104.44724, 11.96442 ], [ 104.43893, 11.96101 ], [ 104.43011, 11.95927 ], [ 104.42111, 11.95925 ], [ 104.41227, 11.96096 ], [ 104.40395, 11.96433 ], [ 104.39645, 11.96924 ], [ 104.39007, 11.9755 ], [ 104.38506, 11.98286 ], [ 104.38159, 11.99104 ], [ 104.37981, 11.99973 ], [ 104.37979, 12.00859 ], [ 104.38153, 12.01729 ], [ 104.38496, 12.02548 ], [ 104.38994, 12.03286 ], [ 104.3963, 12.03915 ], [ 104.40377, 12.04409 ], [ 104.41209, 12.0475 ], [ 104.42091, 12.04924 ], [ 104.42992, 12.04926 ], [ 104.43876, 12.04755 ], [ 104.44708, 12.04417 ], [ 104.45458, 12.03927 ], [ 104.46096, 12.03301 ], [ 104.46598, 12.02565 ], [ 104.46944, 12.01747 ], [ 104.47121, 12.00878 ], [ 104.47123, 11.99991 ], [ 104.46949, 11.99122 ], [ 104.46606, 11.98302 ], [ 104.46107, 11.97564 ], [ 104.45472, 11.96936 ], [ 104.44724, 11.96442 ] ] ], [ [ [ 104.47762, 12.17992 ], [ 104.46931, 12.17651 ], [ 104.46047, 12.17477 ], [ 104.45146, 12.17475 ], [ 104.44262, 12.17646 ], [ 104.43429, 12.17984 ], [ 104.42679, 12.18474 ], [ 104.42041, 12.191 ], [ 104.41539, 12.19836 ], [ 104.41192, 12.20654 ], [ 104.41014, 12.21523 ], [ 104.41012, 12.22409 ], [ 104.41186, 12.23279 ], [ 104.41529, 12.24099 ], [ 104.42028, 12.24837 ], [ 104.42664, 12.25465 ], [ 104.43412, 12.25959 ], [ 104.44244, 12.263 ], [ 104.45128, 12.26474 ], [ 104.46029, 12.26476 ], [ 104.46913, 12.26305 ], [ 104.47747, 12.25967 ], [ 104.48497, 12.25476 ], [ 104.49135, 12.24851 ], [ 104.49638, 12.24115 ], [ 104.49984, 12.23296 ], [ 104.50161, 12.22427 ], [ 104.50163, 12.21541 ], [ 104.49989, 12.20671 ], [ 104.49646, 12.19852 ], [ 104.49146, 12.19114 ], [ 104.48511, 12.18486 ], [ 104.47762, 12.17992 ] ] ], [ [ [ 104.51115, 12.34786 ], [ 104.50321, 12.34367 ], [ 104.49458, 12.34108 ], [ 104.49012, 12.34042 ], [ 104.48111, 12.3404 ], [ 104.47664, 12.34104 ], [ 104.46801, 12.3436 ], [ 104.46392, 12.34549 ], [ 104.45642, 12.3504 ], [ 104.45003, 12.35665 ], [ 104.44501, 12.36401 ], [ 104.44154, 12.37219 ], [ 104.44043, 12.3765 ], [ 104.43953, 12.38531 ], [ 104.43999, 12.39138 ], [ 104.43252, 12.39728 ], [ 104.42948, 12.40056 ], [ 104.42445, 12.40792 ], [ 104.42098, 12.4161 ], [ 104.41917, 12.42555 ], [ 104.41026, 12.42554 ], [ 104.40141, 12.42725 ], [ 104.39716, 12.42873 ], [ 104.38919, 12.43289 ], [ 104.38221, 12.4385 ], [ 104.37647, 12.44534 ], [ 104.37414, 12.44914 ], [ 104.37067, 12.45732 ], [ 104.36889, 12.46601 ], [ 104.36887, 12.47487 ], [ 104.36952, 12.47926 ], [ 104.37061, 12.48357 ], [ 104.37404, 12.49177 ], [ 104.37903, 12.49915 ], [ 104.3854, 12.50543 ], [ 104.39289, 12.51037 ], [ 104.40121, 12.51378 ], [ 104.40559, 12.51487 ], [ 104.41154, 12.5156 ], [ 104.416, 12.52406 ], [ 104.42171, 12.53092 ], [ 104.42867, 12.53656 ], [ 104.43254, 12.53885 ], [ 104.44086, 12.54226 ], [ 104.44971, 12.54401 ], [ 104.45873, 12.54402 ], [ 104.46758, 12.54231 ], [ 104.47593, 12.53894 ], [ 104.48344, 12.53403 ], [ 104.48983, 12.52777 ], [ 104.49486, 12.52041 ], [ 104.49832, 12.51223 ], [ 104.5001, 12.50354 ], [ 104.50012, 12.49468 ], [ 104.49946, 12.49029 ], [ 104.49837, 12.48598 ], [ 104.49494, 12.47779 ], [ 104.49262, 12.47398 ], [ 104.48806, 12.46836 ], [ 104.49409, 12.46432 ], [ 104.49744, 12.46135 ], [ 104.50048, 12.45806 ], [ 104.50551, 12.4507 ], [ 104.50897, 12.44252 ], [ 104.51008, 12.43822 ], [ 104.51098, 12.4294 ], [ 104.51052, 12.42333 ], [ 104.51799, 12.41744 ], [ 104.52372, 12.41059 ], [ 104.52605, 12.40679 ], [ 104.52952, 12.39861 ], [ 104.53129, 12.38992 ], [ 104.53131, 12.38106 ], [ 104.53065, 12.37667 ], [ 104.52956, 12.37236 ], [ 104.52613, 12.36416 ], [ 104.52113, 12.35679 ], [ 104.51811, 12.35349 ], [ 104.51115, 12.34786 ] ] ], [ [ [ 104.64811, 12.3499 ], [ 104.63979, 12.3465 ], [ 104.63095, 12.34476 ], [ 104.62193, 12.34475 ], [ 104.61309, 12.34646 ], [ 104.60475, 12.34984 ], [ 104.59725, 12.35476 ], [ 104.59087, 12.36101 ], [ 104.58585, 12.36838 ], [ 104.58238, 12.37656 ], [ 104.58061, 12.38525 ], [ 104.58059, 12.39411 ], [ 104.58234, 12.40281 ], [ 104.58578, 12.411 ], [ 104.59078, 12.41838 ], [ 104.59714, 12.42466 ], [ 104.60463, 12.42959 ], [ 104.61296, 12.433 ], [ 104.6218, 12.43474 ], [ 104.63082, 12.43475 ], [ 104.63967, 12.43304 ], [ 104.64801, 12.42965 ], [ 104.65551, 12.42474 ], [ 104.6619, 12.41848 ], [ 104.66692, 12.41112 ], [ 104.67038, 12.40293 ], [ 104.67215, 12.39424 ], [ 104.67216, 12.38538 ], [ 104.67041, 12.37668 ], [ 104.66697, 12.36849 ], [ 104.66197, 12.36111 ], [ 104.6556, 12.35484 ], [ 104.64811, 12.3499 ] ] ], [ [ [ 104.82331, 12.16888 ], [ 104.81434, 12.16801 ], [ 104.80537, 12.16887 ], [ 104.79675, 12.17144 ], [ 104.7888, 12.17561 ], [ 104.78183, 12.18123 ], [ 104.77611, 12.18807 ], [ 104.77186, 12.19589 ], [ 104.76923, 12.20437 ], [ 104.76834, 12.21319 ], [ 104.76922, 12.22201 ], [ 104.77183, 12.23049 ], [ 104.77607, 12.23831 ], [ 104.78178, 12.24517 ], [ 104.78874, 12.2508 ], [ 104.79669, 12.25498 ], [ 104.80531, 12.25756 ], [ 104.80977, 12.25822 ], [ 104.81878, 12.25822 ], [ 104.82325, 12.25757 ], [ 104.83187, 12.25501 ], [ 104.83982, 12.25083 ], [ 104.84679, 12.24521 ], [ 104.84983, 12.24193 ], [ 104.85484, 12.23456 ], [ 104.85829, 12.22637 ], [ 104.85939, 12.22207 ], [ 104.86005, 12.21768 ], [ 104.86006, 12.20882 ], [ 104.8594, 12.20443 ], [ 104.85722, 12.19715 ], [ 104.86525, 12.19951 ], [ 104.86971, 12.20017 ], [ 104.87873, 12.20017 ], [ 104.88319, 12.19952 ], [ 104.89181, 12.19695 ], [ 104.89589, 12.19506 ], [ 104.89976, 12.19278 ], [ 104.90673, 12.18716 ], [ 104.90976, 12.18387 ], [ 104.91477, 12.1765 ], [ 104.91822, 12.16831 ], [ 104.91998, 12.15962 ], [ 104.9202, 12.15519 ], [ 104.91998, 12.15076 ], [ 104.91822, 12.14206 ], [ 104.91478, 12.13387 ], [ 104.90978, 12.1265 ], [ 104.90341, 12.12023 ], [ 104.89592, 12.1153 ], [ 104.8876, 12.11191 ], [ 104.87877, 12.11017 ], [ 104.86976, 12.11017 ], [ 104.86092, 12.1119 ], [ 104.85668, 12.11339 ], [ 104.84873, 12.11756 ], [ 104.84176, 12.12318 ], [ 104.83604, 12.13003 ], [ 104.83372, 12.13383 ], [ 104.83027, 12.14202 ], [ 104.82851, 12.15071 ], [ 104.8285, 12.15958 ], [ 104.82916, 12.16397 ], [ 104.83134, 12.17125 ], [ 104.82331, 12.16888 ] ] ], [ [ [ 104.79781, 12.37846 ], [ 104.78948, 12.37506 ], [ 104.78064, 12.37332 ], [ 104.77162, 12.37332 ], [ 104.76278, 12.37504 ], [ 104.75445, 12.37842 ], [ 104.74694, 12.38334 ], [ 104.74056, 12.3896 ], [ 104.73554, 12.39697 ], [ 104.73208, 12.40515 ], [ 104.73032, 12.41384 ], [ 104.73031, 12.42271 ], [ 104.73206, 12.4314 ], [ 104.7355, 12.4396 ], [ 104.7405, 12.44697 ], [ 104.74688, 12.45324 ], [ 104.75437, 12.45818 ], [ 104.7627, 12.46158 ], [ 104.77154, 12.46331 ], [ 104.78056, 12.46332 ], [ 104.78941, 12.4616 ], [ 104.79775, 12.45821 ], [ 104.80525, 12.45329 ], [ 104.81163, 12.44703 ], [ 104.81665, 12.43966 ], [ 104.82011, 12.43148 ], [ 104.82187, 12.42278 ], [ 104.82188, 12.41392 ], [ 104.82012, 12.40523 ], [ 104.81668, 12.39703 ], [ 104.81167, 12.38966 ], [ 104.8053, 12.38339 ], [ 104.79781, 12.37846 ] ] ], [ [ [ 104.85698, 11.93691 ], [ 104.84866, 11.93351 ], [ 104.83983, 11.93177 ], [ 104.83083, 11.93177 ], [ 104.822, 11.93349 ], [ 104.81368, 11.93688 ], [ 104.80619, 11.9418 ], [ 104.79982, 11.94806 ], [ 104.79482, 11.95543 ], [ 104.79137, 11.96362 ], [ 104.7896, 11.97231 ], [ 104.7896, 11.98117 ], [ 104.79135, 11.98987 ], [ 104.79478, 11.99806 ], [ 104.79978, 12.00543 ], [ 104.80614, 12.01171 ], [ 104.81363, 12.01664 ], [ 104.82194, 12.02003 ], [ 104.83078, 12.02177 ], [ 104.83978, 12.02177 ], [ 104.84861, 12.02005 ], [ 104.85693, 12.01666 ], [ 104.86442, 12.01174 ], [ 104.87079, 12.00547 ], [ 104.8758, 11.99811 ], [ 104.87925, 11.98992 ], [ 104.88101, 11.98123 ], [ 104.88101, 11.97236 ], [ 104.87926, 11.96367 ], [ 104.87582, 11.95548 ], [ 104.87082, 11.9481 ], [ 104.86446, 11.94183 ], [ 104.85698, 11.93691 ] ] ] ] } }
]
}
