{
"type": "FeatureCollection",
"name": "health_centres",
"crs": { "type": "name", "properties": { "name": "urn:ogc:def:crs:OGC:1.3:CRS84" } },
"xy_coordinate_resolution": 1e-05,
"features": [
{ "type": "Feature", "properties": { "FACILITNAM": "Sdau", "ODNAME": "Srei Santhor", "in_prov": false }, "geometry": { "type": "Point", "coordinates": [ 105.00517, 11.85916 ] } },
{ "type": "Feature", "properties": { "FACILITNAM": "Damrei Choan Khla", "ODNAME": "Kampong Thom", "in_prov": false }, "geometry": { "type": "Point", "coordinates": [ 104.89768, 12.69799 ] } },
{ "type": "Feature", "properties": { "FACILITNAM": "Kampong Thum", "ODNAME": "Kampong Thom", "in_prov": false }, "geometry": { "type": "Point", "coordinates": [ 104.88649, 12.71213 ] } },
{ "type": "Feature", "properties": { "FACILITNAM": "Kampong Kou", "ODNAME": "Kampong Thom", "in_prov": false }, "geometry": { "type": "Point", "coordinates": [ 104.79081, 12.71177 ] } },
{ "type": "Feature", "properties": { "FACILITNAM": "Kakaoh", "ODNAME": "Kampong Thom", "in_prov": false }, "geometry": { "type": "Point", "coordinates": [ 104.99156, 12.62741 ] } },
{ "type": "Feature", "properties": { "FACILITNAM": "Srayov", "ODNAME": "Kampong Thom", "in_prov": false }, "geometry": { "type": "Point", "coordinates": [ 104.91769, 12.66146 ] } },
{ "type": "Feature", "properties": { "FACILITNAM": "Tboung Krapeu", "ODNAME": "Kampong Thom", "in_prov": false }, "geometry": { "type": "Point", "coordinates": [ 104.94206, 12.65595 ] } },
{ "type": "Feature", "properties": { "FACILITNAM": "Ansa Chambak", "ODNAME": "Sampov Meas", "in_prov": false }, "geometry": { "type": "Point", "coordinates": [ 104.31646, 12.49667 ] } },
{ "type": "Feature", "properties": { "FACILITNAM": "Boeng Kantuot", "ODNAME": "Sampov Meas", "in_prov": false }, "geometry": { "type": "Point", "coordinates": [ 104.07936, 12.52806 ] } },
{ "type": "Feature", "properties": { "FACILITNAM": "Chheu Tom", "ODNAME": "Sampov Meas", "in_prov": false }, "geometry": { "type": "Point", "coordinates": [ 104.17598, 12.29687 ] } },
{ "type": "Feature", "properties": { "FACILITNAM": "Kampong Luong", "ODNAME": "Sampov Meas", "in_prov": false }, "geometry": { "type": "Point", "coordinates": [ 104.20839, 12.56262 ] } },
{ "type": "Feature", "properties": { "FACILITNAM": "Krakor", "ODNAME": "Sampov Meas", "in_prov": false }, "geometry": { "type": "Point", "coordinates": [ 104.21225, 12.53165 ] } },
{ "type": "Feature", "properties": { "FACILITNAM": "Oral", "ODNAME": "Kampong Speu.", "in_prov": false }, "geometry": { "type": "Point", "coordinates": [ 104.1444, 11.68074 ] } },
{ "type": "Feature", "properties": { "FACILITNAM": "Damnak Chan", "ODNAME": "OuDaung", "in_prov": false }, "geometry": { "type": "Point", "coordinates": [ 104.63449, 11.66573 ] } },
{ "type": "Feature", "properties": { "FACILITNAM": "Khsem Khsan Trach Tong", "ODNAME": "OuDaung", "in_prov": false }, "geometry": { "type": "Point", "coordinates": [ 104.69946, 11.68127 ] } },
{ "type": "Feature", "properties": { "FACILITNAM": "Damnak Smach", "ODNAME": "OuDaung", "in_prov": false }, "geometry": { "type": "Point", "coordinates": [ 104.65532, 11.77466 ] } },
{ "type": "Feature", "properties": { "FACILITNAM": "Veing Preah Srae", "ODNAME": "OuDaung", "in_prov": false }, "geometry": { "type": "Point", "coordinates": [ 104.73964, 11.82451 ] } },
{ "type": "Feature", "properties": { "FACILITNAM": "Cheung Roas Samak", "ODNAME": "OuDaung", "in_prov": false }, "geometry": { "type": "Point", "coordinates": [ 104.54588, 11.6572 ] } },
{ "type": "Feature", "properties": { "FACILITNAM": "Amleang", "ODNAME": "OuDaung", "in_prov": false }, "geometry": { "type": "Point", "coordinates": [ 104.34794, 11.79697 ] } },
{ "type": "Feature", "properties": { "FACILITNAM": "Anluong Chrey", "ODNAME": "OuDaung", "in_prov": false }, "geometry": { "type": "Point", "coordinates": [ 104.43317, 11.7543 ] } },
{ "type": "Feature", "properties": { "FACILITNAM": "Monor Rung Roeang", "ODNAME": "OuDaung", "in_prov": false }, "geometry": { "type": "Point", "coordinates": [ 104.52204, 11.72096 ] } },
{ "type": "Feature", "properties": { "FACILITNAM": "Dom Kvet", "ODNAME": "OuDaung", "in_prov": false }, "geometry": { "type": "Point", "coordinates": [ 104.5887, 11.7384 ] } },
{ "type": "Feature", "properties": { "FACILITNAM": "Kilometr Lekh 9", "ODNAME": "Cheung", "in_prov": false }, "geometry": { "type": "Point", "coordinates": [ 104.88539, 11.63728 ] } },
{ "type": "Feature", "properties": { "FACILITNAM": "Preaek Ampil", "ODNAME": "Ksach Kandal", "in_prov": false }, "geometry": { "type": "Point", "coordinates": [ 104.95946, 11.65385 ] } },
{ "type": "Feature", "properties": { "FACILITNAM": "Preaek Ta Meak", "ODNAME": "Ksach Kandal", "in_prov": false }, "geometry": { "type": "Point", "coordinates": [ 105.00852, 11.74968 ] } },
{ "type": "Feature", "properties": { "FACILITNAM": "Puk Russei", "ODNAME": "Ksach Kandal", "in_prov": false }, "geometry": { "type": "Point", "coordinates": [ 104.97516, 11.70693 ] } },
{ "type": "Feature", "properties": { "FACILITNAM": "Kaoh Dach", "ODNAME": "Muk Kam Poul", "in_prov": false }, "geometry": { "type": "Point", "coordinates": [ 104.95548, 11.68643 ] } },
{ "type": "Feature", "properties": { "FACILITNAM": "Preaek Anhchanh", "ODNAME": "Muk Kam Poul", "in_prov": false }, "geometry": { "type": "Point", "coordinates": [ 104.96993, 11.72833 ] } },
{ "type": "Feature", "properties": { "FACILITNAM": "Preaek Dambang", "ODNAME": "Muk Kam Poul", "in_prov": false }, "geometry": { "type": "Point", "coordinates": [ 104.97486, 11.8107 ] } },
{ "type": "Feature", "properties": { "FACILITNAM": "Roka Kaong", "ODNAME": "Muk Kam Poul", "in_prov": false }, "geometry": { "type": "Point", "coordinates": [ 104.99579, 11.84791 ] } },
{ "type": "Feature", "properties": { "FACILITNAM": "Russei Chrouy", "ODNAME": "Muk Kam Poul", "in_prov": false }, "geometry": { "type": "Point", "coordinates": [ 105.00987, 11.78103 ] } },
{ "type": "Feature", "properties": { "FACILITNAM": "Sambuor Meas", "ODNAME": "Muk Kam Poul", "in_prov": false }, "geometry": { "type": "Point", "coordinates": [ 104.90928, 11.72093 ] } },
{ "type": "Feature", "properties": { "FACILITNAM": "Mkak", "ODNAME": "Ang Snuol", "in_prov": false }, "geometry": { "type": "Point", "coordinates": [ 104.7444, 11.66241 ] } },
{ "type": "Feature", "properties": { "FACILITNAM": "Chrey Loas", "ODNAME": "Ponhea Leu", "in_prov": false }, "geometry": { "type": "Point", "coordinates": [ 104.78757, 11.72802 ] } },
{ "type": "Feature", "properties": { "FACILITNAM": "Kampong Luong", "ODNAME": "Ponhea Leu", "in_prov": false }, "geometry": { "type": "Point", "coordinates": [ 104.80004, 11.82529 ] } },
{ "type": "Feature", "properties": { "FACILITNAM": "Kaoh Chen", "ODNAME": "Ponhea Leu", "in_prov": false }, "geometry": { "type": "Point", "coordinates": [ 104.81059, 11.81967 ] } },
{ "type": "Feature", "properties": { "FACILITNAM": "Phnom Bat", "ODNAME": "Ponhea Leu", "in_prov": false }, "geometry": { "type": "Point", "coordinates": [ 104.77791, 11.78798 ] } },
{ "type": "Feature", "properties": { "FACILITNAM": "Ponhea Lueu", "ODNAME": "Ponhea Leu", "in_prov": false }, "geometry": { "type": "Point", "coordinates": [ 104.82189, 11.78648 ] } },
{ "type": "Feature", "properties": { "FACILITNAM": "Ponhea Pun", "ODNAME": "Ponhea Leu", "in_prov": false }, "geometry": { "type": "Point", "coordinates": [ 104.78464, 11.65985 ] } },
{ "type": "Feature", "properties": { "FACILITNAM": "Preaek Pnov", "ODNAME": "Ponhea Leu", "in_prov": false }, "geometry": { "type": "Point", "coordinates": [ 104.86171, 11.66233 ] } },
{ "type": "Feature", "properties": { "FACILITNAM": "Samraong", "ODNAME": "Ponhea Leu", "in_prov": false }, "geometry": { "type": "Point", "coordinates": [ 104.84055, 11.69961 ] } },
{ "type": "Feature", "properties": { "FACILITNAM": "Tumnob Thum", "ODNAME": "Ponhea Leu", "in_prov": false }, "geometry": { "type": "Point", "coordinates": [ 104.70951, 11.69831 ] } },
{ "type": "Feature", "properties": { "FACILITNAM": "Vihear Luong", "ODNAME": "Ponhea Leu", "in_prov": false }, "geometry": { "type": "Point", "coordinates": [ 104.76524, 11.82377 ] } },
{ "type": "Feature", "properties": { "FACILITNAM": "Chhnok Tru", "ODNAME": "Boribo", "in_prov": true }, "geometry": { "type": "Point", "coordinates": [ 104.45431, 12.49902 ] } },
{ "type": "Feature", "properties": { "FACILITNAM": "Phsar", "ODNAME": "Boribo", "in_prov": true }, "geometry": { "type": "Point", "coordinates": [ 104.48553, 12.3854 ] } },
{ "type": "Feature", "properties": { "FACILITNAM": "Ponley", "ODNAME": "Boribo", "in_prov": true }, "geometry": { "type": "Point", "coordinates": [ 104.46498, 12.42931 ] } },
{ "type": "Feature", "properties": { "FACILITNAM": "Trapeang Chan", "ODNAME": "Boribo", "in_prov": true }, "geometry": { "type": "Point", "coordinates": [ 104.41467, 12.47054 ] } },
{ "type": "Feature", "properties": { "FACILITNAM": "Kaoh Thkov", "ODNAME": "Kampong Tralach", "in_prov": true }, "geometry": { "type": "Point", "coordinates": [ 104.78089, 12.07055 ] } },
{ "type": "Feature", "properties": { "FACILITNAM": "Peam Chhkaok", "ODNAME": "Kampong Chhnang.", "in_prov": true }, "geometry": { "type": "Point", "coordinates": [ 104.81431, 12.21322 ] } },
{ "type": "Feature", "properties": { "FACILITNAM": "Prey Kri", "ODNAME": "Kampong Chhnang.", "in_prov": true }, "geometry": { "type": "Point", "coordinates": [ 104.87424, 12.15517 ] } },
{ "type": "Feature", "properties": { "FACILITNAM": "Phsar Chhnang", "ODNAME": "Kampong Chhnang.", "in_prov": true }, "geometry": { "type": "Point", "coordinates": [ 104.67317, 12.26022 ] } },
{ "type": "Feature", "properties": { "FACILITNAM": "Kampong Chhnang", "ODNAME": "Kampong Chhnang.", "in_prov": true }, "geometry": { "type": "Point", "coordinates": [ 104.66968, 12.24984 ] } },
{ "type": "Feature", "properties": { "FACILITNAM": "Chranouk", "ODNAME": "Kampong Chhnang.", "in_prov": true }, "geometry": { "type": "Point", "coordinates": [ 104.77609, 12.41832 ] } },
{ "type": "Feature", "properties": { "FACILITNAM": "Kampong Hau", "ODNAME": "Kampong Chhnang.", "in_prov": true }, "geometry": { "type": "Point", "coordinates": [ 104.72511, 12.27734 ] } },
{ "type": "Feature", "properties": { "FACILITNAM": "Pralay Meas", "ODNAME": "Boribo", "in_prov": true }, "geometry": { "type": "Point", "coordinates": [ 104.62638, 12.38975 ] } },
{ "type": "Feature", "properties": { "FACILITNAM": "Svay Rumpear", "ODNAME": "Kampong Chhnang.", "in_prov": true }, "geometry": { "type": "Point", "coordinates": [ 104.77805, 12.31474 ] } },
{ "type": "Feature", "properties": { "FACILITNAM": "Ampil Tuek", "ODNAME": "Kampong Tralach", "in_prov": true }, "geometry": { "type": "Point", "coordinates": [ 104.8353, 11.97677 ] } },
{ "type": "Feature", "properties": { "FACILITNAM": "Kampong Tralach Leu", "ODNAME": "Kampong Tralach", "in_prov": true }, "geometry": { "type": "Point", "coordinates": [ 104.76404, 11.91834 ] } },
{ "type": "Feature", "properties": { "FACILITNAM": "Svay", "ODNAME": "Kampong Tralach", "in_prov": true }, "geometry": { "type": "Point", "coordinates": [ 104.72396, 11.84652 ] } },
{ "type": "Feature", "properties": { "FACILITNAM": "Sala Lek Pram", "ODNAME": "Kampong Tralach", "in_prov": true }, "geometry": { "type": "Point", "coordinates": [ 104.71363, 11.93756 ] } },
{ "type": "Feature", "properties": { "FACILITNAM": "Ta Ches", "ODNAME": "Kampong Tralach", "in_prov": true }, "geometry": { "type": "Point", "coordinates": [ 104.73197, 12.01038 ] } },
{ "type": "Feature", "properties": { "FACILITNAM": "Cheung Kreav", "ODNAME": "Kampong Chhnang.", "in_prov": true }, "geometry": { "type": "Point", "coordinates": [ 104.61895, 12.1337 ] } },
{ "type": "Feature", "properties": { "FACILITNAM": "Chrey Bak", "ODNAME": "Kampong Chhnang.", "in_prov": true }, "geometry": { "type": "Point", "coordinates": [ 104.66609, 12.20839 ] } },
{ "type": "Feature", "properties": { "FACILITNAM": "Pongro", "ODNAME": "Boribo", "in_prov": true }, "geometry": { "type": "Point", "coordinates": [ 104.582, 12.27161 ] } },
{ "type": "Feature", "properties": { "FACILITNAM": "Prey Khmer", "ODNAME": "Kampong Chhnang.", "in_prov": true }, "geometry": { "type": "Point", "coordinates": [ 104.66332, 12.171 ] } },
{ "type": "Feature", "properties": { "FACILITNAM": "Srae Thmei", "ODNAME": "Kampong Chhnang.", "in_prov": true }, "geometry": { "type": "Point", "coordinates": [ 104.64926, 12.23722 ] } },
{ "type": "Feature", "properties": { "FACILITNAM": "Svay Chrum", "ODNAME": "Boribo", "in_prov": true }, "geometry": { "type": "Point", "coordinates": [ 104.60997, 12.2704 ] } },
{ "type": "Feature", "properties": { "FACILITNAM": "Preah Kosamak", "ODNAME": "Kampong Chhnang.", "in_prov": true }, "geometry": { "type": "Point", "coordinates": [ 104.71591, 12.0814 ] } },
{ "type": "Feature", "properties": { "FACILITNAM": "Krang Lvea", "ODNAME": "Kampong Tralach", "in_prov": true }, "geometry": { "type": "Point", "coordinates": [ 104.56368, 11.97252 ] } },
{ "type": "Feature", "properties": { "FACILITNAM": "Longveaek", "ODNAME": "Kampong Tralach", "in_prov": true }, "geometry": { "type": "Point", "coordinates": [ 104.70342, 11.89815 ] } },
{ "type": "Feature", "properties": { "FACILITNAM": "Svay Chuk", "ODNAME": "Kampong Tralach", "in_prov": true }, "geometry": { "type": "Point", "coordinates": [ 104.57009, 11.77604 ] } },
{ "type": "Feature", "properties": { "FACILITNAM": "Thlok Vien", "ODNAME": "Kampong Tralach", "in_prov": true }, "geometry": { "type": "Point", "coordinates": [ 104.64442, 11.95327 ] } },
{ "type": "Feature", "properties": { "FACILITNAM": "Akphivoadth", "ODNAME": "Kampong Chhnang.", "in_prov": true }, "geometry": { "type": "Point", "coordinates": [ 104.52387, 12.05221 ] } },
{ "type": "Feature", "properties": { "FACILITNAM": "Chieb", "ODNAME": "Kampong Chhnang.", "in_prov": true }, "geometry": { "type": "Point", "coordinates": [ 104.42551, 12.00426 ] } },
{ "type": "Feature", "properties": { "FACILITNAM": "Krang Skear", "ODNAME": "Boribo", "in_prov": true }, "geometry": { "type": "Point", "coordinates": [ 104.45588, 12.21976 ] } },
{ "type": "Feature", "properties": { "FACILITNAM": "Tang Krasang", "ODNAME": "Kampong Chhnang.", "in_prov": true }, "geometry": { "type": "Point", "coordinates": [ 104.59668, 12.10717 ] } },
{ "type": "Feature", "properties": { "FACILITNAM": "Choeung Prey", "ODNAME": "Choeung Prey", "in_prov": false }, "geometry": { "type": "Point", "coordinates": [ 104.96951, 12.0573 ] } },
{ "type": "Feature", "properties": { "FACILITNAM": "Ph'av", "ODNAME": "Choeung Prey", "in_prov": false }, "geometry": { "type": "Point", "coordinates": [ 104.96665, 12.02847 ] } },
{ "type": "Feature", "properties": { "FACILITNAM": "Sandaek", "ODNAME": "Choeung Prey", "in_prov": false }, "geometry": { "type": "Point", "coordinates": [ 104.9728, 12.1224 ] } },
{ "type": "Feature", "properties": { "FACILITNAM": "Cheung Chhnok", "ODNAME": "Choeung Prey", "in_prov": false }, "geometry": { "type": "Point", "coordinates": [ 104.93615, 11.88133 ] } },
{ "type": "Feature", "properties": { "FACILITNAM": "Tumnob", "ODNAME": "Choeung Prey", "in_prov": false }, "geometry": { "type": "Point", "coordinates": [ 104.97394, 12.08611 ] } },
{ "type": "Feature", "properties": { "FACILITNAM": "Saeb", "ODNAME": "Kampong Tralach", "in_prov": true }, "geometry": { "type": "Point", "coordinates": [ 104.7403, 12.05397 ] } },
{ "type": "Feature", "properties": { "FACILITNAM": "Sambour", "ODNAME": "Choeung Prey", "in_prov": false }, "geometry": { "type": "Point", "coordinates": [ 104.852, 11.86775 ] } }
]
}
