{
"type": "FeatureCollection",
"name": "neighbours",
"crs": { "type": "name", "properties": { "name": "urn:ogc:def:crs:OGC:1.3:CRS84" } },
"xy_coordinate_resolution": 1e-05,
"features": [
{ "type": "Feature", "properties": { "Name_KH": "កំពង់ស្ពឺ", "Name_EN": "Kampong Speu" }, "geometry": { "type": "Polygon", "coordinates": [ [ [ 104.21, 12.03734 ], [ 104.21684, 12.01977 ], [ 104.22198, 12.01312 ], [ 104.23337, 12.01045 ], [ 104.23843, 12.00722 ], [ 104.25166, 12.00595 ], [ 104.2585, 11.99575 ], [ 104.25887, 11.98836 ], [ 104.26343, 11.97783 ], [ 104.2617, 11.96695 ], [ 104.25607, 11.9561 ], [ 104.25566, 11.94898 ], [ 104.25927, 11.9422 ], [ 104.25791, 11.94115 ], [ 104.26031, 11.94009 ], [ 104.25983, 11.93729 ], [ 104.26358, 11.93487 ], [ 104.26552, 11.92704 ], [ 104.26853, 11.9267 ], [ 104.26507, 11.91763 ], [ 104.26653, 11.91231 ], [ 104.27612, 11.90371 ], [ 104.27877, 11.89919 ], [ 104.29306, 11.89346 ], [ 104.29644, 11.88893 ], [ 104.30046, 11.88752 ], [ 104.3013, 11.88492 ], [ 104.30665, 11.88306 ], [ 104.3065, 11.88061 ], [ 104.31192, 11.87874 ], [ 104.31312, 11.86948 ], [ 104.31741, 11.86722 ], [ 104.31799, 11.86234 ], [ 104.32529, 11.85369 ], [ 104.32161, 11.84543 ], [ 104.3226, 11.84243 ], [ 104.3204, 11.84001 ], [ 104.32396, 11.83325 ], [ 104.32345, 11.82731 ], [ 104.32647, 11.82359 ], [ 104.33037, 11.82224 ], [ 104.33168, 11.8152 ], [ 104.33603, 11.809 ], [ 104.33788, 11.80922 ], [ 104.3383, 11.80644 ], [ 104.34488, 11.80273 ], [ 104.34587, 11.80019 ], [ 104.35353, 11.79429 ], [ 104.36153, 11.78503 ], [ 104.36786, 11.77419 ], [ 104.37276, 11.77217 ], [ 104.37292, 11.77014 ], [ 104.37649, 11.76801 ], [ 104.38826, 11.7705 ], [ 104.39455, 11.76644 ], [ 104.40047, 11.76889 ], [ 104.4026, 11.76623 ], [ 104.40808, 11.76579 ], [ 104.40988, 11.76294 ], [ 104.41413, 11.76417 ], [ 104.41819, 11.76066 ], [ 104.43765, 11.75821 ], [ 104.43995, 11.76061 ], [ 104.45368, 11.75708 ], [ 104.45928, 11.75391 ], [ 104.46472, 11.75553 ], [ 104.46789, 11.75427 ], [ 104.47397, 11.74417 ], [ 104.48298, 11.74073 ], [ 104.48797, 11.73533 ], [ 104.49255, 11.73553 ], [ 104.49488, 11.73811 ], [ 104.50172, 11.73667 ], [ 104.50652, 11.73794 ], [ 104.51586, 11.7344 ], [ 104.52298, 11.73712 ], [ 104.52443, 11.73578 ], [ 104.52492, 11.73799 ], [ 104.52835, 11.7371 ], [ 104.5297, 11.73967 ], [ 104.53319, 11.73679 ], [ 104.53743, 11.74286 ], [ 104.54066, 11.74073 ], [ 104.54248, 11.74212 ], [ 104.54392, 11.74029 ], [ 104.5512, 11.74416 ], [ 104.55275, 11.74243 ], [ 104.55186, 11.74697 ], [ 104.55379, 11.74953 ], [ 104.56292, 11.75487 ], [ 104.56566, 11.76123 ], [ 104.57186, 11.76421 ], [ 104.57196, 11.76646 ], [ 104.57536, 11.76664 ], [ 104.57737, 11.77249 ], [ 104.58789, 11.77928 ], [ 104.58757, 11.78179 ], [ 104.59501, 11.78809 ], [ 104.59455, 11.79128 ], [ 104.60059, 11.79029 ], [ 104.60785, 11.79406 ], [ 104.60939, 11.79296 ], [ 104.61159, 11.79501 ], [ 104.61165, 11.79807 ], [ 104.61565, 11.79803 ], [ 104.62042, 11.80327 ], [ 104.62393, 11.80248 ], [ 104.62191, 11.80588 ], [ 104.63314, 11.80559 ], [ 104.63879, 11.80812 ], [ 104.64229, 11.80554 ], [ 104.6484, 11.80948 ], [ 104.64959, 11.8085 ], [ 104.6516, 11.81128 ], [ 104.65632, 11.80873 ], [ 104.66829, 11.80733 ], [ 104.67257, 11.80408 ], [ 104.67648, 11.80865 ], [ 104.67859, 11.80695 ], [ 104.68161, 11.80844 ], [ 104.68338, 11.80748 ], [ 104.68825, 11.81202 ], [ 104.6886, 11.81497 ], [ 104.69283, 11.81452 ], [ 104.69643, 11.81117 ], [ 104.70388, 11.81029 ], [ 104.70458, 11.80887 ], [ 104.71063, 11.81013 ], [ 104.71355, 11.81458 ], [ 104.7218, 11.81424 ], [ 104.72619, 11.8178 ], [ 104.72489, 11.82392 ], [ 104.72642, 11.82518 ], [ 104.72672, 11.82342 ], [ 104.72974, 11.82375 ], [ 104.73316, 11.82734 ], [ 104.75008, 11.8217 ], [ 104.75153, 11.80714 ], [ 104.75, 11.79717 ], [ 104.7251, 11.72737 ], [ 104.71844, 11.7126 ], [ 104.70158, 11.68536 ], [ 104.69584, 11.67181 ], [ 104.68354, 11.62612 ], [ 104.1728, 11.6251 ], [ 104.15132, 11.62713 ], [ 104.13065, 11.63324 ], [ 104.10289, 11.64953 ], [ 104.08758, 11.66452 ], [ 104.07553, 11.68217 ], [ 104.06721, 11.70179 ], [ 104.06293, 11.72264 ], [ 104.06172, 11.92292 ], [ 104.06348, 11.92624 ], [ 104.06169, 11.93112 ], [ 104.06155, 11.97024 ], [ 104.07151, 11.96778 ], [ 104.07335, 11.96896 ], [ 104.07619, 11.97627 ], [ 104.07378, 11.98092 ], [ 104.07754, 11.98449 ], [ 104.08105, 11.98518 ], [ 104.08604, 11.98179 ], [ 104.08812, 11.98211 ], [ 104.08816, 11.99066 ], [ 104.0918, 11.99594 ], [ 104.09269, 12.00561 ], [ 104.09557, 12.01139 ], [ 104.09745, 12.022 ], [ 104.0939, 12.03918 ], [ 104.10415, 12.03811 ], [ 104.11111, 12.04567 ], [ 104.1153, 12.04724 ], [ 104.12605, 12.04759 ], [ 104.13551, 12.04269 ], [ 104.14355, 12.0434 ], [ 104.14671, 12.04986 ], [ 104.14966, 12.05068 ], [ 104.16182, 12.04977 ], [ 104.16867, 12.04583 ], [ 104.1728, 12.04024 ], [ 104.18047, 12.03759 ], [ 104.18295, 12.04017 ], [ 104.1812, 12.05196 ], [ 104.18877, 12.06804 ], [ 104.19964, 12.07685 ], [ 104.20265, 12.06262 ], [ 104.20467, 12.06002 ], [ 104.20463, 12.05265 ], [ 104.20796, 12.04848 ], [ 104.21, 12.03734 ] ] ] } },
{ "type": "Feature", "properties": { "Name_KH": "ពោធិ៍សាត់", "Name_EN": "Pursat" }, "geometry": { "type": "MultiPolygon", "coordinates": [ [ [ [ 104.32809, 12.54552 ], [ 104.34576, 12.54163 ], [ 104.35583, 12.53526 ], [ 104.36018, 12.53715 ], [ 104.37177, 12.53073 ], [ 104.38631, 12.52778 ], [ 104.38916, 12.52066 ], [ 104.37617, 12.52188 ], [ 104.36482, 12.52511 ], [ 104.3583, 12.52823 ], [ 104.34382, 12.54029 ], [ 104.32897, 12.54362 ], [ 104.32501, 12.54189 ], [ 104.32196, 12.5444 ], [ 104.32809, 12.54552 ] ] ], [ [ [ 104.12387, 12.70498 ], [ 104.12123, 12.69257 ], [ 104.12277, 12.69619 ], [ 104.12404, 12.69658 ], [ 104.12336, 12.69351 ], [ 104.12639, 12.69534 ], [ 104.13224, 12.69417 ], [ 104.12849, 12.68863 ], [ 104.12929, 12.68178 ], [ 104.13089, 12.68466 ], [ 104.13625, 12.68443 ], [ 104.13251, 12.68672 ], [ 104.13498, 12.69733 ], [ 104.14314, 12.69704 ], [ 104.14922, 12.69259 ], [ 104.15118, 12.68794 ], [ 104.15028, 12.69235 ], [ 104.15165, 12.6954 ], [ 104.15413, 12.69535 ], [ 104.15579, 12.69315 ], [ 104.15493, 12.68307 ], [ 104.15337, 12.68446 ], [ 104.14949, 12.67609 ], [ 104.15033, 12.67117 ], [ 104.15411, 12.66852 ], [ 104.15515, 12.65712 ], [ 104.14609, 12.65976 ], [ 104.14687, 12.65712 ], [ 104.14454, 12.65653 ], [ 104.14774, 12.65485 ], [ 104.15556, 12.64351 ], [ 104.16219, 12.63775 ], [ 104.16787, 12.64188 ], [ 104.17265, 12.63841 ], [ 104.17408, 12.6269 ], [ 104.17862, 12.62106 ], [ 104.18083, 12.61043 ], [ 104.18474, 12.60628 ], [ 104.18481, 12.60226 ], [ 104.18214, 12.59967 ], [ 104.18326, 12.59787 ], [ 104.17927, 12.59545 ], [ 104.17951, 12.59237 ], [ 104.18383, 12.59725 ], [ 104.18668, 12.60559 ], [ 104.18884, 12.60396 ], [ 104.19277, 12.58872 ], [ 104.20851, 12.57356 ], [ 104.20882, 12.57531 ], [ 104.21385, 12.57781 ], [ 104.22007, 12.57343 ], [ 104.23013, 12.57195 ], [ 104.23368, 12.57356 ], [ 104.24112, 12.56758 ], [ 104.24628, 12.57035 ], [ 104.26107, 12.55777 ], [ 104.26973, 12.55867 ], [ 104.27545, 12.55576 ], [ 104.28522, 12.56146 ], [ 104.29228, 12.54961 ], [ 104.29362, 12.54922 ], [ 104.29827, 12.5559 ], [ 104.30401, 12.54699 ], [ 104.31188, 12.5427 ], [ 104.3224, 12.53372 ], [ 104.33186, 12.53614 ], [ 104.33149, 12.53138 ], [ 104.33336, 12.53378 ], [ 104.33963, 12.52703 ], [ 104.34667, 12.5288 ], [ 104.35077, 12.51952 ], [ 104.35529, 12.5209 ], [ 104.36171, 12.51664 ], [ 104.36728, 12.51646 ], [ 104.37229, 12.51131 ], [ 104.37842, 12.50823 ], [ 104.38626, 12.50934 ], [ 104.38799, 12.50418 ], [ 104.38613, 12.50177 ], [ 104.38881, 12.49723 ], [ 104.38642, 12.4899 ], [ 104.38671, 12.48398 ], [ 104.38093, 12.47144 ], [ 104.38024, 12.4562 ], [ 104.3893, 12.43588 ], [ 104.38752, 12.42686 ], [ 104.3926, 12.42022 ], [ 104.38592, 12.41733 ], [ 104.37597, 12.41658 ], [ 104.37008, 12.40831 ], [ 104.35793, 12.40021 ], [ 104.35281, 12.39869 ], [ 104.35027, 12.39451 ], [ 104.34939, 12.38385 ], [ 104.33881, 12.35494 ], [ 104.32662, 12.33736 ], [ 104.32261, 12.33408 ], [ 104.31429, 12.33179 ], [ 104.31417, 12.32583 ], [ 104.31196, 12.32562 ], [ 104.31047, 12.32793 ], [ 104.30753, 12.32611 ], [ 104.3026, 12.32606 ], [ 104.29696, 12.32209 ], [ 104.28355, 12.32259 ], [ 104.27785, 12.31573 ], [ 104.27228, 12.31338 ], [ 104.26684, 12.30711 ], [ 104.26402, 12.29935 ], [ 104.25471, 12.2951 ], [ 104.24867, 12.2945 ], [ 104.24551, 12.29601 ], [ 104.23581, 12.29216 ], [ 104.22085, 12.29083 ], [ 104.21056, 12.28268 ], [ 104.20727, 12.27635 ], [ 104.20192, 12.27156 ], [ 104.20018, 12.26622 ], [ 104.18883, 12.25885 ], [ 104.18828, 12.25312 ], [ 104.18025, 12.2414 ], [ 104.17811, 12.23356 ], [ 104.17203, 12.20012 ], [ 104.17588, 12.19642 ], [ 104.17616, 12.19392 ], [ 104.17122, 12.18808 ], [ 104.17116, 12.179 ], [ 104.17356, 12.17314 ], [ 104.17927, 12.17195 ], [ 104.18351, 12.16812 ], [ 104.18316, 12.16561 ], [ 104.18491, 12.1638 ], [ 104.18478, 12.14914 ], [ 104.187, 12.14259 ], [ 104.18567, 12.13864 ], [ 104.18712, 12.10845 ], [ 104.18485, 12.10626 ], [ 104.19147, 12.1042 ], [ 104.19291, 12.09905 ], [ 104.19702, 12.0954 ], [ 104.19613, 12.09177 ], [ 104.20018, 12.08225 ], [ 104.19964, 12.07685 ], [ 104.18877, 12.06804 ], [ 104.1812, 12.05196 ], [ 104.18295, 12.04017 ], [ 104.18047, 12.03759 ], [ 104.1728, 12.04024 ], [ 104.16867, 12.04583 ], [ 104.16182, 12.04977 ], [ 104.14966, 12.05068 ], [ 104.14671, 12.04986 ], [ 104.14355, 12.0434 ], [ 104.13551, 12.04269 ], [ 104.12605, 12.04759 ], [ 104.1153, 12.04724 ], [ 104.11111, 12.04567 ], [ 104.10415, 12.03811 ], [ 104.0939, 12.03918 ], [ 104.09745, 12.022 ], [ 104.09557, 12.01139 ], [ 104.09269, 12.00561 ], [ 104.0918, 11.99594 ], [ 104.08816, 11.99066 ], [ 104.08812, 11.98211 ], [ 104.08604, 11.98179 ], [ 104.08105, 11.98518 ], [ 104.07754, 11.98449 ], [ 104.07378, 11.98092 ], [ 104.07619, 11.97627 ], [ 104.07414, 11.96993 ], [ 104.07151, 11.96778 ], [ 104.06155, 11.97024 ], [ 104.05979, 12.61668 ], [ 104.06755, 12.6476 ], [ 104.0777, 12.66639 ], [ 104.09939, 12.69006 ], [ 104.12387, 12.70498 ] ] ], [ [ [ 104.06169, 11.93112 ], [ 104.06348, 11.92624 ], [ 104.06172, 11.92292 ], [ 104.06169, 11.93112 ] ] ] ] } },
{ "type": "Feature", "properties": { "Name_KH": "កណ្តាល", "Name_EN": "Kandal" }, "geometry": { "type": "Polygon", "coordinates": [ [ [ 104.81613, 11.89142 ], [ 104.83678, 11.869 ], [ 104.83143, 11.84312 ], [ 104.83368, 11.83657 ], [ 104.83118, 11.82637 ], [ 104.83332, 11.82353 ], [ 104.85175, 11.82581 ], [ 104.85243, 11.83263 ], [ 104.8551, 11.83322 ], [ 104.86165, 11.82758 ], [ 104.86566, 11.82827 ], [ 104.86894, 11.82482 ], [ 104.86846, 11.82232 ], [ 104.87293, 11.82016 ], [ 104.8754, 11.82078 ], [ 104.87951, 11.8185 ], [ 104.88268, 11.82038 ], [ 104.88467, 11.82507 ], [ 104.88792, 11.82188 ], [ 104.89114, 11.82247 ], [ 104.90063, 11.81522 ], [ 104.90399, 11.80826 ], [ 104.91012, 11.80715 ], [ 104.91885, 11.80949 ], [ 104.92086, 11.81225 ], [ 104.92115, 11.81791 ], [ 104.92868, 11.82406 ], [ 104.93159, 11.83037 ], [ 104.93983, 11.83386 ], [ 104.94265, 11.84076 ], [ 104.94107, 11.8433 ], [ 104.94443, 11.84395 ], [ 104.94574, 11.84802 ], [ 104.94441, 11.85504 ], [ 104.94665, 11.85514 ], [ 104.94932, 11.86142 ], [ 104.95364, 11.86362 ], [ 104.95288, 11.86922 ], [ 104.95487, 11.87508 ], [ 104.9579, 11.87449 ], [ 104.95676, 11.87173 ], [ 104.95805, 11.87148 ], [ 104.95805, 11.86457 ], [ 104.9631, 11.85718 ], [ 104.97532, 11.86481 ], [ 104.98653, 11.88105 ], [ 104.99181, 11.87994 ], [ 104.99456, 11.87442 ], [ 104.99801, 11.87319 ], [ 104.99836, 11.86652 ], [ 105.00458, 11.85791 ], [ 105.004, 11.85511 ], [ 105.01228, 11.85298 ], [ 105.01175, 11.72418 ], [ 105.00753, 11.70331 ], [ 104.99927, 11.68366 ], [ 104.98728, 11.66597 ], [ 104.97202, 11.65092 ], [ 104.95408, 11.6391 ], [ 104.93387, 11.63089 ], [ 104.93756, 11.64235 ], [ 104.94725, 11.65516 ], [ 104.95449, 11.67499 ], [ 104.95878, 11.67865 ], [ 104.96837, 11.71099 ], [ 104.96003, 11.71134 ], [ 104.95901, 11.71506 ], [ 104.94922, 11.72593 ], [ 104.94548, 11.73447 ], [ 104.91745, 11.73632 ], [ 104.91655, 11.71779 ], [ 104.91146, 11.71 ], [ 104.90885, 11.69934 ], [ 104.90044, 11.69145 ], [ 104.89783, 11.68528 ], [ 104.89972, 11.68386 ], [ 104.89965, 11.67242 ], [ 104.86267, 11.67264 ], [ 104.86063, 11.66923 ], [ 104.84644, 11.69245 ], [ 104.84004, 11.71561 ], [ 104.82292, 11.71541 ], [ 104.8212, 11.71359 ], [ 104.82414, 11.70873 ], [ 104.81821, 11.70844 ], [ 104.81528, 11.7038 ], [ 104.81455, 11.69139 ], [ 104.81696, 11.6883 ], [ 104.80994, 11.67855 ], [ 104.81373, 11.67395 ], [ 104.79705, 11.67151 ], [ 104.78096, 11.67138 ], [ 104.76677, 11.66658 ], [ 104.74989, 11.66495 ], [ 104.74733, 11.65989 ], [ 104.74696, 11.6533 ], [ 104.74249, 11.64801 ], [ 104.74388, 11.63934 ], [ 104.741, 11.62617 ], [ 104.68354, 11.62612 ], [ 104.69584, 11.67181 ], [ 104.70158, 11.68536 ], [ 104.71844, 11.7126 ], [ 104.72741, 11.73272 ], [ 104.75101, 11.80041 ], [ 104.75052, 11.82114 ], [ 104.73651, 11.82628 ], [ 104.73862, 11.82893 ], [ 104.74535, 11.8306 ], [ 104.75716, 11.82762 ], [ 104.76506, 11.83108 ], [ 104.76835, 11.83601 ], [ 104.77041, 11.83401 ], [ 104.77267, 11.8344 ], [ 104.78235, 11.83912 ], [ 104.7753, 11.84956 ], [ 104.76971, 11.85224 ], [ 104.77228, 11.85717 ], [ 104.76909, 11.86197 ], [ 104.77176, 11.86388 ], [ 104.77189, 11.86657 ], [ 104.76395, 11.88096 ], [ 104.77204, 11.88736 ], [ 104.77978, 11.87997 ], [ 104.78294, 11.88599 ], [ 104.78623, 11.88847 ], [ 104.81028, 11.89431 ], [ 104.81613, 11.89142 ] ] ] } },
{ "type": "Feature", "properties": { "Name_KH": "ភ្នំពេញ", "Name_EN": "Phnom Penh" }, "geometry": { "type": "Polygon", "coordinates": [ [ [ 104.91745, 11.73632 ], [ 104.94548, 11.73447 ], [ 104.94922, 11.72593 ], [ 104.95901, 11.71506 ], [ 104.96003, 11.71134 ], [ 104.96837, 11.71099 ], [ 104.95878, 11.67865 ], [ 104.95449, 11.67499 ], [ 104.94725, 11.65516 ], [ 104.93756, 11.64235 ], [ 104.93387, 11.63089 ], [ 104.90219, 11.62627 ], [ 104.741, 11.62617 ], [ 104.74388, 11.63934 ], [ 104.74249, 11.64801 ], [ 104.74696, 11.6533 ], [ 104.74733, 11.65989 ], [ 104.74989, 11.66495 ], [ 104.76677, 11.66658 ], [ 104.78096, 11.67138 ], [ 104.79705, 11.67151 ], [ 104.81373, 11.67395 ], [ 104.80994, 11.67855 ], [ 104.81696, 11.6883 ], [ 104.81455, 11.69139 ], [ 104.81528, 11.7038 ], [ 104.81821, 11.70844 ], [ 104.82414, 11.70873 ], [ 104.8212, 11.71359 ], [ 104.82292, 11.71541 ], [ 104.84004, 11.71561 ], [ 104.84644, 11.69245 ], [ 104.86063, 11.66923 ], [ 104.86267, 11.67264 ], [ 104.89965, 11.67242 ], [ 104.89972, 11.68386 ], [ 104.89783, 11.68528 ], [ 104.90044, 11.69145 ], [ 104.90885, 11.69934 ], [ 104.91146, 11.71 ], [ 104.91655, 11.71779 ], [ 104.91745, 11.73632 ] ] ] } },
{ "type": "Feature", "properties": { "Name_KH": "កំពង់ចាម", "Name_EN": "Kampong Cham" }, "geometry": { "type": "Polygon", "coordinates": [ [ [ 105.01228, 11.85298 ], [ 105.004, 11.85511 ], [ 105.00458, 11.85791 ], [ 104.99836, 11.86652 ], [ 104.99801, 11.87319 ], [ 104.99456, 11.87442 ], [ 104.99181, 11.87994 ], [ 104.98653, 11.88105 ], [ 104.97532, 11.86481 ], [ 104.9631, 11.85718 ], [ 104.95805, 11.86457 ], [ 104.95805, 11.87148 ], [ 104.95676, 11.87173 ], [ 104.9579, 11.87449 ], [ 104.95487, 11.87508 ], [ 104.95288, 11.86922 ], [ 104.95364, 11.86362 ], [ 104.94932, 11.86142 ], [ 104.94665, 11.85514 ], [ 104.94441, 11.85504 ], [ 104.94574, 11.84802 ], [ 104.94443, 11.84395 ], [ 104.94107, 11.8433 ], [ 104.94265, 11.84076 ], [ 104.93983, 11.83386 ], [ 104.93159, 11.83037 ], [ 104.92868, 11.82406 ], [ 104.92115, 11.81791 ], [ 104.92086, 11.81225 ], [ 104.91885, 11.80949 ], [ 104.91012, 11.80715 ], [ 104.90399, 11.80826 ], [ 104.90063, 11.81522 ], [ 104.89114, 11.82247 ], [ 104.88792, 11.82188 ], [ 104.88467, 11.82507 ], [ 104.88268, 11.82038 ], [ 104.87951, 11.8185 ], [ 104.8754, 11.82078 ], [ 104.87293, 11.82016 ], [ 104.86846, 11.82232 ], [ 104.86894, 11.82482 ], [ 104.86566, 11.82827 ], [ 104.86165, 11.82758 ], [ 104.8551, 11.83322 ], [ 104.85243, 11.83263 ], [ 104.85175, 11.82581 ], [ 104.84667, 11.82426 ], [ 104.83332, 11.82353 ], [ 104.83118, 11.82637 ], [ 104.83368, 11.83657 ], [ 104.83148, 11.84007 ], [ 104.83178, 11.84612 ], [ 104.83678, 11.869 ], [ 104.82124, 11.88626 ], [ 104.81982, 11.89593 ], [ 104.82766, 11.91249 ], [ 104.82949, 11.93821 ], [ 104.83232, 11.94539 ], [ 104.84146, 11.94756 ], [ 104.84564, 11.95132 ], [ 104.85084, 11.96523 ], [ 104.85178, 11.97247 ], [ 104.85836, 11.97855 ], [ 104.86031, 11.98301 ], [ 104.86789, 11.98477 ], [ 104.86894, 11.98722 ], [ 104.87718, 11.99066 ], [ 104.87911, 11.98992 ], [ 104.87679, 11.98885 ], [ 104.87772, 11.98595 ], [ 104.8812, 11.98931 ], [ 104.88541, 11.98768 ], [ 104.88526, 11.99078 ], [ 104.88807, 11.99283 ], [ 104.88721, 11.99436 ], [ 104.88959, 11.99441 ], [ 104.88801, 11.9957 ], [ 104.88919, 12.00525 ], [ 104.88762, 12.01046 ], [ 104.89272, 12.01276 ], [ 104.89488, 12.01769 ], [ 104.88768, 12.03139 ], [ 104.89273, 12.04158 ], [ 104.88948, 12.04995 ], [ 104.89059, 12.05202 ], [ 104.88883, 12.06013 ], [ 104.8814, 12.07186 ], [ 104.87775, 12.07402 ], [ 104.87326, 12.07424 ], [ 104.87221, 12.07115 ], [ 104.86914, 12.07299 ], [ 104.88598, 12.12153 ], [ 104.88602, 12.13481 ], [ 104.89353, 12.14888 ], [ 104.90162, 12.15775 ], [ 104.90024, 12.20108 ], [ 104.89749, 12.20831 ], [ 104.89363, 12.20875 ], [ 104.88749, 12.20627 ], [ 104.88392, 12.2074 ], [ 104.88211, 12.21323 ], [ 104.88483, 12.21361 ], [ 104.88527, 12.2191 ], [ 104.88867, 12.21941 ], [ 104.88856, 12.22349 ], [ 104.87764, 12.22711 ], [ 104.87641, 12.2313 ], [ 104.87372, 12.23236 ], [ 104.87226, 12.23941 ], [ 104.883, 12.23765 ], [ 104.90117, 12.24521 ], [ 104.90245, 12.24849 ], [ 104.90124, 12.25198 ], [ 104.90381, 12.25342 ], [ 104.90454, 12.25643 ], [ 104.91236, 12.2588 ], [ 104.91668, 12.25796 ], [ 104.91845, 12.26257 ], [ 104.92694, 12.26172 ], [ 104.93223, 12.25811 ], [ 104.94147, 12.2612 ], [ 104.94279, 12.25931 ], [ 104.94674, 12.25877 ], [ 104.94783, 12.26241 ], [ 104.95063, 12.2601 ], [ 104.95498, 12.26072 ], [ 104.95596, 12.25845 ], [ 104.96331, 12.25712 ], [ 104.96091, 12.26371 ], [ 104.96259, 12.26588 ], [ 104.9717, 12.26545 ], [ 104.9704, 12.2637 ], [ 104.97927, 12.25701 ], [ 104.98292, 12.25638 ], [ 104.98056, 12.25425 ], [ 104.98369, 12.25264 ], [ 104.98267, 12.24906 ], [ 104.98524, 12.24961 ], [ 104.98649, 12.24718 ], [ 104.98527, 12.24281 ], [ 104.98749, 12.24356 ], [ 104.98731, 12.24164 ], [ 104.9898, 12.24209 ], [ 104.98958, 12.24012 ], [ 104.99168, 12.24106 ], [ 104.99444, 12.23705 ], [ 104.99788, 12.23659 ], [ 104.996, 12.23464 ], [ 104.99905, 12.23318 ], [ 105.00035, 12.23425 ], [ 105.00082, 12.2318 ], [ 105.00438, 12.22912 ], [ 105.00294, 12.2279 ], [ 105.00809, 12.22602 ], [ 105.00668, 12.22376 ], [ 105.00888, 12.22338 ], [ 105.01062, 12.21966 ], [ 105.0123, 12.22024 ], [ 105.01228, 11.85298 ] ] ] } },
{ "type": "Feature", "properties": { "Name_KH": "កំពង់ធំ", "Name_EN": "Kampong Thom" }, "geometry": { "type": "MultiPolygon", "coordinates": [ [ [ [ 104.48224, 12.53222 ], [ 104.48455, 12.53152 ], [ 104.48877, 12.52201 ], [ 104.47749, 12.52928 ], [ 104.47742, 12.5311 ], [ 104.4804, 12.53242 ], [ 104.47928, 12.53474 ], [ 104.48348, 12.53451 ], [ 104.48224, 12.53222 ] ] ], [ [ [ 105.01196, 12.21962 ], [ 105.00668, 12.22376 ], [ 105.00809, 12.22602 ], [ 105.00294, 12.2279 ], [ 105.00438, 12.22912 ], [ 105.00082, 12.2318 ], [ 105.00035, 12.23425 ], [ 104.99905, 12.23318 ], [ 104.996, 12.23464 ], [ 104.99788, 12.23659 ], [ 104.99444, 12.23705 ], [ 104.99168, 12.24106 ], [ 104.98958, 12.24012 ], [ 104.9898, 12.24209 ], [ 104.98731, 12.24164 ], [ 104.98749, 12.24356 ], [ 104.98527, 12.24281 ], [ 104.98649, 12.24718 ], [ 104.98524, 12.24961 ], [ 104.98267, 12.24906 ], [ 104.98369, 12.25264 ], [ 104.98056, 12.25425 ], [ 104.98292, 12.25638 ], [ 104.97548, 12.25963 ], [ 104.9704, 12.2637 ], [ 104.97114, 12.26566 ], [ 104.96191, 12.26515 ], [ 104.96091, 12.26371 ], [ 104.96331, 12.25712 ], [ 104.95596, 12.25845 ], [ 104.95498, 12.26072 ], [ 104.95063, 12.2601 ], [ 104.94783, 12.26241 ], [ 104.94674, 12.25877 ], [ 104.94279, 12.25931 ], [ 104.94147, 12.2612 ], [ 104.93223, 12.25811 ], [ 104.92694, 12.26172 ], [ 104.91845, 12.26257 ], [ 104.91668, 12.25796 ], [ 104.91236, 12.2588 ], [ 104.90454, 12.25643 ], [ 104.90381, 12.25342 ], [ 104.90124, 12.25198 ], [ 104.90245, 12.24849 ], [ 104.90117, 12.24521 ], [ 104.883, 12.23765 ], [ 104.87226, 12.23941 ], [ 104.87261, 12.24377 ], [ 104.86155, 12.26194 ], [ 104.85631, 12.28273 ], [ 104.85126, 12.28485 ], [ 104.85151, 12.29042 ], [ 104.85473, 12.29428 ], [ 104.85317, 12.30429 ], [ 104.85747, 12.30778 ], [ 104.86001, 12.31425 ], [ 104.86193, 12.31519 ], [ 104.86231, 12.32472 ], [ 104.86842, 12.32517 ], [ 104.87067, 12.32964 ], [ 104.88013, 12.33837 ], [ 104.88917, 12.33991 ], [ 104.89363, 12.34328 ], [ 104.89485, 12.35027 ], [ 104.89148, 12.35296 ], [ 104.8913, 12.35563 ], [ 104.89335, 12.35644 ], [ 104.89535, 12.36151 ], [ 104.89638, 12.3592 ], [ 104.89809, 12.36079 ], [ 104.89675, 12.36452 ], [ 104.90036, 12.36957 ], [ 104.89981, 12.37128 ], [ 104.89762, 12.3711 ], [ 104.89914, 12.37325 ], [ 104.89804, 12.37622 ], [ 104.8941, 12.37608 ], [ 104.89629, 12.37886 ], [ 104.89364, 12.37825 ], [ 104.89343, 12.37967 ], [ 104.89633, 12.38942 ], [ 104.89532, 12.39507 ], [ 104.89095, 12.39966 ], [ 104.88781, 12.39566 ], [ 104.88675, 12.39732 ], [ 104.88611, 12.39513 ], [ 104.88473, 12.39607 ], [ 104.88532, 12.39358 ], [ 104.88349, 12.39227 ], [ 104.88589, 12.39187 ], [ 104.88552, 12.38753 ], [ 104.8826, 12.38066 ], [ 104.87956, 12.38172 ], [ 104.87847, 12.37912 ], [ 104.87718, 12.38059 ], [ 104.87409, 12.37728 ], [ 104.87233, 12.37178 ], [ 104.86923, 12.37218 ], [ 104.86782, 12.37424 ], [ 104.86518, 12.37011 ], [ 104.86093, 12.37109 ], [ 104.86339, 12.37462 ], [ 104.85971, 12.37993 ], [ 104.86176, 12.3844 ], [ 104.85978, 12.38903 ], [ 104.86596, 12.3958 ], [ 104.8654, 12.40569 ], [ 104.8671, 12.41102 ], [ 104.86204, 12.41687 ], [ 104.86434, 12.42091 ], [ 104.86119, 12.42219 ], [ 104.86188, 12.42981 ], [ 104.85193, 12.42631 ], [ 104.84752, 12.42828 ], [ 104.84144, 12.43316 ], [ 104.84406, 12.43644 ], [ 104.84276, 12.4417 ], [ 104.83625, 12.44231 ], [ 104.83656, 12.44439 ], [ 104.8429, 12.44959 ], [ 104.83989, 12.45124 ], [ 104.83526, 12.45026 ], [ 104.83639, 12.45325 ], [ 104.83277, 12.45621 ], [ 104.83256, 12.46087 ], [ 104.82876, 12.46377 ], [ 104.82829, 12.46713 ], [ 104.84101, 12.47039 ], [ 104.8411, 12.47411 ], [ 104.83557, 12.47937 ], [ 104.82951, 12.47698 ], [ 104.82515, 12.48116 ], [ 104.81823, 12.4817 ], [ 104.81518, 12.48638 ], [ 104.81564, 12.49188 ], [ 104.82207, 12.49351 ], [ 104.82195, 12.49711 ], [ 104.82503, 12.49991 ], [ 104.82554, 12.50246 ], [ 104.82212, 12.5085 ], [ 104.82549, 12.51258 ], [ 104.82552, 12.51745 ], [ 104.8285, 12.52149 ], [ 104.82062, 12.52833 ], [ 104.81955, 12.53137 ], [ 104.74359, 12.55057 ], [ 104.69449, 12.57998 ], [ 104.67698, 12.58782 ], [ 104.65533, 12.59419 ], [ 104.62719, 12.60744 ], [ 104.60695, 12.6022 ], [ 104.59266, 12.60196 ], [ 104.57977, 12.59396 ], [ 104.56869, 12.59293 ], [ 104.54316, 12.58243 ], [ 104.51884, 12.56764 ], [ 104.51667, 12.56154 ], [ 104.50958, 12.55973 ], [ 104.5136, 12.55655 ], [ 104.51494, 12.54463 ], [ 104.51301, 12.53993 ], [ 104.50814, 12.53615 ], [ 104.50078, 12.51962 ], [ 104.49115, 12.52057 ], [ 104.487, 12.53009 ], [ 104.48769, 12.53134 ], [ 104.49009, 12.53016 ], [ 104.49247, 12.52865 ], [ 104.49199, 12.52639 ], [ 104.49413, 12.52581 ], [ 104.49749, 12.53195 ], [ 104.50131, 12.53206 ], [ 104.494, 12.53752 ], [ 104.49466, 12.54041 ], [ 104.47651, 12.53806 ], [ 104.47411, 12.53423 ], [ 104.46158, 12.52614 ], [ 104.45387, 12.52497 ], [ 104.44788, 12.5275 ], [ 104.44681, 12.53333 ], [ 104.44414, 12.53013 ], [ 104.43879, 12.53566 ], [ 104.43089, 12.53896 ], [ 104.42456, 12.5467 ], [ 104.42539, 12.54232 ], [ 104.41316, 12.54993 ], [ 104.43051, 12.53253 ], [ 104.42361, 12.53592 ], [ 104.41131, 12.53852 ], [ 104.40764, 12.54114 ], [ 104.40133, 12.55666 ], [ 104.40546, 12.56258 ], [ 104.40952, 12.56385 ], [ 104.41976, 12.56167 ], [ 104.42766, 12.55356 ], [ 104.42904, 12.54979 ], [ 104.43026, 12.55359 ], [ 104.43426, 12.55001 ], [ 104.44061, 12.55296 ], [ 104.44376, 12.5504 ], [ 104.44398, 12.54726 ], [ 104.44983, 12.54654 ], [ 104.45338, 12.5429 ], [ 104.45338, 12.54725 ], [ 104.46039, 12.54274 ], [ 104.46256, 12.54398 ], [ 104.4641, 12.54833 ], [ 104.46684, 12.54712 ], [ 104.4665, 12.54324 ], [ 104.47246, 12.54652 ], [ 104.47568, 12.54523 ], [ 104.47659, 12.54673 ], [ 104.47953, 12.54613 ], [ 104.48733, 12.56072 ], [ 104.48369, 12.56579 ], [ 104.48336, 12.57251 ], [ 104.47284, 12.57814 ], [ 104.46702, 12.58784 ], [ 104.46492, 12.58689 ], [ 104.46664, 12.5814 ], [ 104.45129, 12.5948 ], [ 104.45682, 12.59322 ], [ 104.45467, 12.59534 ], [ 104.44602, 12.59783 ], [ 104.44616, 12.60201 ], [ 104.45295, 12.60674 ], [ 104.45413, 12.60572 ], [ 104.45478, 12.61053 ], [ 104.465, 12.61464 ], [ 104.46292, 12.61742 ], [ 104.46641, 12.62377 ], [ 104.4747, 12.65356 ], [ 104.47407, 12.6659 ], [ 104.47675, 12.67046 ], [ 104.47511, 12.67244 ], [ 104.4709, 12.70123 ], [ 104.47651, 12.70427 ], [ 104.47048, 12.70476 ], [ 104.46572, 12.71568 ], [ 104.91262, 12.71568 ], [ 104.94409, 12.70795 ], [ 104.9632, 12.69793 ], [ 104.97995, 12.68443 ], [ 104.9937, 12.66799 ], [ 105.00391, 12.64923 ], [ 105.01179, 12.61834 ], [ 105.01196, 12.21962 ] ] ] ] } }
]
}
