{
"type": "FeatureCollection",
"name": "province",
"crs": { "type": "name", "properties": { "name": "urn:ogc:def:crs:OGC:1.3:CRS84" } },
"xy_coordinate_resolution": 1e-05,
"features": [
{ "type": "Feature", "properties": { "Name_KH": "កំពង់ឆ្នាំង", "Name_EN": "Kampong Chhnang" }, "geometry": { "type": "MultiPolygon", "coordinates": [ [ [ [ 104.45035, 12.51519 ], [ 104.44522, 12.51628 ], [ 104.4426, 12.51835 ], [ 104.44298, 12.51935 ], [ 104.4492, 12.51914 ], [ 104.4565, 12.51712 ], [ 104.45035, 12.51519 ] ] ], [ [ [ 104.43152, 12.52169 ], [ 104.44566, 12.51325 ], [ 104.44751, 12.5129 ], [ 104.44838, 12.51232 ], [ 104.44783, 12.5114 ], [ 104.44423, 12.51119 ], [ 104.44254, 12.51252 ], [ 104.44469, 12.51218 ], [ 104.44298, 12.51358 ], [ 104.43921, 12.515 ], [ 104.42598, 12.51334 ], [ 104.42418, 12.5138 ], [ 104.42114, 12.5166 ], [ 104.42797, 12.52053 ], [ 104.42191, 12.52091 ], [ 104.41945, 12.52218 ], [ 104.42277, 12.52426 ], [ 104.43152, 12.52169 ] ] ], [ [ [ 104.39804, 12.53523 ], [ 104.40496, 12.53003 ], [ 104.40744, 12.52968 ], [ 104.41644, 12.53149 ], [ 104.42105, 12.53078 ], [ 104.42427, 12.52906 ], [ 104.4279, 12.52509 ], [ 104.42161, 12.52582 ], [ 104.41241, 12.52005 ], [ 104.40619, 12.51874 ], [ 104.39119, 12.5202 ], [ 104.38914, 12.52215 ], [ 104.38768, 12.52677 ], [ 104.38452, 12.5296 ], [ 104.3893, 12.52864 ], [ 104.39021, 12.52914 ], [ 104.38856, 12.53194 ], [ 104.39299, 12.53123 ], [ 104.39334, 12.53244 ], [ 104.38867, 12.5389 ], [ 104.38986, 12.54662 ], [ 104.39075, 12.54733 ], [ 104.39345, 12.54439 ], [ 104.39804, 12.53523 ] ] ], [ [ [ 104.40423, 12.54487 ], [ 104.4084, 12.53894 ], [ 104.42316, 12.53406 ], [ 104.44228, 12.52251 ], [ 104.43741, 12.5224 ], [ 104.43281, 12.52435 ], [ 104.42919, 12.52734 ], [ 104.42809, 12.52982 ], [ 104.42017, 12.53344 ], [ 104.41532, 12.53383 ], [ 104.40658, 12.53121 ], [ 104.40431, 12.5318 ], [ 104.39565, 12.54364 ], [ 104.39735, 12.54651 ], [ 104.39956, 12.54478 ], [ 104.39999, 12.54676 ], [ 104.39917, 12.54911 ], [ 104.40101, 12.55175 ], [ 104.40423, 12.54487 ] ] ], [ [ [ 104.62719, 12.60744 ], [ 104.64951, 12.59789 ], [ 104.65533, 12.59419 ], [ 104.66699, 12.58996 ], [ 104.67698, 12.58782 ], [ 104.69449, 12.57998 ], [ 104.70524, 12.57389 ], [ 104.71333, 12.56751 ], [ 104.7147, 12.56772 ], [ 104.71681, 12.56657 ], [ 104.7239, 12.56125 ], [ 104.74359, 12.55057 ], [ 104.81955, 12.53137 ], [ 104.82062, 12.52833 ], [ 104.82616, 12.52439 ], [ 104.8285, 12.52149 ], [ 104.82552, 12.51745 ], [ 104.82549, 12.51258 ], [ 104.82212, 12.5085 ], [ 104.82554, 12.50246 ], [ 104.82503, 12.49991 ], [ 104.82195, 12.49711 ], [ 104.82207, 12.49351 ], [ 104.81733, 12.49307 ], [ 104.81564, 12.49188 ], [ 104.81459, 12.48824 ], [ 104.81518, 12.48638 ], [ 104.81692, 12.48256 ], [ 104.81823, 12.4817 ], [ 104.82515, 12.48116 ], [ 104.82951, 12.47698 ], [ 104.83557, 12.47937 ], [ 104.8411, 12.47411 ], [ 104.84189, 12.47237 ], [ 104.84101, 12.47039 ], [ 104.82829, 12.46713 ], [ 104.82876, 12.46377 ], [ 104.83256, 12.46087 ], [ 104.83277, 12.45621 ], [ 104.83639, 12.45325 ], [ 104.83526, 12.45026 ], [ 104.83588, 12.44968 ], [ 104.83989, 12.45124 ], [ 104.8429, 12.44959 ], [ 104.84072, 12.44651 ], [ 104.83656, 12.44439 ], [ 104.83625, 12.44231 ], [ 104.83789, 12.44137 ], [ 104.841, 12.44233 ], [ 104.84276, 12.4417 ], [ 104.84406, 12.43644 ], [ 104.84144, 12.43316 ], [ 104.84451, 12.43143 ], [ 104.84752, 12.42828 ], [ 104.85193, 12.42631 ], [ 104.86188, 12.42981 ], [ 104.86119, 12.42219 ], [ 104.86434, 12.42091 ], [ 104.86204, 12.41687 ], [ 104.8647, 12.41496 ], [ 104.8671, 12.41102 ], [ 104.8654, 12.40569 ], [ 104.8665, 12.40044 ], [ 104.86596, 12.3958 ], [ 104.8644, 12.39305 ], [ 104.86135, 12.39149 ], [ 104.85978, 12.38903 ], [ 104.86176, 12.3844 ], [ 104.85971, 12.37993 ], [ 104.86186, 12.37835 ], [ 104.86339, 12.37462 ], [ 104.86093, 12.37109 ], [ 104.86518, 12.37011 ], [ 104.86644, 12.37321 ], [ 104.86782, 12.37424 ], [ 104.86923, 12.37218 ], [ 104.87233, 12.37178 ], [ 104.87348, 12.37271 ], [ 104.87234, 12.37366 ], [ 104.87376, 12.37419 ], [ 104.87409, 12.37728 ], [ 104.87672, 12.37897 ], [ 104.87718, 12.38059 ], [ 104.87847, 12.37912 ], [ 104.87966, 12.3803 ], [ 104.87956, 12.38172 ], [ 104.88102, 12.3804 ], [ 104.88143, 12.38142 ], [ 104.8826, 12.38066 ], [ 104.88431, 12.38235 ], [ 104.88589, 12.39187 ], [ 104.88349, 12.39227 ], [ 104.88532, 12.39358 ], [ 104.88473, 12.39607 ], [ 104.88611, 12.39513 ], [ 104.88675, 12.39732 ], [ 104.88781, 12.39566 ], [ 104.89095, 12.39966 ], [ 104.89214, 12.39888 ], [ 104.89344, 12.39601 ], [ 104.89466, 12.39611 ], [ 104.89442, 12.39515 ], [ 104.89532, 12.39507 ], [ 104.89642, 12.38859 ], [ 104.89362, 12.38271 ], [ 104.89364, 12.37825 ], [ 104.89584, 12.37936 ], [ 104.89629, 12.37886 ], [ 104.8941, 12.37608 ], [ 104.89804, 12.37622 ], [ 104.89914, 12.37325 ], [ 104.89762, 12.37251 ], [ 104.89762, 12.3711 ], [ 104.89981, 12.37128 ], [ 104.90036, 12.36957 ], [ 104.89953, 12.36683 ], [ 104.89675, 12.36452 ], [ 104.89779, 12.36337 ], [ 104.89717, 12.36242 ], [ 104.89809, 12.36079 ], [ 104.89684, 12.36038 ], [ 104.89638, 12.3592 ], [ 104.89535, 12.36151 ], [ 104.89413, 12.35866 ], [ 104.89293, 12.35837 ], [ 104.89335, 12.35644 ], [ 104.8913, 12.35563 ], [ 104.89148, 12.35296 ], [ 104.89485, 12.35027 ], [ 104.89508, 12.34869 ], [ 104.89319, 12.34588 ], [ 104.89363, 12.34328 ], [ 104.89027, 12.3416 ], [ 104.88917, 12.33991 ], [ 104.8874, 12.34047 ], [ 104.88369, 12.33995 ], [ 104.88013, 12.33837 ], [ 104.87067, 12.32964 ], [ 104.86842, 12.32517 ], [ 104.86304, 12.32538 ], [ 104.86231, 12.32472 ], [ 104.86315, 12.31904 ], [ 104.86207, 12.31858 ], [ 104.86193, 12.31519 ], [ 104.86001, 12.31425 ], [ 104.85932, 12.31123 ], [ 104.85756, 12.30992 ], [ 104.85747, 12.30778 ], [ 104.85385, 12.30559 ], [ 104.85317, 12.30429 ], [ 104.85321, 12.30037 ], [ 104.85473, 12.29428 ], [ 104.85151, 12.29042 ], [ 104.85116, 12.28637 ], [ 104.85126, 12.28485 ], [ 104.85319, 12.28325 ], [ 104.85631, 12.28273 ], [ 104.85818, 12.27231 ], [ 104.86049, 12.26745 ], [ 104.86155, 12.26194 ], [ 104.86479, 12.25504 ], [ 104.87261, 12.24377 ], [ 104.87227, 12.23878 ], [ 104.87372, 12.23236 ], [ 104.87641, 12.2313 ], [ 104.87764, 12.22711 ], [ 104.88165, 12.22648 ], [ 104.88544, 12.22405 ], [ 104.88832, 12.22408 ], [ 104.88766, 12.22162 ], [ 104.88867, 12.21941 ], [ 104.88527, 12.2191 ], [ 104.88447, 12.21655 ], [ 104.88483, 12.21361 ], [ 104.88327, 12.21421 ], [ 104.88211, 12.21323 ], [ 104.88392, 12.2074 ], [ 104.88491, 12.20642 ], [ 104.88749, 12.20627 ], [ 104.89363, 12.20875 ], [ 104.8966, 12.20863 ], [ 104.89897, 12.20688 ], [ 104.90005, 12.2024 ], [ 104.90199, 12.17691 ], [ 104.90162, 12.15775 ], [ 104.89353, 12.14888 ], [ 104.88913, 12.14192 ], [ 104.88602, 12.13481 ], [ 104.88598, 12.12153 ], [ 104.86914, 12.07299 ], [ 104.87221, 12.07115 ], [ 104.87333, 12.07191 ], [ 104.87326, 12.07424 ], [ 104.87775, 12.07402 ], [ 104.8814, 12.07186 ], [ 104.88463, 12.06486 ], [ 104.88883, 12.06013 ], [ 104.8891, 12.05589 ], [ 104.89059, 12.05202 ], [ 104.88948, 12.04995 ], [ 104.89273, 12.04158 ], [ 104.89214, 12.03901 ], [ 104.88899, 12.03585 ], [ 104.88768, 12.03139 ], [ 104.89488, 12.01769 ], [ 104.89327, 12.01576 ], [ 104.89425, 12.01488 ], [ 104.89272, 12.01276 ], [ 104.88762, 12.01046 ], [ 104.88919, 12.00525 ], [ 104.88801, 11.9957 ], [ 104.88959, 11.99441 ], [ 104.88721, 11.99436 ], [ 104.88807, 11.99283 ], [ 104.88526, 11.99078 ], [ 104.88588, 11.99006 ], [ 104.88541, 11.98768 ], [ 104.88408, 11.98726 ], [ 104.88393, 11.98818 ], [ 104.8812, 11.98931 ], [ 104.88029, 11.98866 ], [ 104.88062, 11.98766 ], [ 104.87772, 11.98595 ], [ 104.87679, 11.98885 ], [ 104.87911, 11.98992 ], [ 104.87885, 11.99097 ], [ 104.87718, 11.99066 ], [ 104.86894, 11.98722 ], [ 104.86789, 11.98477 ], [ 104.86031, 11.98301 ], [ 104.85836, 11.97855 ], [ 104.85178, 11.97247 ], [ 104.85084, 11.96523 ], [ 104.84564, 11.95132 ], [ 104.84146, 11.94756 ], [ 104.83232, 11.94539 ], [ 104.82868, 11.93412 ], [ 104.82823, 11.91621 ], [ 104.82713, 11.91041 ], [ 104.81981, 11.89761 ], [ 104.82132, 11.89171 ], [ 104.82124, 11.88626 ], [ 104.81432, 11.89282 ], [ 104.81028, 11.89431 ], [ 104.80251, 11.89156 ], [ 104.79021, 11.88994 ], [ 104.78623, 11.88847 ], [ 104.78294, 11.88599 ], [ 104.78086, 11.88038 ], [ 104.77978, 11.87997 ], [ 104.77204, 11.88736 ], [ 104.76395, 11.88096 ], [ 104.76847, 11.8705 ], [ 104.77189, 11.86657 ], [ 104.77176, 11.86388 ], [ 104.77045, 11.86407 ], [ 104.76909, 11.86197 ], [ 104.76923, 11.85983 ], [ 104.77228, 11.85717 ], [ 104.76971, 11.85224 ], [ 104.7753, 11.84956 ], [ 104.77573, 11.84743 ], [ 104.7784, 11.84328 ], [ 104.78235, 11.83912 ], [ 104.78094, 11.83782 ], [ 104.77913, 11.83808 ], [ 104.77701, 11.83589 ], [ 104.77304, 11.83524 ], [ 104.77267, 11.8344 ], [ 104.77196, 11.8353 ], [ 104.77041, 11.83401 ], [ 104.76924, 11.83594 ], [ 104.76835, 11.83601 ], [ 104.76506, 11.83108 ], [ 104.75716, 11.82762 ], [ 104.75432, 11.8275 ], [ 104.74977, 11.83044 ], [ 104.74636, 11.82969 ], [ 104.74535, 11.8306 ], [ 104.73862, 11.82893 ], [ 104.73823, 11.82738 ], [ 104.73651, 11.82628 ], [ 104.73533, 11.82599 ], [ 104.73316, 11.82734 ], [ 104.73317, 11.82591 ], [ 104.72974, 11.82375 ], [ 104.72672, 11.82342 ], [ 104.72642, 11.82518 ], [ 104.72471, 11.82337 ], [ 104.72456, 11.82153 ], [ 104.72619, 11.8178 ], [ 104.72477, 11.81633 ], [ 104.71985, 11.81365 ], [ 104.71794, 11.81362 ], [ 104.71702, 11.8149 ], [ 104.71508, 11.81351 ], [ 104.71355, 11.81458 ], [ 104.71259, 11.8137 ], [ 104.71297, 11.81235 ], [ 104.71063, 11.81013 ], [ 104.70824, 11.8105 ], [ 104.70458, 11.80887 ], [ 104.70388, 11.81029 ], [ 104.70051, 11.80981 ], [ 104.69643, 11.81117 ], [ 104.69526, 11.81322 ], [ 104.69296, 11.81295 ], [ 104.69283, 11.81452 ], [ 104.6886, 11.81497 ], [ 104.6877, 11.81424 ], [ 104.68864, 11.81301 ], [ 104.68825, 11.81202 ], [ 104.6854, 11.81072 ], [ 104.68338, 11.80748 ], [ 104.68269, 11.80704 ], [ 104.68161, 11.80844 ], [ 104.67859, 11.80695 ], [ 104.67763, 11.80867 ], [ 104.67648, 11.80865 ], [ 104.67546, 11.80643 ], [ 104.67257, 11.80408 ], [ 104.66829, 11.80733 ], [ 104.66225, 11.80802 ], [ 104.65937, 11.80919 ], [ 104.65632, 11.80873 ], [ 104.6516, 11.81128 ], [ 104.64959, 11.8085 ], [ 104.6484, 11.80948 ], [ 104.64638, 11.80723 ], [ 104.64408, 11.80754 ], [ 104.64229, 11.80554 ], [ 104.64079, 11.80583 ], [ 104.63879, 11.80812 ], [ 104.63686, 11.80636 ], [ 104.6337, 11.80703 ], [ 104.63314, 11.80559 ], [ 104.6285, 11.80652 ], [ 104.62191, 11.80588 ], [ 104.62149, 11.80462 ], [ 104.62384, 11.80379 ], [ 104.62393, 11.80248 ], [ 104.62254, 11.80185 ], [ 104.62042, 11.80327 ], [ 104.61961, 11.80082 ], [ 104.61565, 11.79803 ], [ 104.61165, 11.79807 ], [ 104.61159, 11.79501 ], [ 104.60939, 11.79296 ], [ 104.60785, 11.79406 ], [ 104.60059, 11.79029 ], [ 104.59904, 11.79088 ], [ 104.5973, 11.78996 ], [ 104.59521, 11.79179 ], [ 104.59455, 11.79128 ], [ 104.59501, 11.78809 ], [ 104.58757, 11.78179 ], [ 104.58716, 11.78053 ], [ 104.58789, 11.77928 ], [ 104.58568, 11.77811 ], [ 104.58479, 11.77649 ], [ 104.58105, 11.77591 ], [ 104.57879, 11.77291 ], [ 104.57737, 11.77249 ], [ 104.57525, 11.76918 ], [ 104.57536, 11.76664 ], [ 104.57284, 11.76589 ], [ 104.57196, 11.76646 ], [ 104.57186, 11.76421 ], [ 104.56566, 11.76123 ], [ 104.56581, 11.75986 ], [ 104.56418, 11.75889 ], [ 104.56478, 11.75723 ], [ 104.56292, 11.75487 ], [ 104.55704, 11.75222 ], [ 104.55803, 11.75098 ], [ 104.55731, 11.75052 ], [ 104.55379, 11.74953 ], [ 104.55348, 11.74798 ], [ 104.55186, 11.74697 ], [ 104.55176, 11.74548 ], [ 104.55304, 11.74418 ], [ 104.55275, 11.74243 ], [ 104.5512, 11.74416 ], [ 104.54577, 11.74054 ], [ 104.54392, 11.74029 ], [ 104.54248, 11.74212 ], [ 104.54066, 11.74073 ], [ 104.53743, 11.74286 ], [ 104.53319, 11.73679 ], [ 104.53197, 11.73912 ], [ 104.5297, 11.73967 ], [ 104.5297, 11.73844 ], [ 104.52835, 11.7371 ], [ 104.52492, 11.73799 ], [ 104.52443, 11.73578 ], [ 104.52337, 11.73545 ], [ 104.52298, 11.73712 ], [ 104.51586, 11.7344 ], [ 104.51319, 11.73457 ], [ 104.51169, 11.73645 ], [ 104.50968, 11.73595 ], [ 104.50652, 11.73794 ], [ 104.50172, 11.73667 ], [ 104.50082, 11.73751 ], [ 104.49488, 11.73811 ], [ 104.49255, 11.73553 ], [ 104.48797, 11.73533 ], [ 104.48604, 11.73674 ], [ 104.48623, 11.73849 ], [ 104.48298, 11.74073 ], [ 104.47397, 11.74417 ], [ 104.47269, 11.74761 ], [ 104.47028, 11.7496 ], [ 104.46789, 11.75427 ], [ 104.46472, 11.75553 ], [ 104.46191, 11.75544 ], [ 104.45928, 11.75391 ], [ 104.45368, 11.75708 ], [ 104.44888, 11.75738 ], [ 104.44128, 11.75953 ], [ 104.43995, 11.76061 ], [ 104.43871, 11.76021 ], [ 104.43765, 11.75821 ], [ 104.43163, 11.75903 ], [ 104.42835, 11.76045 ], [ 104.42309, 11.76079 ], [ 104.42147, 11.76 ], [ 104.41956, 11.76134 ], [ 104.41819, 11.76066 ], [ 104.41413, 11.76417 ], [ 104.40988, 11.76294 ], [ 104.40808, 11.76579 ], [ 104.40712, 11.76513 ], [ 104.40606, 11.7663 ], [ 104.4026, 11.76623 ], [ 104.401, 11.76731 ], [ 104.4012, 11.76851 ], [ 104.40047, 11.76889 ], [ 104.39455, 11.76644 ], [ 104.38826, 11.7705 ], [ 104.38275, 11.76874 ], [ 104.38066, 11.76993 ], [ 104.37722, 11.76774 ], [ 104.37349, 11.76952 ], [ 104.37259, 11.77067 ], [ 104.37276, 11.77217 ], [ 104.36786, 11.77419 ], [ 104.36584, 11.77665 ], [ 104.36153, 11.78503 ], [ 104.36011, 11.78535 ], [ 104.3591, 11.78781 ], [ 104.35526, 11.79078 ], [ 104.35353, 11.79429 ], [ 104.34885, 11.79873 ], [ 104.34587, 11.80019 ], [ 104.34488, 11.80273 ], [ 104.34415, 11.80236 ], [ 104.34271, 11.80421 ], [ 104.3383, 11.80644 ], [ 104.33788, 11.80922 ], [ 104.33603, 11.809 ], [ 104.3348, 11.81201 ], [ 104.33168, 11.8152 ], [ 104.33148, 11.81957 ], [ 104.33037, 11.82224 ], [ 104.32647, 11.82359 ], [ 104.32345, 11.82731 ], [ 104.32319, 11.8324 ], [ 104.32396, 11.83325 ], [ 104.32111, 11.83733 ], [ 104.3204, 11.84001 ], [ 104.3226, 11.84243 ], [ 104.32161, 11.84543 ], [ 104.32427, 11.84896 ], [ 104.32337, 11.85139 ], [ 104.32529, 11.85369 ], [ 104.31799, 11.86234 ], [ 104.31661, 11.86535 ], [ 104.31741, 11.86722 ], [ 104.31456, 11.86936 ], [ 104.31312, 11.86948 ], [ 104.31287, 11.87609 ], [ 104.31133, 11.87741 ], [ 104.31192, 11.87874 ], [ 104.31011, 11.87878 ], [ 104.30827, 11.88046 ], [ 104.3065, 11.88061 ], [ 104.30665, 11.88306 ], [ 104.3013, 11.88492 ], [ 104.30046, 11.88752 ], [ 104.29644, 11.88893 ], [ 104.29306, 11.89346 ], [ 104.28912, 11.89445 ], [ 104.28555, 11.89683 ], [ 104.28253, 11.8972 ], [ 104.2808, 11.89944 ], [ 104.27877, 11.89919 ], [ 104.27761, 11.90186 ], [ 104.27665, 11.90166 ], [ 104.27612, 11.90371 ], [ 104.27142, 11.90673 ], [ 104.26595, 11.91357 ], [ 104.26646, 11.91638 ], [ 104.26507, 11.91763 ], [ 104.26772, 11.92171 ], [ 104.26853, 11.9267 ], [ 104.2675, 11.92745 ], [ 104.26552, 11.92704 ], [ 104.26487, 11.93145 ], [ 104.2631, 11.93319 ], [ 104.26358, 11.93487 ], [ 104.26206, 11.93477 ], [ 104.25983, 11.93729 ], [ 104.25936, 11.93815 ], [ 104.26031, 11.94009 ], [ 104.25791, 11.94115 ], [ 104.25927, 11.9422 ], [ 104.25803, 11.9432 ], [ 104.25766, 11.946 ], [ 104.25566, 11.94898 ], [ 104.25607, 11.9561 ], [ 104.2617, 11.96695 ], [ 104.26343, 11.97783 ], [ 104.26221, 11.98285 ], [ 104.25887, 11.98836 ], [ 104.2585, 11.99575 ], [ 104.2564, 11.99782 ], [ 104.25166, 12.00595 ], [ 104.24759, 12.00561 ], [ 104.23843, 12.00722 ], [ 104.23337, 12.01045 ], [ 104.22338, 12.01231 ], [ 104.21999, 12.01487 ], [ 104.21567, 12.02248 ], [ 104.21204, 12.03415 ], [ 104.21, 12.03734 ], [ 104.20796, 12.04848 ], [ 104.20463, 12.05265 ], [ 104.20467, 12.06002 ], [ 104.20265, 12.06262 ], [ 104.20259, 12.06777 ], [ 104.19964, 12.07685 ], [ 104.20018, 12.08225 ], [ 104.19801, 12.0847 ], [ 104.19674, 12.0882 ], [ 104.19767, 12.09083 ], [ 104.19613, 12.09177 ], [ 104.19702, 12.0954 ], [ 104.1952, 12.09789 ], [ 104.19291, 12.09905 ], [ 104.19147, 12.1042 ], [ 104.18742, 12.10449 ], [ 104.18485, 12.10626 ], [ 104.18712, 12.10845 ], [ 104.18611, 12.11273 ], [ 104.18693, 12.11691 ], [ 104.18567, 12.13864 ], [ 104.187, 12.14259 ], [ 104.18478, 12.14914 ], [ 104.18491, 12.1638 ], [ 104.18316, 12.16561 ], [ 104.18351, 12.16812 ], [ 104.18258, 12.16913 ], [ 104.17858, 12.17229 ], [ 104.17356, 12.17314 ], [ 104.1713, 12.1775 ], [ 104.17194, 12.18344 ], [ 104.17122, 12.18808 ], [ 104.17616, 12.19392 ], [ 104.17588, 12.19642 ], [ 104.17396, 12.19729 ], [ 104.17203, 12.20012 ], [ 104.17275, 12.20461 ], [ 104.17572, 12.2165 ], [ 104.17811, 12.23356 ], [ 104.18041, 12.23789 ], [ 104.18025, 12.2414 ], [ 104.18336, 12.2445 ], [ 104.18514, 12.24906 ], [ 104.18828, 12.25312 ], [ 104.18883, 12.25885 ], [ 104.19348, 12.26118 ], [ 104.19765, 12.26562 ], [ 104.20018, 12.26622 ], [ 104.20192, 12.27156 ], [ 104.20727, 12.27635 ], [ 104.21056, 12.28268 ], [ 104.21368, 12.28544 ], [ 104.21702, 12.28686 ], [ 104.21817, 12.28933 ], [ 104.22236, 12.29146 ], [ 104.22752, 12.29129 ], [ 104.23369, 12.29302 ], [ 104.23581, 12.29216 ], [ 104.24317, 12.2943 ], [ 104.24551, 12.29601 ], [ 104.24867, 12.2945 ], [ 104.25471, 12.2951 ], [ 104.26115, 12.29898 ], [ 104.26349, 12.29885 ], [ 104.26603, 12.30269 ], [ 104.26684, 12.30711 ], [ 104.26899, 12.30866 ], [ 104.27228, 12.31338 ], [ 104.27785, 12.31573 ], [ 104.27913, 12.31843 ], [ 104.28163, 12.31958 ], [ 104.28355, 12.32259 ], [ 104.29179, 12.32294 ], [ 104.2938, 12.32195 ], [ 104.29696, 12.32209 ], [ 104.29957, 12.32297 ], [ 104.3026, 12.32606 ], [ 104.30753, 12.32611 ], [ 104.30984, 12.32671 ], [ 104.31047, 12.32793 ], [ 104.31196, 12.32562 ], [ 104.31417, 12.32583 ], [ 104.31511, 12.32798 ], [ 104.31429, 12.33179 ], [ 104.32261, 12.33408 ], [ 104.32662, 12.33736 ], [ 104.32889, 12.34243 ], [ 104.33416, 12.34756 ], [ 104.33881, 12.35494 ], [ 104.34939, 12.38385 ], [ 104.35027, 12.39451 ], [ 104.35281, 12.39869 ], [ 104.35793, 12.40021 ], [ 104.36335, 12.40455 ], [ 104.37008, 12.40831 ], [ 104.37306, 12.41112 ], [ 104.37597, 12.41658 ], [ 104.38592, 12.41733 ], [ 104.3926, 12.42022 ], [ 104.38752, 12.42686 ], [ 104.38765, 12.4321 ], [ 104.3893, 12.43588 ], [ 104.38391, 12.44592 ], [ 104.38331, 12.44964 ], [ 104.38024, 12.4562 ], [ 104.38093, 12.47144 ], [ 104.38197, 12.47608 ], [ 104.38671, 12.48398 ], [ 104.38642, 12.4899 ], [ 104.38881, 12.49723 ], [ 104.38824, 12.49964 ], [ 104.38612, 12.50251 ], [ 104.38799, 12.50418 ], [ 104.38626, 12.50934 ], [ 104.38865, 12.51223 ], [ 104.39068, 12.50999 ], [ 104.39721, 12.50662 ], [ 104.40252, 12.507 ], [ 104.40631, 12.50867 ], [ 104.40928, 12.51254 ], [ 104.41289, 12.50994 ], [ 104.41309, 12.512 ], [ 104.41759, 12.51179 ], [ 104.41836, 12.51084 ], [ 104.43513, 12.51418 ], [ 104.43904, 12.51369 ], [ 104.44341, 12.50994 ], [ 104.44704, 12.50861 ], [ 104.46208, 12.51309 ], [ 104.46615, 12.51209 ], [ 104.47104, 12.50805 ], [ 104.47351, 12.50835 ], [ 104.47477, 12.50812 ], [ 104.47469, 12.50738 ], [ 104.47871, 12.5083 ], [ 104.48074, 12.50711 ], [ 104.48224, 12.50774 ], [ 104.48298, 12.50828 ], [ 104.47385, 12.51134 ], [ 104.47142, 12.51297 ], [ 104.47477, 12.51459 ], [ 104.47827, 12.51397 ], [ 104.48275, 12.51113 ], [ 104.49044, 12.5035 ], [ 104.49177, 12.5036 ], [ 104.48967, 12.50602 ], [ 104.49535, 12.50199 ], [ 104.49745, 12.4963 ], [ 104.49719, 12.49354 ], [ 104.49862, 12.49094 ], [ 104.5048, 12.48567 ], [ 104.50476, 12.47985 ], [ 104.5062, 12.47775 ], [ 104.50777, 12.47187 ], [ 104.51145, 12.46691 ], [ 104.51458, 12.46025 ], [ 104.51435, 12.45862 ], [ 104.51729, 12.45836 ], [ 104.52229, 12.45638 ], [ 104.52403, 12.45191 ], [ 104.52718, 12.44948 ], [ 104.5278, 12.44678 ], [ 104.52925, 12.44504 ], [ 104.53361, 12.4468 ], [ 104.54106, 12.44202 ], [ 104.54284, 12.44051 ], [ 104.54264, 12.4398 ], [ 104.54729, 12.4404 ], [ 104.54939, 12.43984 ], [ 104.55691, 12.43401 ], [ 104.56522, 12.42594 ], [ 104.57049, 12.42454 ], [ 104.57283, 12.42513 ], [ 104.57207, 12.4281 ], [ 104.56992, 12.4309 ], [ 104.57021, 12.43414 ], [ 104.56743, 12.43701 ], [ 104.56753, 12.43772 ], [ 104.56909, 12.43716 ], [ 104.57337, 12.43362 ], [ 104.57608, 12.42931 ], [ 104.57815, 12.4227 ], [ 104.57826, 12.41588 ], [ 104.5787, 12.41429 ], [ 104.57949, 12.41416 ], [ 104.58009, 12.42343 ], [ 104.58129, 12.42588 ], [ 104.58042, 12.43246 ], [ 104.57525, 12.43746 ], [ 104.57071, 12.44639 ], [ 104.55238, 12.45896 ], [ 104.54836, 12.46042 ], [ 104.53829, 12.46812 ], [ 104.53283, 12.47402 ], [ 104.52808, 12.48185 ], [ 104.52454, 12.48495 ], [ 104.51967, 12.49225 ], [ 104.52118, 12.49345 ], [ 104.52466, 12.4892 ], [ 104.53253, 12.48573 ], [ 104.53561, 12.48318 ], [ 104.54351, 12.48102 ], [ 104.54683, 12.47837 ], [ 104.54791, 12.47894 ], [ 104.55449, 12.47497 ], [ 104.55455, 12.47413 ], [ 104.55246, 12.47314 ], [ 104.55271, 12.4725 ], [ 104.56032, 12.47014 ], [ 104.56745, 12.46551 ], [ 104.57327, 12.45995 ], [ 104.57374, 12.45851 ], [ 104.58261, 12.45139 ], [ 104.58575, 12.45202 ], [ 104.58749, 12.45354 ], [ 104.58701, 12.45614 ], [ 104.58856, 12.45858 ], [ 104.59308, 12.45741 ], [ 104.59409, 12.46053 ], [ 104.59503, 12.46045 ], [ 104.59529, 12.46671 ], [ 104.59773, 12.47128 ], [ 104.59594, 12.47469 ], [ 104.59521, 12.48494 ], [ 104.5884, 12.48943 ], [ 104.57917, 12.49748 ], [ 104.57042, 12.5002 ], [ 104.56437, 12.5005 ], [ 104.5625, 12.50237 ], [ 104.56205, 12.50189 ], [ 104.55304, 12.50542 ], [ 104.54245, 12.51447 ], [ 104.52794, 12.5172 ], [ 104.5158, 12.52228 ], [ 104.51045, 12.52611 ], [ 104.51119, 12.535 ], [ 104.51631, 12.53971 ], [ 104.51771, 12.54375 ], [ 104.51959, 12.54567 ], [ 104.51864, 12.55301 ], [ 104.51728, 12.55419 ], [ 104.51786, 12.55627 ], [ 104.51648, 12.55769 ], [ 104.51792, 12.56669 ], [ 104.54316, 12.58243 ], [ 104.54793, 12.58365 ], [ 104.5565, 12.58832 ], [ 104.56869, 12.59293 ], [ 104.57977, 12.59396 ], [ 104.59406, 12.60242 ], [ 104.60695, 12.6022 ], [ 104.62719, 12.60744 ] ] ] ] } }
]
}
